( pcb2gcode 2.5.0 )
( Software-independent Gcode )

( This file uses 2 drill bit sizes. )
( Bit sizes: [0.7493mm] [1.00076mm] )

G94       (Millimeters per minute feed rate.)
G21       (Units == Millimeters.)
G90       (Absolute coordinates.)
G00 S10000     (RPM spindle speed.)

G00 Z30.00000 (Retract)
T1
M5      (Spindle stop.)
G04 P1.00000
(MSG, Change tool bit to drill size 0.7493mm)
;M6      (Tool change.)
M0      (Temporary machine stop.)
M3      (Spindle on clockwise.)
G0 Z5.00000
G04 P1.00000

G1 F200.00000
G0 X-56.55048 Y5.23528
G1 Z-2.50000
G1 Z5.00000
G0 X-56.55048 Y3.96528
G1 Z-2.50000
G1 Z5.00000
G0 X-56.55048 Y2.69528
G1 Z-2.50000
G1 Z5.00000
G0 X-46.12378 Y5.39022
G1 Z-2.50000
G1 Z5.00000
G0 X-46.12378 Y4.12022
G1 Z-2.50000
G1 Z5.00000
G0 X-46.12378 Y2.85022
G1 Z-2.50000
G1 Z5.00000
G0 X-35.42530 Y5.27592
G1 Z-2.50000
G1 Z5.00000
G0 X-35.42530 Y4.00592
G1 Z-2.50000
G1 Z5.00000
G0 X-35.42530 Y2.73592
G1 Z-2.50000
G1 Z5.00000
G0 X-25.02400 Y5.31402
G1 Z-2.50000
G1 Z5.00000
G0 X-25.02400 Y4.04402
G1 Z-2.50000
G1 Z5.00000
G0 X-25.02400 Y2.77402
G1 Z-2.50000
G1 Z5.00000
G0 X-14.53380 Y5.22004
G1 Z-2.50000
G1 Z5.00000
G0 X-14.53380 Y3.95004
G1 Z-2.50000
G1 Z5.00000
G0 X-14.53380 Y2.68004
G1 Z-2.50000
G1 Z5.00000
G0 X-4.02582 Y5.31402
G1 Z-2.50000
G1 Z5.00000
G0 X-4.02582 Y4.04402
G1 Z-2.50000
G1 Z5.00000
G0 X-4.02582 Y2.77402
G1 Z-2.50000
G1 Z5.00000

G00 Z30.00000 (Retract)
T2
M5      (Spindle stop.)
G04 P1.00000
(MSG, Change tool bit to drill size 1.00076mm)
;M6      (Tool change.)
M0      (Temporary machine stop.)
M3      (Spindle on clockwise.)
G0 Z5.00000
G04 P1.00000

G1 F200.00000
G0 X-60.74402 Y8.76588
G1 Z-2.50000
G1 Z5.00000
G0 X-60.72878 Y12.36506
G1 Z-2.50000
G1 Z5.00000
G0 X-58.18878 Y12.36506
G1 Z-2.50000
G1 Z5.00000
G0 X-58.20402 Y8.76588
G1 Z-2.50000
G1 Z5.00000
G0 X-55.66402 Y8.76588
G1 Z-2.50000
G1 Z5.00000
G0 X-55.64878 Y12.36506
G1 Z-2.50000
G1 Z5.00000
G0 X-50.30462 Y12.52000
G1 Z-2.50000
G1 Z5.00000
G0 X-50.30462 Y8.92082
G1 Z-2.50000
G1 Z5.00000
G0 X-47.76462 Y8.92082
G1 Z-2.50000
G1 Z5.00000
G0 X-47.76462 Y12.52000
G1 Z-2.50000
G1 Z5.00000
G0 X-45.22462 Y12.52000
G1 Z-2.50000
G1 Z5.00000
G0 X-45.22462 Y8.92082
G1 Z-2.50000
G1 Z5.00000
G0 X-39.60614 Y12.40570
G1 Z-2.50000
G1 Z5.00000
G0 X-39.60614 Y8.80398
G1 Z-2.50000
G1 Z5.00000
G0 X-37.06614 Y8.80398
G1 Z-2.50000
G1 Z5.00000
G0 X-37.06614 Y12.40570
G1 Z-2.50000
G1 Z5.00000
G0 X-34.52614 Y12.40570
G1 Z-2.50000
G1 Z5.00000
G0 X-34.52614 Y8.80398
G1 Z-2.50000
G1 Z5.00000
G0 X-29.22008 Y12.44380
G1 Z-2.50000
G1 Z5.00000
G0 X-29.22008 Y8.84462
G1 Z-2.50000
G1 Z5.00000
G0 X-26.68008 Y8.84462
G1 Z-2.50000
G1 Z5.00000
G0 X-26.68008 Y12.44380
G1 Z-2.50000
G1 Z5.00000
G0 X-24.14008 Y12.44380
G1 Z-2.50000
G1 Z5.00000
G0 X-24.14008 Y8.84462
G1 Z-2.50000
G1 Z5.00000
G0 X-18.67400 Y12.34982
G1 Z-2.50000
G1 Z5.00000
G0 X-18.67400 Y8.75064
G1 Z-2.50000
G1 Z5.00000
G0 X-16.13400 Y8.75064
G1 Z-2.50000
G1 Z5.00000
G0 X-16.13400 Y12.34982
G1 Z-2.50000
G1 Z5.00000
G0 X-13.59400 Y12.34982
G1 Z-2.50000
G1 Z5.00000
G0 X-13.59400 Y8.75064
G1 Z-2.50000
G1 Z5.00000
G0 X-8.20412 Y12.44380
G1 Z-2.50000
G1 Z5.00000
G0 X-5.66412 Y12.44380
G1 Z-2.50000
G1 Z5.00000
G0 X-3.12412 Y12.44380
G1 Z-2.50000
G1 Z5.00000
G0 X-3.12412 Y8.84462
G1 Z-2.50000
G1 Z5.00000
G0 X-5.66412 Y8.84462
G1 Z-2.50000
G1 Z5.00000
G0 X-8.20412 Y8.84462
G1 Z-2.50000
G1 Z5.00000

G00 Z30.000 ( All done -- retract )

M5      (Spindle off.)
G04 P1.000000
M9      (Coolant off.)
M2      (Program end.)

