( pcb2gcode 2.5.0 )
( Software-independent Gcode )

G94 ( Millimeters per minute feed rate. )
G21 ( Units == Millimeters. )

G90 ( Absolute coordinates. )
G00 S10000 ( RPM spindle speed. )
G01 F100.00000 ( Feedrate. )


G00 Z30.00000 (Retract to tool change height)
T1
M5      (Spindle stop.)
G04 P1.00000 (Wait for spindle to stop)
(MSG, Change tool bit to cutter diameter 1.00000mm)
;M6      (Tool change.)
M0      (Temporary machine stop.)
M3 ( Spindle on clockwise. )
G04 P1.00000 (Wait for spindle to get up to speed)
G04 P0 ( dwell for no time -- G64 should not smooth over this point )
G00 Z5.00000 ( retract )

G00 X-21.52497 Y1.02500 ( rapid move to begin. )
G01 Z-0.50000 F60.00000 ( plunge. )
G04 P0 ( dwell for no time -- G64 should not smooth over this point )
G01 F100.00000
G01 X-21.53460 Y0.92747
G01 X-21.56305 Y0.83366
G01 X-21.60925 Y0.74723
G01 X-21.67143 Y0.67146
G01 X-21.74720 Y0.60928
G01 X-21.83363 Y0.56308
G01 X-21.92744 Y0.53463
G01 X-22.02500 Y0.52500
G01 X-26.02499 Y0.52500
G01 X-27.52499 Y0.52500
G01 X-31.52498 Y0.52500
G01 X-31.62251 Y0.53463
G01 X-31.71632 Y0.56308
G01 X-31.80275 Y0.60928
G01 X-31.87852 Y0.67146
G01 X-31.94070 Y0.74723
G01 X-31.98690 Y0.83366
G01 X-32.01535 Y0.92747
G01 X-32.02495 Y1.02500
G01 X-32.02495 Y14.52503
G01 X-32.01535 Y14.62259
G01 X-31.98690 Y14.71639
G01 X-31.94070 Y14.80283
G01 X-31.87852 Y14.87859
G01 X-31.80275 Y14.94077
G01 X-31.71632 Y14.98698
G01 X-31.62251 Y15.01542
G01 X-31.52498 Y15.02505
G01 X-27.52499 Y15.02505
G01 X-26.02499 Y15.02505
G01 X-22.02500 Y15.02505
G01 X-21.92744 Y15.01542
G01 X-21.83363 Y14.98698
G01 X-21.74720 Y14.94077
G01 X-21.67143 Y14.87859
G01 X-21.60925 Y14.80283
G01 X-21.56305 Y14.71639
G01 X-21.53460 Y14.62259
G01 X-21.52497 Y14.52503
G00 Z5.00000 ( retract )
G00 X-21.52497 Y1.02500 ( rapid move to begin. )
G01 Z-1.00000 F60.00000 ( plunge. )
G04 P0 ( dwell for no time -- G64 should not smooth over this point )
G01 F100.00000
G01 X-21.53460 Y0.92747
G01 X-21.56305 Y0.83366
G01 X-21.60925 Y0.74723
G01 X-21.67143 Y0.67146
G01 X-21.74720 Y0.60928
G01 X-21.83363 Y0.56308
G01 X-21.92744 Y0.53463
G01 X-22.02500 Y0.52500
G01 X-26.02499 Y0.52500
G00 Z-0.60000
G01 X-27.52499 Y0.52500
G01 Z-1.00000 F60.00000
G01 F100.00000
G01 X-31.52498 Y0.52500
G01 X-31.62251 Y0.53463
G01 X-31.71632 Y0.56308
G01 X-31.80275 Y0.60928
G01 X-31.87852 Y0.67146
G01 X-31.94070 Y0.74723
G01 X-31.98690 Y0.83366
G01 X-32.01535 Y0.92747
G01 X-32.02495 Y1.02500
G01 X-32.02495 Y14.52503
G01 X-32.01535 Y14.62259
G01 X-31.98690 Y14.71639
G01 X-31.94070 Y14.80283
G01 X-31.87852 Y14.87859
G01 X-31.80275 Y14.94077
G01 X-31.71632 Y14.98698
G01 X-31.62251 Y15.01542
G01 X-31.52498 Y15.02505
G01 X-27.52499 Y15.02505
G00 Z-0.60000
G01 X-26.02499 Y15.02505
G01 Z-1.00000 F60.00000
G01 F100.00000
G01 X-22.02500 Y15.02505
G01 X-21.92744 Y15.01542
G01 X-21.83363 Y14.98698
G01 X-21.74720 Y14.94077
G01 X-21.67143 Y14.87859
G01 X-21.60925 Y14.80283
G01 X-21.56305 Y14.71639
G01 X-21.53460 Y14.62259
G01 X-21.52497 Y14.52503
G00 Z5.00000 ( retract )
G00 X-21.52497 Y1.02500 ( rapid move to begin. )
G01 Z-1.50000 F60.00000 ( plunge. )
G04 P0 ( dwell for no time -- G64 should not smooth over this point )
G01 F100.00000
G01 X-21.53460 Y0.92747
G01 X-21.56305 Y0.83366
G01 X-21.60925 Y0.74723
G01 X-21.67143 Y0.67146
G01 X-21.74720 Y0.60928
G01 X-21.83363 Y0.56308
G01 X-21.92744 Y0.53463
G01 X-22.02500 Y0.52500
G01 X-26.02499 Y0.52500
G00 Z-0.60000
G01 X-27.52499 Y0.52500
G01 Z-1.50000 F60.00000
G01 F100.00000
G01 X-31.52498 Y0.52500
G01 X-31.62251 Y0.53463
G01 X-31.71632 Y0.56308
G01 X-31.80275 Y0.60928
G01 X-31.87852 Y0.67146
G01 X-31.94070 Y0.74723
G01 X-31.98690 Y0.83366
G01 X-32.01535 Y0.92747
G01 X-32.02495 Y1.02500
G01 X-32.02495 Y14.52503
G01 X-32.01535 Y14.62259
G01 X-31.98690 Y14.71639
G01 X-31.94070 Y14.80283
G01 X-31.87852 Y14.87859
G01 X-31.80275 Y14.94077
G01 X-31.71632 Y14.98698
G01 X-31.62251 Y15.01542
G01 X-31.52498 Y15.02505
G01 X-27.52499 Y15.02505
G00 Z-0.60000
G01 X-26.02499 Y15.02505
G01 Z-1.50000 F60.00000
G01 F100.00000
G01 X-22.02500 Y15.02505
G01 X-21.92744 Y15.01542
G01 X-21.83363 Y14.98698
G01 X-21.74720 Y14.94077
G01 X-21.67143 Y14.87859
G01 X-21.60925 Y14.80283
G01 X-21.56305 Y14.71639
G01 X-21.53460 Y14.62259
G01 X-21.52497 Y14.52503
G00 Z5.00000 ( retract )
G00 X-21.52497 Y1.02500 ( rapid move to begin. )
G01 Z-2.00000 F60.00000 ( plunge. )
G04 P0 ( dwell for no time -- G64 should not smooth over this point )
G01 F100.00000
G01 X-21.53460 Y0.92747
G01 X-21.56305 Y0.83366
G01 X-21.60925 Y0.74723
G01 X-21.67143 Y0.67146
G01 X-21.74720 Y0.60928
G01 X-21.83363 Y0.56308
G01 X-21.92744 Y0.53463
G01 X-22.02500 Y0.52500
G01 X-26.02499 Y0.52500
G00 Z-0.60000
G01 X-27.52499 Y0.52500
G01 Z-2.00000 F60.00000
G01 F100.00000
G01 X-31.52498 Y0.52500
G01 X-31.62251 Y0.53463
G01 X-31.71632 Y0.56308
G01 X-31.80275 Y0.60928
G01 X-31.87852 Y0.67146
G01 X-31.94070 Y0.74723
G01 X-31.98690 Y0.83366
G01 X-32.01535 Y0.92747
G01 X-32.02495 Y1.02500
G01 X-32.02495 Y14.52503
G01 X-32.01535 Y14.62259
G01 X-31.98690 Y14.71639
G01 X-31.94070 Y14.80283
G01 X-31.87852 Y14.87859
G01 X-31.80275 Y14.94077
G01 X-31.71632 Y14.98698
G01 X-31.62251 Y15.01542
G01 X-31.52498 Y15.02505
G01 X-27.52499 Y15.02505
G00 Z-0.60000
G01 X-26.02499 Y15.02505
G01 Z-2.00000 F60.00000
G01 F100.00000
G01 X-22.02500 Y15.02505
G01 X-21.92744 Y15.01542
G01 X-21.83363 Y14.98698
G01 X-21.74720 Y14.94077
G01 X-21.67143 Y14.87859
G01 X-21.60925 Y14.80283
G01 X-21.56305 Y14.71639
G01 X-21.53460 Y14.62259
G01 X-21.52497 Y14.52503
G04 P0 ( dwell for no time -- G64 should not smooth over this point )
G00 Z5.00000 ( retract )

G00 X-32.02495 Y1.02500 ( rapid move to begin. )
G01 Z-0.50000 F60.00000 ( plunge. )
G04 P0 ( dwell for no time -- G64 should not smooth over this point )
G01 F100.00000
G01 X-32.03458 Y0.92747
G01 X-32.06303 Y0.83366
G01 X-32.10923 Y0.74723
G01 X-32.17141 Y0.67146
G01 X-32.24718 Y0.60928
G01 X-32.33361 Y0.56308
G01 X-32.42741 Y0.53463
G01 X-32.52498 Y0.52500
G01 X-36.52498 Y0.52500
G01 X-38.02498 Y0.52500
G01 X-42.02498 Y0.52500
G01 X-42.12252 Y0.53463
G01 X-42.21632 Y0.56308
G01 X-42.30276 Y0.60928
G01 X-42.37852 Y0.67146
G01 X-42.44070 Y0.74723
G01 X-42.48691 Y0.83366
G01 X-42.51535 Y0.92747
G01 X-42.52496 Y1.02500
G01 X-42.52496 Y14.52503
G01 X-42.51535 Y14.62259
G01 X-42.48691 Y14.71639
G01 X-42.44070 Y14.80283
G01 X-42.37852 Y14.87859
G01 X-42.30276 Y14.94077
G01 X-42.21632 Y14.98698
G01 X-42.12252 Y15.01542
G01 X-42.02498 Y15.02505
G01 X-38.02498 Y15.02505
G01 X-36.52498 Y15.02505
G01 X-32.52498 Y15.02505
G01 X-32.42741 Y15.01542
G01 X-32.33361 Y14.98698
G01 X-32.24718 Y14.94077
G01 X-32.17141 Y14.87859
G01 X-32.10923 Y14.80283
G01 X-32.06303 Y14.71639
G01 X-32.03458 Y14.62259
G01 X-32.02495 Y14.52503
G00 Z5.00000 ( retract )
G00 X-32.02495 Y1.02500 ( rapid move to begin. )
G01 Z-1.00000 F60.00000 ( plunge. )
G04 P0 ( dwell for no time -- G64 should not smooth over this point )
G01 F100.00000
G01 X-32.03458 Y0.92747
G01 X-32.06303 Y0.83366
G01 X-32.10923 Y0.74723
G01 X-32.17141 Y0.67146
G01 X-32.24718 Y0.60928
G01 X-32.33361 Y0.56308
G01 X-32.42741 Y0.53463
G01 X-32.52498 Y0.52500
G01 X-36.52498 Y0.52500
G00 Z-0.60000
G01 X-38.02498 Y0.52500
G01 Z-1.00000 F60.00000
G01 F100.00000
G01 X-42.02498 Y0.52500
G01 X-42.12252 Y0.53463
G01 X-42.21632 Y0.56308
G01 X-42.30276 Y0.60928
G01 X-42.37852 Y0.67146
G01 X-42.44070 Y0.74723
G01 X-42.48691 Y0.83366
G01 X-42.51535 Y0.92747
G01 X-42.52496 Y1.02500
G01 X-42.52496 Y14.52503
G01 X-42.51535 Y14.62259
G01 X-42.48691 Y14.71639
G01 X-42.44070 Y14.80283
G01 X-42.37852 Y14.87859
G01 X-42.30276 Y14.94077
G01 X-42.21632 Y14.98698
G01 X-42.12252 Y15.01542
G01 X-42.02498 Y15.02505
G01 X-38.02498 Y15.02505
G00 Z-0.60000
G01 X-36.52498 Y15.02505
G01 Z-1.00000 F60.00000
G01 F100.00000
G01 X-32.52498 Y15.02505
G01 X-32.42741 Y15.01542
G01 X-32.33361 Y14.98698
G01 X-32.24718 Y14.94077
G01 X-32.17141 Y14.87859
G01 X-32.10923 Y14.80283
G01 X-32.06303 Y14.71639
G01 X-32.03458 Y14.62259
G01 X-32.02495 Y14.52503
G00 Z5.00000 ( retract )
G00 X-32.02495 Y1.02500 ( rapid move to begin. )
G01 Z-1.50000 F60.00000 ( plunge. )
G04 P0 ( dwell for no time -- G64 should not smooth over this point )
G01 F100.00000
G01 X-32.03458 Y0.92747
G01 X-32.06303 Y0.83366
G01 X-32.10923 Y0.74723
G01 X-32.17141 Y0.67146
G01 X-32.24718 Y0.60928
G01 X-32.33361 Y0.56308
G01 X-32.42741 Y0.53463
G01 X-32.52498 Y0.52500
G01 X-36.52498 Y0.52500
G00 Z-0.60000
G01 X-38.02498 Y0.52500
G01 Z-1.50000 F60.00000
G01 F100.00000
G01 X-42.02498 Y0.52500
G01 X-42.12252 Y0.53463
G01 X-42.21632 Y0.56308
G01 X-42.30276 Y0.60928
G01 X-42.37852 Y0.67146
G01 X-42.44070 Y0.74723
G01 X-42.48691 Y0.83366
G01 X-42.51535 Y0.92747
G01 X-42.52496 Y1.02500
G01 X-42.52496 Y14.52503
G01 X-42.51535 Y14.62259
G01 X-42.48691 Y14.71639
G01 X-42.44070 Y14.80283
G01 X-42.37852 Y14.87859
G01 X-42.30276 Y14.94077
G01 X-42.21632 Y14.98698
G01 X-42.12252 Y15.01542
G01 X-42.02498 Y15.02505
G01 X-38.02498 Y15.02505
G00 Z-0.60000
G01 X-36.52498 Y15.02505
G01 Z-1.50000 F60.00000
G01 F100.00000
G01 X-32.52498 Y15.02505
G01 X-32.42741 Y15.01542
G01 X-32.33361 Y14.98698
G01 X-32.24718 Y14.94077
G01 X-32.17141 Y14.87859
G01 X-32.10923 Y14.80283
G01 X-32.06303 Y14.71639
G01 X-32.03458 Y14.62259
G01 X-32.02495 Y14.52503
G00 Z5.00000 ( retract )
G00 X-32.02495 Y1.02500 ( rapid move to begin. )
G01 Z-2.00000 F60.00000 ( plunge. )
G04 P0 ( dwell for no time -- G64 should not smooth over this point )
G01 F100.00000
G01 X-32.03458 Y0.92747
G01 X-32.06303 Y0.83366
G01 X-32.10923 Y0.74723
G01 X-32.17141 Y0.67146
G01 X-32.24718 Y0.60928
G01 X-32.33361 Y0.56308
G01 X-32.42741 Y0.53463
G01 X-32.52498 Y0.52500
G01 X-36.52498 Y0.52500
G00 Z-0.60000
G01 X-38.02498 Y0.52500
G01 Z-2.00000 F60.00000
G01 F100.00000
G01 X-42.02498 Y0.52500
G01 X-42.12252 Y0.53463
G01 X-42.21632 Y0.56308
G01 X-42.30276 Y0.60928
G01 X-42.37852 Y0.67146
G01 X-42.44070 Y0.74723
G01 X-42.48691 Y0.83366
G01 X-42.51535 Y0.92747
G01 X-42.52496 Y1.02500
G01 X-42.52496 Y14.52503
G01 X-42.51535 Y14.62259
G01 X-42.48691 Y14.71639
G01 X-42.44070 Y14.80283
G01 X-42.37852 Y14.87859
G01 X-42.30276 Y14.94077
G01 X-42.21632 Y14.98698
G01 X-42.12252 Y15.01542
G01 X-42.02498 Y15.02505
G01 X-38.02498 Y15.02505
G00 Z-0.60000
G01 X-36.52498 Y15.02505
G01 Z-2.00000 F60.00000
G01 F100.00000
G01 X-32.52498 Y15.02505
G01 X-32.42741 Y15.01542
G01 X-32.33361 Y14.98698
G01 X-32.24718 Y14.94077
G01 X-32.17141 Y14.87859
G01 X-32.10923 Y14.80283
G01 X-32.06303 Y14.71639
G01 X-32.03458 Y14.62259
G01 X-32.02495 Y14.52503
G04 P0 ( dwell for no time -- G64 should not smooth over this point )
G00 Z5.00000 ( retract )

G00 X-42.52496 Y1.02500 ( rapid move to begin. )
G01 Z-0.50000 F60.00000 ( plunge. )
G04 P0 ( dwell for no time -- G64 should not smooth over this point )
G01 F100.00000
G01 X-42.53458 Y0.92747
G01 X-42.56303 Y0.83366
G01 X-42.60923 Y0.74723
G01 X-42.67141 Y0.67146
G01 X-42.74718 Y0.60928
G01 X-42.83362 Y0.56308
G01 X-42.92742 Y0.53463
G01 X-43.02498 Y0.52500
G01 X-47.02498 Y0.52500
G01 X-48.52498 Y0.52500
G01 X-52.52499 Y0.52500
G01 X-52.62252 Y0.53463
G01 X-52.71632 Y0.56308
G01 X-52.80276 Y0.60928
G01 X-52.87853 Y0.67146
G01 X-52.94071 Y0.74723
G01 X-52.98691 Y0.83366
G01 X-53.01536 Y0.92747
G01 X-53.02496 Y1.02500
G01 X-53.02496 Y14.52503
G01 X-53.01536 Y14.62259
G01 X-52.98691 Y14.71639
G01 X-52.94071 Y14.80283
G01 X-52.87853 Y14.87859
G01 X-52.80276 Y14.94077
G01 X-52.71632 Y14.98698
G01 X-52.62252 Y15.01542
G01 X-52.52499 Y15.02505
G01 X-48.52498 Y15.02505
G01 X-47.02498 Y15.02505
G01 X-43.02498 Y15.02505
G01 X-42.92742 Y15.01542
G01 X-42.83362 Y14.98698
G01 X-42.74718 Y14.94077
G01 X-42.67141 Y14.87859
G01 X-42.60923 Y14.80283
G01 X-42.56303 Y14.71639
G01 X-42.53458 Y14.62259
G01 X-42.52496 Y14.52503
G00 Z5.00000 ( retract )
G00 X-42.52496 Y1.02500 ( rapid move to begin. )
G01 Z-1.00000 F60.00000 ( plunge. )
G04 P0 ( dwell for no time -- G64 should not smooth over this point )
G01 F100.00000
G01 X-42.53458 Y0.92747
G01 X-42.56303 Y0.83366
G01 X-42.60923 Y0.74723
G01 X-42.67141 Y0.67146
G01 X-42.74718 Y0.60928
G01 X-42.83362 Y0.56308
G01 X-42.92742 Y0.53463
G01 X-43.02498 Y0.52500
G01 X-47.02498 Y0.52500
G00 Z-0.60000
G01 X-48.52498 Y0.52500
G01 Z-1.00000 F60.00000
G01 F100.00000
G01 X-52.52499 Y0.52500
G01 X-52.62252 Y0.53463
G01 X-52.71632 Y0.56308
G01 X-52.80276 Y0.60928
G01 X-52.87853 Y0.67146
G01 X-52.94071 Y0.74723
G01 X-52.98691 Y0.83366
G01 X-53.01536 Y0.92747
G01 X-53.02496 Y1.02500
G01 X-53.02496 Y14.52503
G01 X-53.01536 Y14.62259
G01 X-52.98691 Y14.71639
G01 X-52.94071 Y14.80283
G01 X-52.87853 Y14.87859
G01 X-52.80276 Y14.94077
G01 X-52.71632 Y14.98698
G01 X-52.62252 Y15.01542
G01 X-52.52499 Y15.02505
G01 X-48.52498 Y15.02505
G00 Z-0.60000
G01 X-47.02498 Y15.02505
G01 Z-1.00000 F60.00000
G01 F100.00000
G01 X-43.02498 Y15.02505
G01 X-42.92742 Y15.01542
G01 X-42.83362 Y14.98698
G01 X-42.74718 Y14.94077
G01 X-42.67141 Y14.87859
G01 X-42.60923 Y14.80283
G01 X-42.56303 Y14.71639
G01 X-42.53458 Y14.62259
G01 X-42.52496 Y14.52503
G00 Z5.00000 ( retract )
G00 X-42.52496 Y1.02500 ( rapid move to begin. )
G01 Z-1.50000 F60.00000 ( plunge. )
G04 P0 ( dwell for no time -- G64 should not smooth over this point )
G01 F100.00000
G01 X-42.53458 Y0.92747
G01 X-42.56303 Y0.83366
G01 X-42.60923 Y0.74723
G01 X-42.67141 Y0.67146
G01 X-42.74718 Y0.60928
G01 X-42.83362 Y0.56308
G01 X-42.92742 Y0.53463
G01 X-43.02498 Y0.52500
G01 X-47.02498 Y0.52500
G00 Z-0.60000
G01 X-48.52498 Y0.52500
G01 Z-1.50000 F60.00000
G01 F100.00000
G01 X-52.52499 Y0.52500
G01 X-52.62252 Y0.53463
G01 X-52.71632 Y0.56308
G01 X-52.80276 Y0.60928
G01 X-52.87853 Y0.67146
G01 X-52.94071 Y0.74723
G01 X-52.98691 Y0.83366
G01 X-53.01536 Y0.92747
G01 X-53.02496 Y1.02500
G01 X-53.02496 Y14.52503
G01 X-53.01536 Y14.62259
G01 X-52.98691 Y14.71639
G01 X-52.94071 Y14.80283
G01 X-52.87853 Y14.87859
G01 X-52.80276 Y14.94077
G01 X-52.71632 Y14.98698
G01 X-52.62252 Y15.01542
G01 X-52.52499 Y15.02505
G01 X-48.52498 Y15.02505
G00 Z-0.60000
G01 X-47.02498 Y15.02505
G01 Z-1.50000 F60.00000
G01 F100.00000
G01 X-43.02498 Y15.02505
G01 X-42.92742 Y15.01542
G01 X-42.83362 Y14.98698
G01 X-42.74718 Y14.94077
G01 X-42.67141 Y14.87859
G01 X-42.60923 Y14.80283
G01 X-42.56303 Y14.71639
G01 X-42.53458 Y14.62259
G01 X-42.52496 Y14.52503
G00 Z5.00000 ( retract )
G00 X-42.52496 Y1.02500 ( rapid move to begin. )
G01 Z-2.00000 F60.00000 ( plunge. )
G04 P0 ( dwell for no time -- G64 should not smooth over this point )
G01 F100.00000
G01 X-42.53458 Y0.92747
G01 X-42.56303 Y0.83366
G01 X-42.60923 Y0.74723
G01 X-42.67141 Y0.67146
G01 X-42.74718 Y0.60928
G01 X-42.83362 Y0.56308
G01 X-42.92742 Y0.53463
G01 X-43.02498 Y0.52500
G01 X-47.02498 Y0.52500
G00 Z-0.60000
G01 X-48.52498 Y0.52500
G01 Z-2.00000 F60.00000
G01 F100.00000
G01 X-52.52499 Y0.52500
G01 X-52.62252 Y0.53463
G01 X-52.71632 Y0.56308
G01 X-52.80276 Y0.60928
G01 X-52.87853 Y0.67146
G01 X-52.94071 Y0.74723
G01 X-52.98691 Y0.83366
G01 X-53.01536 Y0.92747
G01 X-53.02496 Y1.02500
G01 X-53.02496 Y14.52503
G01 X-53.01536 Y14.62259
G01 X-52.98691 Y14.71639
G01 X-52.94071 Y14.80283
G01 X-52.87853 Y14.87859
G01 X-52.80276 Y14.94077
G01 X-52.71632 Y14.98698
G01 X-52.62252 Y15.01542
G01 X-52.52499 Y15.02505
G01 X-48.52498 Y15.02505
G00 Z-0.60000
G01 X-47.02498 Y15.02505
G01 Z-2.00000 F60.00000
G01 F100.00000
G01 X-43.02498 Y15.02505
G01 X-42.92742 Y15.01542
G01 X-42.83362 Y14.98698
G01 X-42.74718 Y14.94077
G01 X-42.67141 Y14.87859
G01 X-42.60923 Y14.80283
G01 X-42.56303 Y14.71639
G01 X-42.53458 Y14.62259
G01 X-42.52496 Y14.52503
G04 P0 ( dwell for no time -- G64 should not smooth over this point )
G00 Z5.00000 ( retract )

G00 X-53.02496 Y1.02500 ( rapid move to begin. )
G01 Z-0.50000 F60.00000 ( plunge. )
G04 P0 ( dwell for no time -- G64 should not smooth over this point )
G01 F100.00000
G01 X-53.03459 Y0.92747
G01 X-53.06303 Y0.83366
G01 X-53.10924 Y0.74723
G01 X-53.17142 Y0.67146
G01 X-53.24718 Y0.60928
G01 X-53.33362 Y0.56308
G01 X-53.42742 Y0.53463
G01 X-53.52498 Y0.52500
G01 X-57.52499 Y0.52500
G01 X-59.02499 Y0.52500
G01 X-63.02499 Y0.52500
G01 X-63.12253 Y0.53463
G01 X-63.21633 Y0.56308
G01 X-63.30277 Y0.60928
G01 X-63.37853 Y0.67146
G01 X-63.44071 Y0.74723
G01 X-63.48692 Y0.83366
G01 X-63.51536 Y0.92747
G01 X-63.52499 Y1.02500
G01 X-63.52499 Y14.52503
G01 X-63.51536 Y14.62259
G01 X-63.48692 Y14.71639
G01 X-63.44071 Y14.80283
G01 X-63.37853 Y14.87859
G01 X-63.30277 Y14.94077
G01 X-63.21633 Y14.98698
G01 X-63.12253 Y15.01542
G01 X-63.02499 Y15.02505
G01 X-59.02499 Y15.02505
G01 X-57.52499 Y15.02505
G01 X-53.52498 Y15.02505
G01 X-53.42742 Y15.01542
G01 X-53.33362 Y14.98698
G01 X-53.24718 Y14.94077
G01 X-53.17142 Y14.87859
G01 X-53.10924 Y14.80283
G01 X-53.06303 Y14.71639
G01 X-53.03459 Y14.62259
G01 X-53.02496 Y14.52503
G00 Z5.00000 ( retract )
G00 X-53.02496 Y1.02500 ( rapid move to begin. )
G01 Z-1.00000 F60.00000 ( plunge. )
G04 P0 ( dwell for no time -- G64 should not smooth over this point )
G01 F100.00000
G01 X-53.03459 Y0.92747
G01 X-53.06303 Y0.83366
G01 X-53.10924 Y0.74723
G01 X-53.17142 Y0.67146
G01 X-53.24718 Y0.60928
G01 X-53.33362 Y0.56308
G01 X-53.42742 Y0.53463
G01 X-53.52498 Y0.52500
G01 X-57.52499 Y0.52500
G00 Z-0.60000
G01 X-59.02499 Y0.52500
G01 Z-1.00000 F60.00000
G01 F100.00000
G01 X-63.02499 Y0.52500
G01 X-63.12253 Y0.53463
G01 X-63.21633 Y0.56308
G01 X-63.30277 Y0.60928
G01 X-63.37853 Y0.67146
G01 X-63.44071 Y0.74723
G01 X-63.48692 Y0.83366
G01 X-63.51536 Y0.92747
G01 X-63.52499 Y1.02500
G01 X-63.52499 Y14.52503
G01 X-63.51536 Y14.62259
G01 X-63.48692 Y14.71639
G01 X-63.44071 Y14.80283
G01 X-63.37853 Y14.87859
G01 X-63.30277 Y14.94077
G01 X-63.21633 Y14.98698
G01 X-63.12253 Y15.01542
G01 X-63.02499 Y15.02505
G01 X-59.02499 Y15.02505
G00 Z-0.60000
G01 X-57.52499 Y15.02505
G01 Z-1.00000 F60.00000
G01 F100.00000
G01 X-53.52498 Y15.02505
G01 X-53.42742 Y15.01542
G01 X-53.33362 Y14.98698
G01 X-53.24718 Y14.94077
G01 X-53.17142 Y14.87859
G01 X-53.10924 Y14.80283
G01 X-53.06303 Y14.71639
G01 X-53.03459 Y14.62259
G01 X-53.02496 Y14.52503
G00 Z5.00000 ( retract )
G00 X-53.02496 Y1.02500 ( rapid move to begin. )
G01 Z-1.50000 F60.00000 ( plunge. )
G04 P0 ( dwell for no time -- G64 should not smooth over this point )
G01 F100.00000
G01 X-53.03459 Y0.92747
G01 X-53.06303 Y0.83366
G01 X-53.10924 Y0.74723
G01 X-53.17142 Y0.67146
G01 X-53.24718 Y0.60928
G01 X-53.33362 Y0.56308
G01 X-53.42742 Y0.53463
G01 X-53.52498 Y0.52500
G01 X-57.52499 Y0.52500
G00 Z-0.60000
G01 X-59.02499 Y0.52500
G01 Z-1.50000 F60.00000
G01 F100.00000
G01 X-63.02499 Y0.52500
G01 X-63.12253 Y0.53463
G01 X-63.21633 Y0.56308
G01 X-63.30277 Y0.60928
G01 X-63.37853 Y0.67146
G01 X-63.44071 Y0.74723
G01 X-63.48692 Y0.83366
G01 X-63.51536 Y0.92747
G01 X-63.52499 Y1.02500
G01 X-63.52499 Y14.52503
G01 X-63.51536 Y14.62259
G01 X-63.48692 Y14.71639
G01 X-63.44071 Y14.80283
G01 X-63.37853 Y14.87859
G01 X-63.30277 Y14.94077
G01 X-63.21633 Y14.98698
G01 X-63.12253 Y15.01542
G01 X-63.02499 Y15.02505
G01 X-59.02499 Y15.02505
G00 Z-0.60000
G01 X-57.52499 Y15.02505
G01 Z-1.50000 F60.00000
G01 F100.00000
G01 X-53.52498 Y15.02505
G01 X-53.42742 Y15.01542
G01 X-53.33362 Y14.98698
G01 X-53.24718 Y14.94077
G01 X-53.17142 Y14.87859
G01 X-53.10924 Y14.80283
G01 X-53.06303 Y14.71639
G01 X-53.03459 Y14.62259
G01 X-53.02496 Y14.52503
G00 Z5.00000 ( retract )
G00 X-53.02496 Y1.02500 ( rapid move to begin. )
G01 Z-2.00000 F60.00000 ( plunge. )
G04 P0 ( dwell for no time -- G64 should not smooth over this point )
G01 F100.00000
G01 X-53.03459 Y0.92747
G01 X-53.06303 Y0.83366
G01 X-53.10924 Y0.74723
G01 X-53.17142 Y0.67146
G01 X-53.24718 Y0.60928
G01 X-53.33362 Y0.56308
G01 X-53.42742 Y0.53463
G01 X-53.52498 Y0.52500
G01 X-57.52499 Y0.52500
G00 Z-0.60000
G01 X-59.02499 Y0.52500
G01 Z-2.00000 F60.00000
G01 F100.00000
G01 X-63.02499 Y0.52500
G01 X-63.12253 Y0.53463
G01 X-63.21633 Y0.56308
G01 X-63.30277 Y0.60928
G01 X-63.37853 Y0.67146
G01 X-63.44071 Y0.74723
G01 X-63.48692 Y0.83366
G01 X-63.51536 Y0.92747
G01 X-63.52499 Y1.02500
G01 X-63.52499 Y14.52503
G01 X-63.51536 Y14.62259
G01 X-63.48692 Y14.71639
G01 X-63.44071 Y14.80283
G01 X-63.37853 Y14.87859
G01 X-63.30277 Y14.94077
G01 X-63.21633 Y14.98698
G01 X-63.12253 Y15.01542
G01 X-63.02499 Y15.02505
G01 X-59.02499 Y15.02505
G00 Z-0.60000
G01 X-57.52499 Y15.02505
G01 Z-2.00000 F60.00000
G01 F100.00000
G01 X-53.52498 Y15.02505
G01 X-53.42742 Y15.01542
G01 X-53.33362 Y14.98698
G01 X-53.24718 Y14.94077
G01 X-53.17142 Y14.87859
G01 X-53.10924 Y14.80283
G01 X-53.06303 Y14.71639
G01 X-53.03459 Y14.62259
G01 X-53.02496 Y14.52503
G04 P0 ( dwell for no time -- G64 should not smooth over this point )
G00 Z5.00000 ( retract )

G00 X-11.02497 Y1.02500 ( rapid move to begin. )
G01 Z-0.50000 F60.00000 ( plunge. )
G04 P0 ( dwell for no time -- G64 should not smooth over this point )
G01 F100.00000
G01 X-11.01537 Y0.92747
G01 X-10.98692 Y0.83366
G01 X-10.94072 Y0.74723
G01 X-10.87854 Y0.67146
G01 X-10.80277 Y0.60928
G01 X-10.71633 Y0.56308
G01 X-10.62253 Y0.53463
G01 X-10.52499 Y0.52500
G01 X-1.02499 Y0.52500
G01 X-0.92743 Y0.53463
G01 X-0.83362 Y0.56308
G01 X-0.74719 Y0.60928
G01 X-0.67142 Y0.67146
G01 X-0.60924 Y0.74723
G01 X-0.56304 Y0.83366
G01 X-0.53459 Y0.92747
G01 X-0.52496 Y1.02500
G01 X-0.52496 Y7.02501
G01 X-0.52496 Y8.52501
G01 X-0.52496 Y14.52503
G01 X-0.53459 Y14.62259
G01 X-0.56304 Y14.71639
G01 X-0.60924 Y14.80283
G01 X-0.67142 Y14.87859
G01 X-0.74719 Y14.94077
G01 X-0.83362 Y14.98698
G01 X-0.92743 Y15.01542
G01 X-1.02499 Y15.02505
G01 X-10.52499 Y15.02505
G01 X-10.62253 Y15.01542
G01 X-10.71633 Y14.98698
G01 X-10.80277 Y14.94077
G01 X-10.87854 Y14.87859
G01 X-10.94072 Y14.80283
G01 X-10.98692 Y14.71639
G01 X-11.01537 Y14.62259
G01 X-11.02497 Y14.52503
G01 X-11.02497 Y1.02500
G01 X-11.03459 Y0.92747
G01 X-11.06304 Y0.83366
G01 X-11.10925 Y0.74723
G01 X-11.17142 Y0.67146
G01 X-11.24719 Y0.60928
G01 X-11.33363 Y0.56308
G01 X-11.42743 Y0.53463
G01 X-11.52499 Y0.52500
G01 X-21.02500 Y0.52500
G01 X-21.12253 Y0.53463
G01 X-21.21634 Y0.56308
G01 X-21.30277 Y0.60928
G01 X-21.37854 Y0.67146
G01 X-21.44072 Y0.74723
G01 X-21.48692 Y0.83366
G01 X-21.51537 Y0.92747
G01 X-21.52497 Y1.02500
G01 X-21.52497 Y7.02501
G01 X-21.52497 Y8.52501
G01 X-21.52497 Y14.52503
G01 X-21.51537 Y14.62259
G01 X-21.48692 Y14.71639
G01 X-21.44072 Y14.80283
G01 X-21.37854 Y14.87859
G01 X-21.30277 Y14.94077
G01 X-21.21634 Y14.98698
G01 X-21.12253 Y15.01542
G01 X-21.02500 Y15.02505
G01 X-11.52499 Y15.02505
G01 X-11.42743 Y15.01542
G01 X-11.33363 Y14.98698
G01 X-11.24719 Y14.94077
G01 X-11.17142 Y14.87859
G01 X-11.10925 Y14.80283
G01 X-11.06304 Y14.71639
G01 X-11.03459 Y14.62259
G01 X-11.02497 Y14.52503
G00 Z5.00000 ( retract )
G00 X-11.02497 Y1.02500 ( rapid move to begin. )
G01 Z-1.00000 F60.00000 ( plunge. )
G04 P0 ( dwell for no time -- G64 should not smooth over this point )
G01 F100.00000
G01 X-11.01537 Y0.92747
G01 X-10.98692 Y0.83366
G01 X-10.94072 Y0.74723
G01 X-10.87854 Y0.67146
G01 X-10.80277 Y0.60928
G01 X-10.71633 Y0.56308
G01 X-10.62253 Y0.53463
G01 X-10.52499 Y0.52500
G01 X-1.02499 Y0.52500
G01 X-0.92743 Y0.53463
G01 X-0.83362 Y0.56308
G01 X-0.74719 Y0.60928
G01 X-0.67142 Y0.67146
G01 X-0.60924 Y0.74723
G01 X-0.56304 Y0.83366
G01 X-0.53459 Y0.92747
G01 X-0.52496 Y1.02500
G01 X-0.52496 Y7.02501
G00 Z-0.60000
G01 X-0.52496 Y8.52501
G01 Z-1.00000 F60.00000
G01 F100.00000
G01 X-0.52496 Y14.52503
G01 X-0.53459 Y14.62259
G01 X-0.56304 Y14.71639
G01 X-0.60924 Y14.80283
G01 X-0.67142 Y14.87859
G01 X-0.74719 Y14.94077
G01 X-0.83362 Y14.98698
G01 X-0.92743 Y15.01542
G01 X-1.02499 Y15.02505
G01 X-10.52499 Y15.02505
G01 X-10.62253 Y15.01542
G01 X-10.71633 Y14.98698
G01 X-10.80277 Y14.94077
G01 X-10.87854 Y14.87859
G01 X-10.94072 Y14.80283
G01 X-10.98692 Y14.71639
G01 X-11.01537 Y14.62259
G01 X-11.02497 Y14.52503
G01 X-11.02497 Y1.02500
G01 X-11.03459 Y0.92747
G01 X-11.06304 Y0.83366
G01 X-11.10925 Y0.74723
G01 X-11.17142 Y0.67146
G01 X-11.24719 Y0.60928
G01 X-11.33363 Y0.56308
G01 X-11.42743 Y0.53463
G01 X-11.52499 Y0.52500
G01 X-21.02500 Y0.52500
G01 X-21.12253 Y0.53463
G01 X-21.21634 Y0.56308
G01 X-21.30277 Y0.60928
G01 X-21.37854 Y0.67146
G01 X-21.44072 Y0.74723
G01 X-21.48692 Y0.83366
G01 X-21.51537 Y0.92747
G01 X-21.52497 Y1.02500
G01 X-21.52497 Y7.02501
G00 Z-0.60000
G01 X-21.52497 Y8.52501
G01 Z-1.00000 F60.00000
G01 F100.00000
G01 X-21.52497 Y14.52503
G01 X-21.51537 Y14.62259
G01 X-21.48692 Y14.71639
G01 X-21.44072 Y14.80283
G01 X-21.37854 Y14.87859
G01 X-21.30277 Y14.94077
G01 X-21.21634 Y14.98698
G01 X-21.12253 Y15.01542
G01 X-21.02500 Y15.02505
G01 X-11.52499 Y15.02505
G01 X-11.42743 Y15.01542
G01 X-11.33363 Y14.98698
G01 X-11.24719 Y14.94077
G01 X-11.17142 Y14.87859
G01 X-11.10925 Y14.80283
G01 X-11.06304 Y14.71639
G01 X-11.03459 Y14.62259
G01 X-11.02497 Y14.52503
G00 Z5.00000 ( retract )
G00 X-11.02497 Y1.02500 ( rapid move to begin. )
G01 Z-1.50000 F60.00000 ( plunge. )
G04 P0 ( dwell for no time -- G64 should not smooth over this point )
G01 F100.00000
G01 X-11.01537 Y0.92747
G01 X-10.98692 Y0.83366
G01 X-10.94072 Y0.74723
G01 X-10.87854 Y0.67146
G01 X-10.80277 Y0.60928
G01 X-10.71633 Y0.56308
G01 X-10.62253 Y0.53463
G01 X-10.52499 Y0.52500
G01 X-1.02499 Y0.52500
G01 X-0.92743 Y0.53463
G01 X-0.83362 Y0.56308
G01 X-0.74719 Y0.60928
G01 X-0.67142 Y0.67146
G01 X-0.60924 Y0.74723
G01 X-0.56304 Y0.83366
G01 X-0.53459 Y0.92747
G01 X-0.52496 Y1.02500
G01 X-0.52496 Y7.02501
G00 Z-0.60000
G01 X-0.52496 Y8.52501
G01 Z-1.50000 F60.00000
G01 F100.00000
G01 X-0.52496 Y14.52503
G01 X-0.53459 Y14.62259
G01 X-0.56304 Y14.71639
G01 X-0.60924 Y14.80283
G01 X-0.67142 Y14.87859
G01 X-0.74719 Y14.94077
G01 X-0.83362 Y14.98698
G01 X-0.92743 Y15.01542
G01 X-1.02499 Y15.02505
G01 X-10.52499 Y15.02505
G01 X-10.62253 Y15.01542
G01 X-10.71633 Y14.98698
G01 X-10.80277 Y14.94077
G01 X-10.87854 Y14.87859
G01 X-10.94072 Y14.80283
G01 X-10.98692 Y14.71639
G01 X-11.01537 Y14.62259
G01 X-11.02497 Y14.52503
G01 X-11.02497 Y1.02500
G01 X-11.03459 Y0.92747
G01 X-11.06304 Y0.83366
G01 X-11.10925 Y0.74723
G01 X-11.17142 Y0.67146
G01 X-11.24719 Y0.60928
G01 X-11.33363 Y0.56308
G01 X-11.42743 Y0.53463
G01 X-11.52499 Y0.52500
G01 X-21.02500 Y0.52500
G01 X-21.12253 Y0.53463
G01 X-21.21634 Y0.56308
G01 X-21.30277 Y0.60928
G01 X-21.37854 Y0.67146
G01 X-21.44072 Y0.74723
G01 X-21.48692 Y0.83366
G01 X-21.51537 Y0.92747
G01 X-21.52497 Y1.02500
G01 X-21.52497 Y7.02501
G00 Z-0.60000
G01 X-21.52497 Y8.52501
G01 Z-1.50000 F60.00000
G01 F100.00000
G01 X-21.52497 Y14.52503
G01 X-21.51537 Y14.62259
G01 X-21.48692 Y14.71639
G01 X-21.44072 Y14.80283
G01 X-21.37854 Y14.87859
G01 X-21.30277 Y14.94077
G01 X-21.21634 Y14.98698
G01 X-21.12253 Y15.01542
G01 X-21.02500 Y15.02505
G01 X-11.52499 Y15.02505
G01 X-11.42743 Y15.01542
G01 X-11.33363 Y14.98698
G01 X-11.24719 Y14.94077
G01 X-11.17142 Y14.87859
G01 X-11.10925 Y14.80283
G01 X-11.06304 Y14.71639
G01 X-11.03459 Y14.62259
G01 X-11.02497 Y14.52503
G00 Z5.00000 ( retract )
G00 X-11.02497 Y1.02500 ( rapid move to begin. )
G01 Z-2.00000 F60.00000 ( plunge. )
G04 P0 ( dwell for no time -- G64 should not smooth over this point )
G01 F100.00000
G01 X-11.01537 Y0.92747
G01 X-10.98692 Y0.83366
G01 X-10.94072 Y0.74723
G01 X-10.87854 Y0.67146
G01 X-10.80277 Y0.60928
G01 X-10.71633 Y0.56308
G01 X-10.62253 Y0.53463
G01 X-10.52499 Y0.52500
G01 X-1.02499 Y0.52500
G01 X-0.92743 Y0.53463
G01 X-0.83362 Y0.56308
G01 X-0.74719 Y0.60928
G01 X-0.67142 Y0.67146
G01 X-0.60924 Y0.74723
G01 X-0.56304 Y0.83366
G01 X-0.53459 Y0.92747
G01 X-0.52496 Y1.02500
G01 X-0.52496 Y7.02501
G00 Z-0.60000
G01 X-0.52496 Y8.52501
G01 Z-2.00000 F60.00000
G01 F100.00000
G01 X-0.52496 Y14.52503
G01 X-0.53459 Y14.62259
G01 X-0.56304 Y14.71639
G01 X-0.60924 Y14.80283
G01 X-0.67142 Y14.87859
G01 X-0.74719 Y14.94077
G01 X-0.83362 Y14.98698
G01 X-0.92743 Y15.01542
G01 X-1.02499 Y15.02505
G01 X-10.52499 Y15.02505
G01 X-10.62253 Y15.01542
G01 X-10.71633 Y14.98698
G01 X-10.80277 Y14.94077
G01 X-10.87854 Y14.87859
G01 X-10.94072 Y14.80283
G01 X-10.98692 Y14.71639
G01 X-11.01537 Y14.62259
G01 X-11.02497 Y14.52503
G01 X-11.02497 Y1.02500
G01 X-11.03459 Y0.92747
G01 X-11.06304 Y0.83366
G01 X-11.10925 Y0.74723
G01 X-11.17142 Y0.67146
G01 X-11.24719 Y0.60928
G01 X-11.33363 Y0.56308
G01 X-11.42743 Y0.53463
G01 X-11.52499 Y0.52500
G01 X-21.02500 Y0.52500
G01 X-21.12253 Y0.53463
G01 X-21.21634 Y0.56308
G01 X-21.30277 Y0.60928
G01 X-21.37854 Y0.67146
G01 X-21.44072 Y0.74723
G01 X-21.48692 Y0.83366
G01 X-21.51537 Y0.92747
G01 X-21.52497 Y1.02500
G01 X-21.52497 Y7.02501
G00 Z-0.60000
G01 X-21.52497 Y8.52501
G01 Z-2.00000 F60.00000
G01 F100.00000
G01 X-21.52497 Y14.52503
G01 X-21.51537 Y14.62259
G01 X-21.48692 Y14.71639
G01 X-21.44072 Y14.80283
G01 X-21.37854 Y14.87859
G01 X-21.30277 Y14.94077
G01 X-21.21634 Y14.98698
G01 X-21.12253 Y15.01542
G01 X-21.02500 Y15.02505
G01 X-11.52499 Y15.02505
G01 X-11.42743 Y15.01542
G01 X-11.33363 Y14.98698
G01 X-11.24719 Y14.94077
G01 X-11.17142 Y14.87859
G01 X-11.10925 Y14.80283
G01 X-11.06304 Y14.71639
G01 X-11.03459 Y14.62259
G01 X-11.02497 Y14.52503

G04 P0 ( dwell for no time -- G64 should not smooth over this point )
G00 Z30.000000 ( retract )

M5 ( Spindle off. )
G04 P1.000000
M9 ( Coolant off. )
M2 ( Program end. )

