( pcb2gcode 2.5.0 )
( Software-independent Gcode )

( This file uses 4 drill bit sizes. )
( Bit sizes: [0.8001mm] [1.00076mm] [1.19888mm] [1.30048mm] )

G94       (Millimeters per minute feed rate.)
G21       (Units == Millimeters.)
G90       (Absolute coordinates.)
G00 S10000     (RPM spindle speed.)

G00 Z30.00000 (Retract)
T1
M5      (Spindle stop.)
G04 P1.00000
(MSG, Change tool bit to drill size 0.8001mm)
;M6      (Tool change.)
M0      (Temporary machine stop.)
M3      (Spindle on clockwise.)
G0 Z5.00000
G04 P1.00000

G1 F200.00000
G0 X-30.67532 Y37.13566
G1 Z-2.50000
G1 Z5.00000
G0 X-30.67532 Y35.22558
G1 Z-2.50000
G1 Z5.00000
G0 X-30.67532 Y33.31550
G1 Z-2.50000
G1 Z5.00000

G00 Z30.00000 (Retract)
T2
M5      (Spindle stop.)
G04 P1.00000
(MSG, Change tool bit to drill size 1.00076mm)
;M6      (Tool change.)
M0      (Temporary machine stop.)
M3      (Spindle on clockwise.)
G0 Z5.00000
G04 P1.00000

G1 F200.00000
G0 X-34.05098 Y43.52376
G1 Z-2.50000
G1 Z5.00000
G0 X-31.51098 Y43.52376
G1 Z-2.50000
G1 Z5.00000
G0 X-28.97098 Y43.52376
G1 Z-2.50000
G1 Z5.00000

G00 Z30.00000 (Retract)
T3
M5      (Spindle stop.)
G04 P1.00000
(MSG, Change tool bit to drill size 1.19888mm)
;M6      (Tool change.)
M0      (Temporary machine stop.)
M3      (Spindle on clockwise.)
G0 Z5.00000
G04 P1.00000

G1 F200.00000
G0 X-15.52422 Y35.02492
G1 Z-2.50000
G1 Z5.00000
G0 X-15.52422 Y27.52430
G1 Z-2.50000
G1 Z5.00000

G00 Z30.00000 (Retract)
T4
M5      (Spindle stop.)
G04 P1.00000
(MSG, Change tool bit to drill size 1.30048mm)
;M6      (Tool change.)
M0      (Temporary machine stop.)
M3      (Spindle on clockwise.)
G0 Z5.00000
G04 P1.00000

G1 F200.00000
G0 X-55.10504 Y10.02624
G1 Z-2.50000
G1 Z5.00000
G0 X-50.02504 Y10.02624
G1 Z-2.50000
G1 Z5.00000
G0 X-43.10608 Y10.02624
G1 Z-2.50000
G1 Z5.00000
G0 X-38.02608 Y10.02624
G1 Z-2.50000
G1 Z5.00000
G0 X-30.10382 Y10.02624
G1 Z-2.50000
G1 Z5.00000
G0 X-25.02382 Y10.02624
G1 Z-2.50000
G1 Z5.00000
G0 X-18.10486 Y10.02624
G1 Z-2.50000
G1 Z5.00000
G0 X-13.02486 Y10.02624
G1 Z-2.50000
G1 Z5.00000

G00 Z30.000 ( All done -- retract )

M5      (Spindle off.)
G04 P1.000000
M9      (Coolant off.)
M2      (Program end.)

