( pcb2gcode 2.5.0 )
( Software-independent Gcode )

( This file uses 1 drill bit sizes. )
( Bit sizes: [1.00076mm] )

G94       (Millimeters per minute feed rate.)
G21       (Units == Millimeters.)
G90       (Absolute coordinates.)
G00 S10000     (RPM spindle speed.)

G00 Z30.00000 (Retract)
T1
M5      (Spindle stop.)
G04 P1.00000
(MSG, Change tool bit to drill size 1.00076mm)
;M6      (Tool change.)
M0      (Temporary machine stop.)
M3      (Spindle on clockwise.)
G0 Z5.00000
G04 P1.00000

G1 F200.00000
G0 X-16.83620 Y12.60378
G1 Z-2.50000
G1 Z5.00000
G0 X-16.83620 Y8.80394
G1 Z-2.50000
G1 Z5.00000
G0 X-15.77448 Y5.00410
G1 Z-2.50000
G1 Z5.00000
G0 X-13.23448 Y5.00410
G1 Z-2.50000
G1 Z5.00000
G0 X-3.47580 Y15.67464
G1 Z-2.50000
G1 Z5.00000

G00 Z30.000 ( All done -- retract )

M5      (Spindle off.)
G04 P1.000000
M9      (Coolant off.)
M2      (Program end.)

