( pcb2gcode 2.5.0 )
( Software-independent Gcode )

G94 ( Millimeters per minute feed rate. )
G21 ( Units == Millimeters. )

G90 ( Absolute coordinates. )
G00 S10000 ( RPM spindle speed. )
G01 F100.00000 ( Feedrate. )


G00 Z30.00000 (Retract to tool change height)
T1
M5      (Spindle stop.)
G04 P1.00000 (Wait for spindle to stop)
(MSG, Change tool bit to cutter diameter 1.00000mm)
M6      (Tool change.)
M0      (Temporary machine stop.)
M3 ( Spindle on clockwise. )
G04 P1.00000 (Wait for spindle to get up to speed)
G04 P0 ( dwell for no time -- G64 should not smooth over this point )
G00 Z5.00000 ( retract )

G00 X-0.52495 Y1.02501 ( rapid move to begin. )
G01 Z-0.50000 F60.00000 ( plunge. )
G04 P0 ( dwell for no time -- G64 should not smooth over this point )
G01 F100.00000
G01 X-0.52495 Y8.77501
G01 X-0.52495 Y10.27501
G01 X-0.52495 Y18.02500
G01 X-0.53458 Y18.12256
G01 X-0.56303 Y18.21637
G01 X-0.60923 Y18.30280
G01 X-0.67141 Y18.37857
G01 X-0.74718 Y18.44075
G01 X-0.83362 Y18.48695
G01 X-0.92742 Y18.51540
G01 X-1.02498 Y18.52503
G01 X-19.77498 Y18.52503
G01 X-19.87252 Y18.51540
G01 X-19.96632 Y18.48695
G01 X-20.05275 Y18.44075
G01 X-20.12852 Y18.37857
G01 X-20.19070 Y18.30280
G01 X-20.23690 Y18.21637
G01 X-20.26535 Y18.12256
G01 X-20.27498 Y18.02500
G01 X-20.27498 Y10.27501
G01 X-20.27498 Y8.77501
G01 X-20.27498 Y1.02501
G01 X-20.26535 Y0.92748
G01 X-20.23690 Y0.83367
G01 X-20.19070 Y0.74724
G01 X-20.12852 Y0.67147
G01 X-20.05275 Y0.60929
G01 X-19.96632 Y0.56309
G01 X-19.87252 Y0.53464
G01 X-19.77498 Y0.52501
G01 X-1.02498 Y0.52501
G01 X-0.92742 Y0.53464
G01 X-0.83362 Y0.56309
G01 X-0.74718 Y0.60929
G01 X-0.67141 Y0.67147
G01 X-0.60923 Y0.74724
G01 X-0.56303 Y0.83367
G01 X-0.53458 Y0.92748
G01 X-0.52495 Y1.02501
G01 Z-1.00000 F60.00000 ( plunge. )
G04 P0 ( dwell for no time -- G64 should not smooth over this point )
G01 F100.00000
G01 X-0.52495 Y8.77501
G00 Z-0.60000
G01 X-0.52495 Y10.27501
G01 Z-1.00000 F60.00000
G01 F100.00000
G01 X-0.52495 Y18.02500
G01 X-0.53458 Y18.12256
G01 X-0.56303 Y18.21637
G01 X-0.60923 Y18.30280
G01 X-0.67141 Y18.37857
G01 X-0.74718 Y18.44075
G01 X-0.83362 Y18.48695
G01 X-0.92742 Y18.51540
G01 X-1.02498 Y18.52503
G01 X-19.77498 Y18.52503
G01 X-19.87252 Y18.51540
G01 X-19.96632 Y18.48695
G01 X-20.05275 Y18.44075
G01 X-20.12852 Y18.37857
G01 X-20.19070 Y18.30280
G01 X-20.23690 Y18.21637
G01 X-20.26535 Y18.12256
G01 X-20.27498 Y18.02500
G01 X-20.27498 Y10.27501
G00 Z-0.60000
G01 X-20.27498 Y8.77501
G01 Z-1.00000 F60.00000
G01 F100.00000
G01 X-20.27498 Y1.02501
G01 X-20.26535 Y0.92748
G01 X-20.23690 Y0.83367
G01 X-20.19070 Y0.74724
G01 X-20.12852 Y0.67147
G01 X-20.05275 Y0.60929
G01 X-19.96632 Y0.56309
G01 X-19.87252 Y0.53464
G01 X-19.77498 Y0.52501
G01 X-1.02498 Y0.52501
G01 X-0.92742 Y0.53464
G01 X-0.83362 Y0.56309
G01 X-0.74718 Y0.60929
G01 X-0.67141 Y0.67147
G01 X-0.60923 Y0.74724
G01 X-0.56303 Y0.83367
G01 X-0.53458 Y0.92748
G01 X-0.52495 Y1.02501
G01 Z-1.50000 F60.00000 ( plunge. )
G04 P0 ( dwell for no time -- G64 should not smooth over this point )
G01 F100.00000
G01 X-0.52495 Y8.77501
G00 Z-0.60000
G01 X-0.52495 Y10.27501
G01 Z-1.50000 F60.00000
G01 F100.00000
G01 X-0.52495 Y18.02500
G01 X-0.53458 Y18.12256
G01 X-0.56303 Y18.21637
G01 X-0.60923 Y18.30280
G01 X-0.67141 Y18.37857
G01 X-0.74718 Y18.44075
G01 X-0.83362 Y18.48695
G01 X-0.92742 Y18.51540
G01 X-1.02498 Y18.52503
G01 X-19.77498 Y18.52503
G01 X-19.87252 Y18.51540
G01 X-19.96632 Y18.48695
G01 X-20.05275 Y18.44075
G01 X-20.12852 Y18.37857
G01 X-20.19070 Y18.30280
G01 X-20.23690 Y18.21637
G01 X-20.26535 Y18.12256
G01 X-20.27498 Y18.02500
G01 X-20.27498 Y10.27501
G00 Z-0.60000
G01 X-20.27498 Y8.77501
G01 Z-1.50000 F60.00000
G01 F100.00000
G01 X-20.27498 Y1.02501
G01 X-20.26535 Y0.92748
G01 X-20.23690 Y0.83367
G01 X-20.19070 Y0.74724
G01 X-20.12852 Y0.67147
G01 X-20.05275 Y0.60929
G01 X-19.96632 Y0.56309
G01 X-19.87252 Y0.53464
G01 X-19.77498 Y0.52501
G01 X-1.02498 Y0.52501
G01 X-0.92742 Y0.53464
G01 X-0.83362 Y0.56309
G01 X-0.74718 Y0.60929
G01 X-0.67141 Y0.67147
G01 X-0.60923 Y0.74724
G01 X-0.56303 Y0.83367
G01 X-0.53458 Y0.92748
G01 X-0.52495 Y1.02501
G01 Z-2.00000 F60.00000 ( plunge. )
G04 P0 ( dwell for no time -- G64 should not smooth over this point )
G01 F100.00000
G01 X-0.52495 Y8.77501
G00 Z-0.60000
G01 X-0.52495 Y10.27501
G01 Z-2.00000 F60.00000
G01 F100.00000
G01 X-0.52495 Y18.02500
G01 X-0.53458 Y18.12256
G01 X-0.56303 Y18.21637
G01 X-0.60923 Y18.30280
G01 X-0.67141 Y18.37857
G01 X-0.74718 Y18.44075
G01 X-0.83362 Y18.48695
G01 X-0.92742 Y18.51540
G01 X-1.02498 Y18.52503
G01 X-19.77498 Y18.52503
G01 X-19.87252 Y18.51540
G01 X-19.96632 Y18.48695
G01 X-20.05275 Y18.44075
G01 X-20.12852 Y18.37857
G01 X-20.19070 Y18.30280
G01 X-20.23690 Y18.21637
G01 X-20.26535 Y18.12256
G01 X-20.27498 Y18.02500
G01 X-20.27498 Y10.27501
G00 Z-0.60000
G01 X-20.27498 Y8.77501
G01 Z-2.00000 F60.00000
G01 F100.00000
G01 X-20.27498 Y1.02501
G01 X-20.26535 Y0.92748
G01 X-20.23690 Y0.83367
G01 X-20.19070 Y0.74724
G01 X-20.12852 Y0.67147
G01 X-20.05275 Y0.60929
G01 X-19.96632 Y0.56309
G01 X-19.87252 Y0.53464
G01 X-19.77498 Y0.52501
G01 X-1.02498 Y0.52501
G01 X-0.92742 Y0.53464
G01 X-0.83362 Y0.56309
G01 X-0.74718 Y0.60929
G01 X-0.67141 Y0.67147
G01 X-0.60923 Y0.74724
G01 X-0.56303 Y0.83367
G01 X-0.53458 Y0.92748
G01 X-0.52495 Y1.02501

G04 P0 ( dwell for no time -- G64 should not smooth over this point )
G00 Z30.000000 ( retract )

M5 ( Spindle off. )
G04 P1.000000
M9 ( Coolant off. )
M2 ( Program end. )

