( pcb2gcode 2.5.0 )
( Software-independent Gcode )

( This file uses 2 drill bit sizes. )
( Bit sizes: [0.8001mm] [1.00076mm] )

G94       (Millimeters per minute feed rate.)
G21       (Units == Millimeters.)
G90       (Absolute coordinates.)
G00 S10000     (RPM spindle speed.)

G00 Z30.00000 (Retract)
T1
M5      (Spindle stop.)
G04 P1.00000
(MSG, Change tool bit to drill size 0.8001mm)
;M6      (Tool change.)
M0      (Temporary machine stop.)
M3      (Spindle on clockwise.)
G0 Z5.00000
G04 P1.00000

G1 F200.00000
G0 X-62.82604 Y17.98044
G1 Z-2.50000
G1 Z5.00000
G0 X-62.82604 Y15.97892
G1 Z-2.50000
G1 Z5.00000
G0 X-58.22610 Y11.78030
G1 Z-2.50000
G1 Z5.00000
G0 X-58.22610 Y9.78132
G1 Z-2.50000
G1 Z5.00000
G0 X-52.62540 Y9.58066
G1 Z-2.50000
G1 Z5.00000
G0 X-52.62540 Y11.57964
G1 Z-2.50000
G1 Z5.00000
G0 X-57.22534 Y15.97892
G1 Z-2.50000
G1 Z5.00000
G0 X-57.22534 Y17.98044
G1 Z-2.50000
G1 Z5.00000
G0 X-53.42550 Y21.82600
G1 Z-2.50000
G1 Z5.00000
G0 X-53.42550 Y25.42518
G1 Z-2.50000
G1 Z5.00000
G0 X-40.62390 Y25.42518
G1 Z-2.50000
G1 Z5.00000
G0 X-40.62390 Y21.82600
G1 Z-2.50000
G1 Z5.00000
G0 X-38.64016 Y17.64008
G1 Z-2.50000
G1 Z5.00000
G0 X-37.22538 Y16.22530
G1 Z-2.50000
G1 Z5.00000
G0 X-37.22538 Y8.22430
G1 Z-2.50000
G1 Z5.00000
G0 X-38.64016 Y6.80952
G1 Z-2.50000
G1 Z5.00000
G0 X-27.82484 Y21.82600
G1 Z-2.50000
G1 Z5.00000
G0 X-27.82484 Y25.42518
G1 Z-2.50000
G1 Z5.00000
G0 X-15.02578 Y25.42518
G1 Z-2.50000
G1 Z5.00000
G0 X-15.02578 Y21.82600
G1 Z-2.50000
G1 Z5.00000

G00 Z30.00000 (Retract)
T3
M5      (Spindle stop.)
G04 P1.00000
(MSG, Change tool bit to drill size 1.00076mm)
;M6      (Tool change.)
M0      (Temporary machine stop.)
M3      (Spindle on clockwise.)
G0 Z5.00000
G04 P1.00000

G1 F200.00000
G0 X-63.68456 Y36.82470
G1 Z-2.50000
G1 Z5.00000
G0 X-56.33126 Y26.42594
G1 Z-2.50000
G1 Z5.00000
G0 X-58.87126 Y26.42594
G1 Z-2.50000
G1 Z5.00000
G0 X-61.41126 Y26.42594
G1 Z-2.50000
G1 Z5.00000
G0 X-61.41126 Y22.79882
G1 Z-2.50000
G1 Z5.00000
G0 X-58.87126 Y22.79882
G1 Z-2.50000
G1 Z5.00000
G0 X-62.84890 Y12.07494
G1 Z-2.50000
G1 Z5.00000
G0 X-62.84890 Y9.53494
G1 Z-2.50000
G1 Z5.00000
G0 X-52.65080 Y15.73508
G1 Z-2.50000
G1 Z5.00000
G0 X-52.65080 Y18.27508
G1 Z-2.50000
G1 Z5.00000
G0 X-48.60966 Y26.42594
G1 Z-2.50000
G1 Z5.00000
G0 X-46.06966 Y26.42594
G1 Z-2.50000
G1 Z5.00000
G0 X-43.52966 Y26.42594
G1 Z-2.50000
G1 Z5.00000
G0 X-50.88550 Y36.82470
G1 Z-2.50000
G1 Z5.00000
G0 X-38.08390 Y36.82470
G1 Z-2.50000
G1 Z5.00000
G0 X-30.73060 Y26.42594
G1 Z-2.50000
G1 Z5.00000
G0 X-33.27060 Y26.42594
G1 Z-2.50000
G1 Z5.00000
G0 X-35.81060 Y26.42594
G1 Z-2.50000
G1 Z5.00000
G0 X-39.71458 Y12.19940
G1 Z-2.50000
G1 Z5.00000
G0 X-37.17458 Y12.19940
G1 Z-2.50000
G1 Z5.00000
G0 X-33.42554 Y10.30456
G1 Z-2.50000
G1 Z5.00000
G0 X-33.42554 Y14.02566
G1 Z-2.50000
G1 Z5.00000
G0 X-29.62570 Y14.02566
G1 Z-2.50000
G1 Z5.00000
G0 X-29.62570 Y16.56566
G1 Z-2.50000
G1 Z5.00000
G0 X-29.62570 Y19.10566
G1 Z-2.50000
G1 Z5.00000
G0 X-25.82586 Y14.02566
G1 Z-2.50000
G1 Z5.00000
G0 X-29.62570 Y10.30456
G1 Z-2.50000
G1 Z5.00000
G0 X-29.62570 Y7.76456
G1 Z-2.50000
G1 Z5.00000
G0 X-29.62570 Y5.22456
G1 Z-2.50000
G1 Z5.00000
G0 X-25.85634 Y5.26520
G1 Z-2.50000
G1 Z5.00000
G0 X-25.82586 Y10.30456
G1 Z-2.50000
G1 Z5.00000
G0 X-22.02602 Y10.30456
G1 Z-2.50000
G1 Z5.00000
G0 X-22.02602 Y14.02566
G1 Z-2.50000
G1 Z5.00000
G0 X-22.02602 Y16.56566
G1 Z-2.50000
G1 Z5.00000
G0 X-22.02602 Y19.10566
G1 Z-2.50000
G1 Z5.00000
G0 X-18.22618 Y14.02566
G1 Z-2.50000
G1 Z5.00000
G0 X-18.22618 Y10.30456
G1 Z-2.50000
G1 Z5.00000
G0 X-22.02602 Y7.76456
G1 Z-2.50000
G1 Z5.00000
G0 X-22.02602 Y5.22456
G1 Z-2.50000
G1 Z5.00000
G0 X-14.42380 Y5.22456
G1 Z-2.50000
G1 Z5.00000
G0 X-14.42380 Y7.76456
G1 Z-2.50000
G1 Z5.00000
G0 X-14.42380 Y10.30456
G1 Z-2.50000
G1 Z5.00000
G0 X-14.42380 Y14.02566
G1 Z-2.50000
G1 Z5.00000
G0 X-14.42380 Y16.56566
G1 Z-2.50000
G1 Z5.00000
G0 X-14.42380 Y19.10566
G1 Z-2.50000
G1 Z5.00000
G0 X-10.62396 Y14.02566
G1 Z-2.50000
G1 Z5.00000
G0 X-10.62396 Y10.30456
G1 Z-2.50000
G1 Z5.00000
G0 X-6.82412 Y5.22456
G1 Z-2.50000
G1 Z5.00000
G0 X-6.82412 Y7.76456
G1 Z-2.50000
G1 Z5.00000
G0 X-6.82412 Y10.30456
G1 Z-2.50000
G1 Z5.00000
G0 X-6.88508 Y14.02566
G1 Z-2.50000
G1 Z5.00000
G0 X-6.88508 Y16.56566
G1 Z-2.50000
G1 Z5.00000
G0 X-6.88508 Y19.10566
G1 Z-2.50000
G1 Z5.00000
G0 X-6.82412 Y22.82422
G1 Z-2.50000
G1 Z5.00000
G0 X-5.12994 Y26.42594
G1 Z-2.50000
G1 Z5.00000
G0 X-7.66994 Y26.42594
G1 Z-2.50000
G1 Z5.00000
G0 X-10.20994 Y26.42594
G1 Z-2.50000
G1 Z5.00000
G0 X-17.92900 Y26.42594
G1 Z-2.50000
G1 Z5.00000
G0 X-20.46900 Y26.42594
G1 Z-2.50000
G1 Z5.00000
G0 X-23.00900 Y26.42594
G1 Z-2.50000
G1 Z5.00000
G0 X-25.28484 Y36.82470
G1 Z-2.50000
G1 Z5.00000
G0 X-12.48578 Y36.82470
G1 Z-2.50000
G1 Z5.00000

G00 Z30.000 ( All done -- retract )

M5      (Spindle off.)
G04 P1.000000
M9      (Coolant off.)
M2      (Program end.)

