( pcb2gcode 2.5.0 )
( Software-independent Gcode )

( This file uses 3 drill bit sizes. )
( Bit sizes: [0.50038mm] [0.8001mm] [1.00076mm] )

G94       (Millimeters per minute feed rate.)
G21       (Units == Millimeters.)
G90       (Absolute coordinates.)
G00 S10000     (RPM spindle speed.)

G00 Z30.00000 (Retract)
T1
M5      (Spindle stop.)
G04 P1.00000
(MSG, Change tool bit to drill size 0.50038mm)
;M6      (Tool change.)
M0      (Temporary machine stop.)
M3      (Spindle on clockwise.)
G0 Z5.00000
G04 P1.00000

G1 F200.00000
G0 X-61.02548 Y26.52514
G1 Z-2.50000
G1 Z5.00000
G0 X-55.42478 Y26.52514
G1 Z-2.50000
G1 Z5.00000
G0 X-20.32452 Y31.02602
G1 Z-2.50000
G1 Z5.00000
G0 X-20.32452 Y27.62496
G1 Z-2.50000
G1 Z5.00000
G0 X-8.12490 Y21.82614
G1 Z-2.50000
G1 Z5.00000
G0 X-4.72384 Y35.62596
G1 Z-2.50000
G1 Z5.00000

G00 Z30.00000 (Retract)
T2
M5      (Spindle stop.)
G04 P1.00000
(MSG, Change tool bit to drill size 0.8001mm)
;M6      (Tool change.)
M0      (Temporary machine stop.)
M3      (Spindle on clockwise.)
G0 Z5.00000
G04 P1.00000

G1 F200.00000
G0 X-64.77960 Y28.92544
G1 Z-2.50000
G1 Z5.00000
G0 X-62.78062 Y28.92544
G1 Z-2.50000
G1 Z5.00000
G0 X-59.17890 Y28.87972
G1 Z-2.50000
G1 Z5.00000
G0 X-57.17992 Y28.87972
G1 Z-2.50000
G1 Z5.00000
G0 X-17.87088 Y29.32422
G1 Z-2.50000
G1 Z5.00000
G0 X-15.86936 Y29.32422
G1 Z-2.50000
G1 Z5.00000
G0 X-5.97098 Y29.32422
G1 Z-2.50000
G1 Z5.00000
G0 X-3.96946 Y29.32422
G1 Z-2.50000
G1 Z5.00000

G00 Z30.00000 (Retract)
T3
M5      (Spindle stop.)
G04 P1.00000
(MSG, Change tool bit to drill size 1.00076mm)
;M6      (Tool change.)
M0      (Temporary machine stop.)
M3      (Spindle on clockwise.)
G0 Z5.00000
G04 P1.00000

G1 F200.00000
G0 X-64.22588 Y22.72530
G1 Z-2.50000
G1 Z5.00000
G0 X-61.62492 Y34.04608
G1 Z-2.50000
G1 Z5.00000
G0 X-61.62492 Y36.58608
G1 Z-2.50000
G1 Z5.00000
G0 X-61.62492 Y39.12608
G1 Z-2.50000
G1 Z5.00000
G0 X-54.02524 Y34.32548
G1 Z-2.50000
G1 Z5.00000
G0 X-56.62620 Y24.05118
G1 Z-2.50000
G1 Z5.00000
G0 X-56.62620 Y21.51118
G1 Z-2.50000
G1 Z5.00000
G0 X-56.62620 Y18.97118
G1 Z-2.50000
G1 Z5.00000
G0 X-50.02474 Y24.12484
G1 Z-2.50000
G1 Z5.00000
G0 X-47.42378 Y34.05878
G1 Z-2.50000
G1 Z5.00000
G0 X-47.42378 Y36.59878
G1 Z-2.50000
G1 Z5.00000
G0 X-47.42378 Y39.13878
G1 Z-2.50000
G1 Z5.00000
G0 X-39.82410 Y34.32548
G1 Z-2.50000
G1 Z5.00000
G0 X-33.22518 Y39.15402
G1 Z-2.50000
G1 Z5.00000
G0 X-33.22518 Y36.61402
G1 Z-2.50000
G1 Z5.00000
G0 X-33.22518 Y34.07402
G1 Z-2.50000
G1 Z5.00000
G0 X-38.42456 Y28.97624
G1 Z-2.50000
G1 Z5.00000
G0 X-42.42506 Y24.05118
G1 Z-2.50000
G1 Z5.00000
G0 X-42.42506 Y21.51118
G1 Z-2.50000
G1 Z5.00000
G0 X-42.42506 Y18.97118
G1 Z-2.50000
G1 Z5.00000
G0 X-35.82614 Y24.12484
G1 Z-2.50000
G1 Z5.00000
G0 X-28.22392 Y24.06388
G1 Z-2.50000
G1 Z5.00000
G0 X-28.22392 Y21.52388
G1 Z-2.50000
G1 Z5.00000
G0 X-28.22392 Y18.98388
G1 Z-2.50000
G1 Z5.00000
G0 X-21.62500 Y24.05118
G1 Z-2.50000
G1 Z5.00000
G0 X-25.62550 Y34.32548
G1 Z-2.50000
G1 Z5.00000
G0 X-19.02404 Y34.08926
G1 Z-2.50000
G1 Z5.00000
G0 X-19.02404 Y36.62926
G1 Z-2.50000
G1 Z5.00000
G0 X-19.02404 Y39.16926
G1 Z-2.50000
G1 Z5.00000
G0 X-11.42436 Y34.32548
G1 Z-2.50000
G1 Z5.00000
G0 X-7.52546 Y39.22514
G1 Z-2.50000
G1 Z5.00000
G0 X-3.92374 Y39.22514
G1 Z-2.50000
G1 Z5.00000
G0 X-7.52546 Y36.68514
G1 Z-2.50000
G1 Z5.00000
G0 X-7.52546 Y34.14514
G1 Z-2.50000
G1 Z5.00000
G0 X-9.57524 Y28.30060
G1 Z-2.50000
G1 Z5.00000
G0 X-12.11524 Y28.30060
G1 Z-2.50000
G1 Z5.00000
G0 X-14.02532 Y24.07912
G1 Z-2.50000
G1 Z5.00000
G0 X-14.02532 Y21.53912
G1 Z-2.50000
G1 Z5.00000
G0 X-14.02532 Y18.99912
G1 Z-2.50000
G1 Z5.00000
G0 X-6.26562 Y24.62522
G1 Z-2.50000
G1 Z5.00000
G0 X-3.72562 Y24.62522
G1 Z-2.50000
G1 Z5.00000
G0 X-4.72384 Y15.36438
G1 Z-2.50000
G1 Z5.00000
G0 X-4.72384 Y12.82438
G1 Z-2.50000
G1 Z5.00000
G0 X-4.72384 Y10.28438
G1 Z-2.50000
G1 Z5.00000
G0 X-17.12412 Y9.02454
G1 Z-2.50000
G1 Z5.00000
G0 X-24.32502 Y11.82616
G1 Z-2.50000
G1 Z5.00000

G00 Z30.000 ( All done -- retract )

M5      (Spindle off.)
G04 P1.000000
M9      (Coolant off.)
M2      (Program end.)

