( pcb2gcode 2.5.0 )
( Software-independent Gcode )

( This file uses 1 drill bit sizes. )
( Bit sizes: [1.00076mm] )

G94       (Millimeters per minute feed rate.)
G21       (Units == Millimeters.)
G90       (Absolute coordinates.)
G00 S10000     (RPM spindle speed.)

G00 Z30.00000 (Retract)
T1
M5      (Spindle stop.)
G04 P1.00000
(MSG, Change tool bit to drill size 1.00076mm)
M6      (Tool change.)
M0      (Temporary machine stop.)
M3      (Spindle on clockwise.)
G0 Z5.00000
G04 P1.00000

G1 F200.00000
G0 X-64.82600 Y43.02510
G1 Z-2.50000
G1 Z5.00000
G0 X-61.22428 Y43.02510
G1 Z-2.50000
G1 Z5.00000
G0 X-57.62510 Y43.02510
G1 Z-2.50000
G1 Z5.00000
G0 X-54.02592 Y43.02510
G1 Z-2.50000
G1 Z5.00000
G0 X-54.92508 Y36.82496
G1 Z-2.50000
G1 Z5.00000
G0 X-50.42420 Y43.02510
G1 Z-2.50000
G1 Z5.00000
G0 X-46.82502 Y43.02510
G1 Z-2.50000
G1 Z5.00000
G0 X-43.22584 Y43.02510
G1 Z-2.50000
G1 Z5.00000
G0 X-39.62412 Y43.02510
G1 Z-2.50000
G1 Z5.00000
G0 X-36.02494 Y43.02510
G1 Z-2.50000
G1 Z5.00000
G0 X-32.42576 Y43.02510
G1 Z-2.50000
G1 Z5.00000
G0 X-28.82404 Y43.02510
G1 Z-2.50000
G1 Z5.00000
G0 X-25.22486 Y43.02510
G1 Z-2.50000
G1 Z5.00000
G0 X-21.62568 Y43.02510
G1 Z-2.50000
G1 Z5.00000
G0 X-18.02396 Y43.02510
G1 Z-2.50000
G1 Z5.00000
G0 X-14.42478 Y43.02510
G1 Z-2.50000
G1 Z5.00000
G0 X-10.82560 Y43.02510
G1 Z-2.50000
G1 Z5.00000
G0 X-7.22388 Y43.02510
G1 Z-2.50000
G1 Z5.00000
G0 X-3.62470 Y43.02510
G1 Z-2.50000
G1 Z5.00000
G0 X-13.72374 Y34.32560
G1 Z-2.50000
G1 Z5.00000
G0 X-7.62520 Y27.02564
G1 Z-2.50000
G1 Z5.00000
G0 X-5.82434 Y19.82474
G1 Z-2.50000
G1 Z5.00000
G0 X-3.82536 Y12.62384
G1 Z-2.50000
G1 Z5.00000
G0 X-3.22592 Y5.42548
G1 Z-2.50000
G1 Z5.00000
G0 X-16.62442 Y5.42548
G1 Z-2.50000
G1 Z5.00000
G0 X-18.62594 Y12.62384
G1 Z-2.50000
G1 Z5.00000
G0 X-20.62492 Y19.82474
G1 Z-2.50000
G1 Z5.00000
G0 X-22.02446 Y27.02564
G1 Z-2.50000
G1 Z5.00000
G0 X-28.02394 Y34.22400
G1 Z-2.50000
G1 Z5.00000
G0 X-36.22560 Y27.02564
G1 Z-2.50000
G1 Z5.00000
G0 X-34.22408 Y19.82474
G1 Z-2.50000
G1 Z5.00000
G0 X-32.22510 Y12.62384
G1 Z-2.50000
G1 Z5.00000
G0 X-26.62440 Y5.42548
G1 Z-2.50000
G1 Z5.00000
G0 X-30.22612 Y5.42548
G1 Z-2.50000
G1 Z5.00000
G0 X-43.02518 Y5.42548
G1 Z-2.50000
G1 Z5.00000
G0 X-45.42548 Y12.42572
G1 Z-2.50000
G1 Z5.00000
G0 X-47.42446 Y19.62408
G1 Z-2.50000
G1 Z5.00000
G0 X-41.82376 Y34.22400
G1 Z-2.50000
G1 Z5.00000
G0 X-49.62410 Y26.82498
G1 Z-2.50000
G1 Z5.00000
G0 X-58.42520 Y17.82576
G1 Z-2.50000
G1 Z5.00000
G0 X-56.22556 Y8.02390
G1 Z-2.50000
G1 Z5.00000
G0 X-56.22556 Y4.42472
G1 Z-2.50000
G1 Z5.00000
G0 X-63.62458 Y4.52378
G1 Z-2.50000
G1 Z5.00000

G00 Z30.000 ( All done -- retract )

M5      (Spindle off.)
G04 P1.000000
M9      (Coolant off.)
M2      (Program end.)

