( pcb2gcode 2.5.0 )
( Software-independent Gcode )

G94 ( Millimeters per minute feed rate. )
G21 ( Units == Millimeters. )

G90 ( Absolute coordinates. )
G00 S10000 ( RPM spindle speed. )
G01 F100.00000 ( Feedrate. )


G00 Z30.00000 (Retract to tool change height)
T1
M5      (Spindle stop.)
G04 P1.00000 (Wait for spindle to stop)
(MSG, Change tool bit to cutter diameter 1.00000mm)
M6      (Tool change.)
M0      (Temporary machine stop.)
M3 ( Spindle on clockwise. )
G04 P1.00000 (Wait for spindle to get up to speed)
G04 P0 ( dwell for no time -- G64 should not smooth over this point )
G00 Z5.00000 ( retract )

G00 X-0.52496 Y1.02502 ( rapid move to begin. )
G01 Z-0.50000 F60.00000 ( plunge. )
G04 P0 ( dwell for no time -- G64 should not smooth over this point )
G01 F100.00000
G01 X-0.52496 Y6.97502
G01 X-0.52496 Y8.47502
G01 X-0.52496 Y14.42502
G01 X-0.53458 Y14.52258
G01 X-0.56303 Y14.61639
G01 X-0.60924 Y14.70282
G01 X-0.67141 Y14.77859
G01 X-0.74718 Y14.84077
G01 X-0.83362 Y14.88697
G01 X-0.92742 Y14.91542
G01 X-1.02498 Y14.92505
G01 X-18.42500 Y14.92505
G01 X-18.52253 Y14.91542
G01 X-18.61634 Y14.88697
G01 X-18.70277 Y14.84077
G01 X-18.77854 Y14.77859
G01 X-18.84072 Y14.70282
G01 X-18.88692 Y14.61639
G01 X-18.91537 Y14.52258
G01 X-18.92500 Y14.42502
G01 X-18.92500 Y8.47502
G01 X-18.92500 Y6.97502
G01 X-18.92500 Y1.02502
G01 X-18.91537 Y0.92749
G01 X-18.88692 Y0.83369
G01 X-18.84072 Y0.74725
G01 X-18.77854 Y0.67148
G01 X-18.70277 Y0.60930
G01 X-18.61634 Y0.56310
G01 X-18.52253 Y0.53465
G01 X-18.42500 Y0.52503
G01 X-1.02498 Y0.52503
G01 X-0.92742 Y0.53465
G01 X-0.83362 Y0.56310
G01 X-0.74718 Y0.60930
G01 X-0.67141 Y0.67148
G01 X-0.60924 Y0.74725
G01 X-0.56303 Y0.83369
G01 X-0.53458 Y0.92749
G01 X-0.52496 Y1.02502
G01 Z-1.00000 F60.00000 ( plunge. )
G04 P0 ( dwell for no time -- G64 should not smooth over this point )
G01 F100.00000
G01 X-0.52496 Y6.97502
G00 Z-0.60000
G01 X-0.52496 Y8.47502
G01 Z-1.00000 F60.00000
G01 F100.00000
G01 X-0.52496 Y14.42502
G01 X-0.53458 Y14.52258
G01 X-0.56303 Y14.61639
G01 X-0.60924 Y14.70282
G01 X-0.67141 Y14.77859
G01 X-0.74718 Y14.84077
G01 X-0.83362 Y14.88697
G01 X-0.92742 Y14.91542
G01 X-1.02498 Y14.92505
G01 X-18.42500 Y14.92505
G01 X-18.52253 Y14.91542
G01 X-18.61634 Y14.88697
G01 X-18.70277 Y14.84077
G01 X-18.77854 Y14.77859
G01 X-18.84072 Y14.70282
G01 X-18.88692 Y14.61639
G01 X-18.91537 Y14.52258
G01 X-18.92500 Y14.42502
G01 X-18.92500 Y8.47502
G00 Z-0.60000
G01 X-18.92500 Y6.97502
G01 Z-1.00000 F60.00000
G01 F100.00000
G01 X-18.92500 Y1.02502
G01 X-18.91537 Y0.92749
G01 X-18.88692 Y0.83369
G01 X-18.84072 Y0.74725
G01 X-18.77854 Y0.67148
G01 X-18.70277 Y0.60930
G01 X-18.61634 Y0.56310
G01 X-18.52253 Y0.53465
G01 X-18.42500 Y0.52503
G01 X-1.02498 Y0.52503
G01 X-0.92742 Y0.53465
G01 X-0.83362 Y0.56310
G01 X-0.74718 Y0.60930
G01 X-0.67141 Y0.67148
G01 X-0.60924 Y0.74725
G01 X-0.56303 Y0.83369
G01 X-0.53458 Y0.92749
G01 X-0.52496 Y1.02502
G01 Z-1.50000 F60.00000 ( plunge. )
G04 P0 ( dwell for no time -- G64 should not smooth over this point )
G01 F100.00000
G01 X-0.52496 Y6.97502
G00 Z-0.60000
G01 X-0.52496 Y8.47502
G01 Z-1.50000 F60.00000
G01 F100.00000
G01 X-0.52496 Y14.42502
G01 X-0.53458 Y14.52258
G01 X-0.56303 Y14.61639
G01 X-0.60924 Y14.70282
G01 X-0.67141 Y14.77859
G01 X-0.74718 Y14.84077
G01 X-0.83362 Y14.88697
G01 X-0.92742 Y14.91542
G01 X-1.02498 Y14.92505
G01 X-18.42500 Y14.92505
G01 X-18.52253 Y14.91542
G01 X-18.61634 Y14.88697
G01 X-18.70277 Y14.84077
G01 X-18.77854 Y14.77859
G01 X-18.84072 Y14.70282
G01 X-18.88692 Y14.61639
G01 X-18.91537 Y14.52258
G01 X-18.92500 Y14.42502
G01 X-18.92500 Y8.47502
G00 Z-0.60000
G01 X-18.92500 Y6.97502
G01 Z-1.50000 F60.00000
G01 F100.00000
G01 X-18.92500 Y1.02502
G01 X-18.91537 Y0.92749
G01 X-18.88692 Y0.83369
G01 X-18.84072 Y0.74725
G01 X-18.77854 Y0.67148
G01 X-18.70277 Y0.60930
G01 X-18.61634 Y0.56310
G01 X-18.52253 Y0.53465
G01 X-18.42500 Y0.52503
G01 X-1.02498 Y0.52503
G01 X-0.92742 Y0.53465
G01 X-0.83362 Y0.56310
G01 X-0.74718 Y0.60930
G01 X-0.67141 Y0.67148
G01 X-0.60924 Y0.74725
G01 X-0.56303 Y0.83369
G01 X-0.53458 Y0.92749
G01 X-0.52496 Y1.02502
G01 Z-2.00000 F60.00000 ( plunge. )
G04 P0 ( dwell for no time -- G64 should not smooth over this point )
G01 F100.00000
G01 X-0.52496 Y6.97502
G00 Z-0.60000
G01 X-0.52496 Y8.47502
G01 Z-2.00000 F60.00000
G01 F100.00000
G01 X-0.52496 Y14.42502
G01 X-0.53458 Y14.52258
G01 X-0.56303 Y14.61639
G01 X-0.60924 Y14.70282
G01 X-0.67141 Y14.77859
G01 X-0.74718 Y14.84077
G01 X-0.83362 Y14.88697
G01 X-0.92742 Y14.91542
G01 X-1.02498 Y14.92505
G01 X-18.42500 Y14.92505
G01 X-18.52253 Y14.91542
G01 X-18.61634 Y14.88697
G01 X-18.70277 Y14.84077
G01 X-18.77854 Y14.77859
G01 X-18.84072 Y14.70282
G01 X-18.88692 Y14.61639
G01 X-18.91537 Y14.52258
G01 X-18.92500 Y14.42502
G01 X-18.92500 Y8.47502
G00 Z-0.60000
G01 X-18.92500 Y6.97502
G01 Z-2.00000 F60.00000
G01 F100.00000
G01 X-18.92500 Y1.02502
G01 X-18.91537 Y0.92749
G01 X-18.88692 Y0.83369
G01 X-18.84072 Y0.74725
G01 X-18.77854 Y0.67148
G01 X-18.70277 Y0.60930
G01 X-18.61634 Y0.56310
G01 X-18.52253 Y0.53465
G01 X-18.42500 Y0.52503
G01 X-1.02498 Y0.52503
G01 X-0.92742 Y0.53465
G01 X-0.83362 Y0.56310
G01 X-0.74718 Y0.60930
G01 X-0.67141 Y0.67148
G01 X-0.60924 Y0.74725
G01 X-0.56303 Y0.83369
G01 X-0.53458 Y0.92749
G01 X-0.52496 Y1.02502

G04 P0 ( dwell for no time -- G64 should not smooth over this point )
G00 Z30.000000 ( retract )

M5 ( Spindle off. )
G04 P1.000000
M9 ( Coolant off. )
M2 ( Program end. )

