( pcb2gcode 2.5.0 )
( Software-independent Gcode )

( This file uses 2 drill bit sizes. )
( Bit sizes: [0.8mm] [1mm] )

G94       (Millimeters per minute feed rate.)
G21       (Units == Millimeters.)
G90       (Absolute coordinates.)
G00 S10000     (RPM spindle speed.)

G00 Z30.00000 (Retract)
T1
M5      (Spindle stop.)
G04 P1.00000
(MSG, Change tool bit to drill size 0.8mm)
M6      (Tool change.)
M0      (Temporary machine stop.)
M3      (Spindle on clockwise.)
G0 Z5.00000
G04 P1.00000

G1 F200.00000
G0 X-65.92500 Y16.42500
G1 Z-2.50000
G1 Z5.00000
G0 X-62.12500 Y16.42500
G1 Z-2.50000
G1 Z5.00000
G0 X-55.72500 Y30.42500
G1 Z-2.50000
G1 Z5.00000
G0 X-48.12500 Y30.42500
G1 Z-2.50000
G1 Z5.00000
G0 X-36.48700 Y30.42500
G1 Z-2.50000
G1 Z5.00000
G0 X-29.56300 Y30.42500
G1 Z-2.50000
G1 Z5.00000
G0 X-17.08800 Y30.42500
G1 Z-2.50000
G1 Z5.00000
G0 X-10.36200 Y30.42500
G1 Z-2.50000
G1 Z5.00000
G0 X-3.72500 Y12.02500
G1 Z-2.50000
G1 Z5.00000
G0 X-8.92500 Y12.02500
G1 Z-2.50000
G1 Z5.00000
G0 X-11.32500 Y9.27000
G1 Z-2.50000
G1 Z5.00000
G0 X-11.32500 Y7.27000
G1 Z-2.50000
G1 Z5.00000
G0 X-16.92500 Y9.27000
G1 Z-2.50000
G1 Z5.00000
G0 X-16.92500 Y7.27000
G1 Z-2.50000
G1 Z5.00000
G0 X-29.72500 Y9.27000
G1 Z-2.50000
G1 Z5.00000
G0 X-29.72500 Y7.27000
G1 Z-2.50000
G1 Z5.00000
G0 X-35.32500 Y9.27000
G1 Z-2.50000
G1 Z5.00000
G0 X-35.32500 Y7.27000
G1 Z-2.50000
G1 Z5.00000

G00 Z30.00000 (Retract)
T3
M5      (Spindle stop.)
G04 P1.00000
(MSG, Change tool bit to drill size 1mm)
M6      (Tool change.)
M0      (Temporary machine stop.)
M3      (Spindle on clockwise.)
G0 Z5.00000
G04 P1.00000

G1 F200.00000
G0 X-61.32500 Y31.02500
G1 Z-2.50000
G1 Z5.00000
G0 X-61.32500 Y27.55000
G1 Z-2.50000
G1 Z5.00000
G0 X-61.32500 Y25.01000
G1 Z-2.50000
G1 Z5.00000
G0 X-61.32500 Y22.47000
G1 Z-2.50000
G1 Z5.00000
G0 X-61.32500 Y18.82500
G1 Z-2.50000
G1 Z5.00000
G0 X-58.12500 Y16.42500
G1 Z-2.50000
G1 Z5.00000
G0 X-55.12500 Y16.42500
G1 Z-2.50000
G1 Z5.00000
G0 X-61.32500 Y14.22500
G1 Z-2.50000
G1 Z5.00000
G0 X-61.32500 Y10.56500
G1 Z-2.50000
G1 Z5.00000
G0 X-61.32500 Y8.02500
G1 Z-2.50000
G1 Z5.00000
G0 X-61.32500 Y5.48500
G1 Z-2.50000
G1 Z5.00000
G0 X-45.72500 Y5.48500
G1 Z-2.50000
G1 Z5.00000
G0 X-45.72500 Y8.02500
G1 Z-2.50000
G1 Z5.00000
G0 X-45.72500 Y10.56500
G1 Z-2.50000
G1 Z5.00000
G0 X-45.72500 Y14.22500
G1 Z-2.50000
G1 Z5.00000
G0 X-44.32500 Y18.82500
G1 Z-2.50000
G1 Z5.00000
G0 X-59.95000 Y35.13500
G1 Z-2.50000
G1 Z5.00000
G0 X-59.95000 Y37.67500
G1 Z-2.50000
G1 Z5.00000
G0 X-59.92500 Y41.62500
G1 Z-2.50000
G1 Z5.00000
G0 X-59.92500 Y45.22500
G1 Z-2.50000
G1 Z5.00000
G0 X-44.32500 Y41.62500
G1 Z-2.50000
G1 Z5.00000
G0 X-44.32500 Y45.22500
G1 Z-2.50000
G1 Z5.00000
G0 X-40.72500 Y45.22500
G1 Z-2.50000
G1 Z5.00000
G0 X-40.72500 Y41.62500
G1 Z-2.50000
G1 Z5.00000
G0 X-44.35000 Y37.67500
G1 Z-2.50000
G1 Z5.00000
G0 X-44.35000 Y35.13500
G1 Z-2.50000
G1 Z5.00000
G0 X-40.75000 Y37.67500
G1 Z-2.50000
G1 Z5.00000
G0 X-40.75000 Y35.13500
G1 Z-2.50000
G1 Z5.00000
G0 X-44.32500 Y31.02500
G1 Z-2.50000
G1 Z5.00000
G0 X-44.32500 Y27.56500
G1 Z-2.50000
G1 Z5.00000
G0 X-44.32500 Y25.02500
G1 Z-2.50000
G1 Z5.00000
G0 X-44.32500 Y22.48500
G1 Z-2.50000
G1 Z5.00000
G0 X-40.72500 Y18.82500
G1 Z-2.50000
G1 Z5.00000
G0 X-40.72500 Y22.48500
G1 Z-2.50000
G1 Z5.00000
G0 X-40.72500 Y25.02500
G1 Z-2.50000
G1 Z5.00000
G0 X-40.72500 Y27.56500
G1 Z-2.50000
G1 Z5.00000
G0 X-40.72500 Y31.02500
G1 Z-2.50000
G1 Z5.00000
G0 X-25.15000 Y37.67500
G1 Z-2.50000
G1 Z5.00000
G0 X-25.15000 Y35.13500
G1 Z-2.50000
G1 Z5.00000
G0 X-21.55000 Y37.67500
G1 Z-2.50000
G1 Z5.00000
G0 X-21.55000 Y35.13500
G1 Z-2.50000
G1 Z5.00000
G0 X-21.52500 Y31.02500
G1 Z-2.50000
G1 Z5.00000
G0 X-25.12500 Y31.02500
G1 Z-2.50000
G1 Z5.00000
G0 X-25.12500 Y27.56500
G1 Z-2.50000
G1 Z5.00000
G0 X-21.52500 Y27.56500
G1 Z-2.50000
G1 Z5.00000
G0 X-21.52500 Y25.02500
G1 Z-2.50000
G1 Z5.00000
G0 X-21.52500 Y22.48500
G1 Z-2.50000
G1 Z5.00000
G0 X-25.12500 Y25.02500
G1 Z-2.50000
G1 Z5.00000
G0 X-25.12500 Y22.48500
G1 Z-2.50000
G1 Z5.00000
G0 X-21.52500 Y18.82500
G1 Z-2.50000
G1 Z5.00000
G0 X-25.12500 Y18.82500
G1 Z-2.50000
G1 Z5.00000
G0 X-25.12500 Y9.76500
G1 Z-2.50000
G1 Z5.00000
G0 X-25.12500 Y7.22500
G1 Z-2.50000
G1 Z5.00000
G0 X-21.52500 Y7.22500
G1 Z-2.50000
G1 Z5.00000
G0 X-21.52500 Y9.76500
G1 Z-2.50000
G1 Z5.00000
G0 X-5.92500 Y19.22500
G1 Z-2.50000
G1 Z5.00000
G0 X-5.90000 Y23.17500
G1 Z-2.50000
G1 Z5.00000
G0 X-5.90000 Y25.71500
G1 Z-2.50000
G1 Z5.00000
G0 X-5.92500 Y29.22500
G1 Z-2.50000
G1 Z5.00000
G0 X-5.95000 Y35.13500
G1 Z-2.50000
G1 Z5.00000
G0 X-5.95000 Y37.67500
G1 Z-2.50000
G1 Z5.00000
G0 X-5.92500 Y41.62500
G1 Z-2.50000
G1 Z5.00000
G0 X-5.92500 Y45.22500
G1 Z-2.50000
G1 Z5.00000
G0 X-21.52500 Y45.22500
G1 Z-2.50000
G1 Z5.00000
G0 X-21.52500 Y41.62500
G1 Z-2.50000
G1 Z5.00000
G0 X-25.12500 Y45.22500
G1 Z-2.50000
G1 Z5.00000
G0 X-25.12500 Y41.62500
G1 Z-2.50000
G1 Z5.00000

G00 Z30.000 ( All done -- retract )

M5      (Spindle off.)
G04 P1.000000
M9      (Coolant off.)
M2      (Program end.)

