( pcb2gcode 2.5.0 )
( Software-independent Gcode )

( This file uses 3 drill bit sizes. )
( Bit sizes: [0.50038mm] [0.8001mm] [1.00076mm] )

G94       (Millimeters per minute feed rate.)
G21       (Units == Millimeters.)
G90       (Absolute coordinates.)
G00 S10000     (RPM spindle speed.)

G00 Z30.00000 (Retract)
T1
M5      (Spindle stop.)
G04 P1.00000
(MSG, Change tool bit to drill size 0.50038mm)
;M6      (Tool change.)
M0      (Temporary machine stop.)
M3      (Spindle on clockwise.)
G0 Z5.00000
G04 P1.00000

G1 F200.00000
G0 X-58.37460 Y21.57596
G1 Z-2.50000
G1 Z5.00000
G0 X-56.17496 Y26.57468
G1 Z-2.50000
G1 Z5.00000
G0 X-42.17448 Y21.57596
G1 Z-2.50000
G1 Z5.00000
G0 X-40.57428 Y21.57596
G1 Z-2.50000
G1 Z5.00000
G0 X-37.47548 Y25.62472
G1 Z-2.50000
G1 Z5.00000
G0 X-37.47548 Y25.62472
G1 Z-2.50000
G1 Z5.00000
G0 X-38.37464 Y27.32398
G1 Z-2.50000
G1 Z5.00000
G0 X-36.47472 Y27.32398
G1 Z-2.50000
G1 Z5.00000
G0 X-35.87528 Y25.52566
G1 Z-2.50000
G1 Z5.00000
G0 X-30.17552 Y17.37480
G1 Z-2.50000
G1 Z5.00000
G0 X-30.17552 Y15.77460
G1 Z-2.50000
G1 Z5.00000
G0 X-19.32464 Y14.77384
G1 Z-2.50000
G1 Z5.00000
G0 X-19.32464 Y17.37480
G1 Z-2.50000
G1 Z5.00000
G0 X-21.49888 Y17.52466
G1 Z-2.50000
G1 Z5.00000
G0 X-21.47602 Y19.22392
G1 Z-2.50000
G1 Z5.00000
G0 X-18.57534 Y22.52592
G1 Z-2.50000
G1 Z5.00000

G00 Z30.00000 (Retract)
T2
M5      (Spindle stop.)
G04 P1.00000
(MSG, Change tool bit to drill size 0.8001mm)
;M6      (Tool change.)
M0      (Temporary machine stop.)
M3      (Spindle on clockwise.)
G0 Z5.00000
G04 P1.00000

G1 F200.00000
G0 X-14.15066 Y20.77586
G1 Z-2.50000
G1 Z5.00000
G0 X-14.15066 Y18.77434
G1 Z-2.50000
G1 Z5.00000
G0 X-14.15066 Y14.77384
G1 Z-2.50000
G1 Z5.00000
G0 X-14.15066 Y12.77486
G1 Z-2.50000
G1 Z5.00000
G0 X-8.57536 Y12.77486
G1 Z-2.50000
G1 Z5.00000
G0 X-8.57536 Y14.77384
G1 Z-2.50000
G1 Z5.00000
G0 X-8.57536 Y18.77434
G1 Z-2.50000
G1 Z5.00000
G0 X-8.57536 Y20.77586
G1 Z-2.50000
G1 Z5.00000

G00 Z30.00000 (Retract)
T3
M5      (Spindle stop.)
G04 P1.00000
(MSG, Change tool bit to drill size 1.00076mm)
;M6      (Tool change.)
M0      (Temporary machine stop.)
M3      (Spindle on clockwise.)
G0 Z5.00000
G04 P1.00000

G1 F200.00000
G0 X-63.17520 Y30.85458
G1 Z-2.50000
G1 Z5.00000
G0 X-63.17520 Y28.31458
G1 Z-2.50000
G1 Z5.00000
G0 X-63.17520 Y25.77458
G1 Z-2.50000
G1 Z5.00000
G0 X-63.17520 Y21.45404
G1 Z-2.50000
G1 Z5.00000
G0 X-50.97558 Y26.65596
G1 Z-2.50000
G1 Z5.00000
G0 X-50.97558 Y22.79516
G1 Z-2.50000
G1 Z5.00000
G0 X-50.97558 Y20.25516
G1 Z-2.50000
G1 Z5.00000
G0 X-50.97558 Y17.71516
G1 Z-2.50000
G1 Z5.00000
G0 X-45.37488 Y21.45404
G1 Z-2.50000
G1 Z5.00000
G0 X-45.37488 Y25.70092
G1 Z-2.50000
G1 Z5.00000
G0 X-45.37488 Y28.24092
G1 Z-2.50000
G1 Z5.00000
G0 X-45.37488 Y30.78092
G1 Z-2.50000
G1 Z5.00000
G0 X-33.17526 Y26.65596
G1 Z-2.50000
G1 Z5.00000
G0 X-33.17526 Y22.77992
G1 Z-2.50000
G1 Z5.00000
G0 X-33.17526 Y20.23992
G1 Z-2.50000
G1 Z5.00000
G0 X-33.17526 Y17.69992
G1 Z-2.50000
G1 Z5.00000
G0 X-26.07596 Y16.72456
G1 Z-2.50000
G1 Z5.00000
G0 X-25.97436 Y22.97550
G1 Z-2.50000
G1 Z5.00000
G0 X-25.97436 Y25.51550
G1 Z-2.50000
G1 Z5.00000
G0 X-25.94896 Y29.22390
G1 Z-2.50000
G1 Z5.00000
G0 X-25.94896 Y31.76390
G1 Z-2.50000
G1 Z5.00000
G0 X-25.94896 Y34.30390
G1 Z-2.50000
G1 Z5.00000
G0 X-13.74934 Y25.02528
G1 Z-2.50000
G1 Z5.00000
G0 X-3.82556 Y21.27624
G1 Z-2.50000
G1 Z5.00000
G0 X-3.82556 Y18.73624
G1 Z-2.50000
G1 Z5.00000
G0 X-3.82556 Y15.06594
G1 Z-2.50000
G1 Z5.00000
G0 X-3.82556 Y12.52594
G1 Z-2.50000
G1 Z5.00000

G00 Z30.000 ( All done -- retract )

M5      (Spindle off.)
G04 P1.000000
M9      (Coolant off.)
M2      (Program end.)

