( pcb2gcode 2.5.0 )
( Software-independent Gcode )

G94 ( Millimeters per minute feed rate. )
G21 ( Units == Millimeters. )

G90 ( Absolute coordinates. )
G00 S10000 ( RPM spindle speed. )
G01 F100.00000 ( Feedrate. )


G00 Z30.00000 (Retract to tool change height)
T1
M5      (Spindle stop.)
G04 P1.00000 (Wait for spindle to stop)
(MSG, Change tool bit to cutter diameter 1.00000mm)
;M6      (Tool change.)
M0      (Temporary machine stop.)
M3 ( Spindle on clockwise. )
G04 P1.00000 (Wait for spindle to get up to speed)
G04 P0 ( dwell for no time -- G64 should not smooth over this point )
G00 Z5.00000 ( retract )

G00 X-0.52496 Y1.02502 ( rapid move to begin. )
G01 Z-0.50000 F60.00000 ( plunge. )
G04 P0 ( dwell for no time -- G64 should not smooth over this point )
G01 F100.00000
G01 X-0.52496 Y23.27502
G01 X-0.52496 Y24.77502
G01 X-0.52496 Y47.02501
G01 X-0.53458 Y47.12257
G01 X-0.56303 Y47.21637
G01 X-0.60923 Y47.30281
G01 X-0.67141 Y47.37858
G01 X-0.74718 Y47.44075
G01 X-0.83362 Y47.48696
G01 X-0.92742 Y47.51541
G01 X-1.02498 Y47.52503
G01 X-67.52498 Y47.52503
G01 X-67.62251 Y47.51541
G01 X-67.71631 Y47.48696
G01 X-67.80275 Y47.44075
G01 X-67.87852 Y47.37858
G01 X-67.94070 Y47.30281
G01 X-67.98690 Y47.21637
G01 X-68.01535 Y47.12257
G01 X-68.02497 Y47.02501
G01 X-68.02497 Y24.77502
G01 X-68.02497 Y23.27502
G01 X-68.02497 Y1.02502
G01 X-68.01535 Y0.92749
G01 X-67.98690 Y0.83368
G01 X-67.94070 Y0.74725
G01 X-67.87852 Y0.67148
G01 X-67.80275 Y0.60930
G01 X-67.71631 Y0.56310
G01 X-67.62251 Y0.53465
G01 X-67.52498 Y0.52502
G01 X-1.02498 Y0.52502
G01 X-0.92742 Y0.53465
G01 X-0.83362 Y0.56310
G01 X-0.74718 Y0.60930
G01 X-0.67141 Y0.67148
G01 X-0.60923 Y0.74725
G01 X-0.56303 Y0.83368
G01 X-0.53458 Y0.92749
G01 X-0.52496 Y1.02502
G01 Z-1.00000 F60.00000 ( plunge. )
G04 P0 ( dwell for no time -- G64 should not smooth over this point )
G01 F100.00000
G01 X-0.52496 Y23.27502
G00 Z-0.60000
G01 X-0.52496 Y24.77502
G01 Z-1.00000 F60.00000
G01 F100.00000
G01 X-0.52496 Y47.02501
G01 X-0.53458 Y47.12257
G01 X-0.56303 Y47.21637
G01 X-0.60923 Y47.30281
G01 X-0.67141 Y47.37858
G01 X-0.74718 Y47.44075
G01 X-0.83362 Y47.48696
G01 X-0.92742 Y47.51541
G01 X-1.02498 Y47.52503
G01 X-67.52498 Y47.52503
G01 X-67.62251 Y47.51541
G01 X-67.71631 Y47.48696
G01 X-67.80275 Y47.44075
G01 X-67.87852 Y47.37858
G01 X-67.94070 Y47.30281
G01 X-67.98690 Y47.21637
G01 X-68.01535 Y47.12257
G01 X-68.02497 Y47.02501
G01 X-68.02497 Y24.77502
G00 Z-0.60000
G01 X-68.02497 Y23.27502
G01 Z-1.00000 F60.00000
G01 F100.00000
G01 X-68.02497 Y1.02502
G01 X-68.01535 Y0.92749
G01 X-67.98690 Y0.83368
G01 X-67.94070 Y0.74725
G01 X-67.87852 Y0.67148
G01 X-67.80275 Y0.60930
G01 X-67.71631 Y0.56310
G01 X-67.62251 Y0.53465
G01 X-67.52498 Y0.52502
G01 X-1.02498 Y0.52502
G01 X-0.92742 Y0.53465
G01 X-0.83362 Y0.56310
G01 X-0.74718 Y0.60930
G01 X-0.67141 Y0.67148
G01 X-0.60923 Y0.74725
G01 X-0.56303 Y0.83368
G01 X-0.53458 Y0.92749
G01 X-0.52496 Y1.02502
G01 Z-1.50000 F60.00000 ( plunge. )
G04 P0 ( dwell for no time -- G64 should not smooth over this point )
G01 F100.00000
G01 X-0.52496 Y23.27502
G00 Z-0.60000
G01 X-0.52496 Y24.77502
G01 Z-1.50000 F60.00000
G01 F100.00000
G01 X-0.52496 Y47.02501
G01 X-0.53458 Y47.12257
G01 X-0.56303 Y47.21637
G01 X-0.60923 Y47.30281
G01 X-0.67141 Y47.37858
G01 X-0.74718 Y47.44075
G01 X-0.83362 Y47.48696
G01 X-0.92742 Y47.51541
G01 X-1.02498 Y47.52503
G01 X-67.52498 Y47.52503
G01 X-67.62251 Y47.51541
G01 X-67.71631 Y47.48696
G01 X-67.80275 Y47.44075
G01 X-67.87852 Y47.37858
G01 X-67.94070 Y47.30281
G01 X-67.98690 Y47.21637
G01 X-68.01535 Y47.12257
G01 X-68.02497 Y47.02501
G01 X-68.02497 Y24.77502
G00 Z-0.60000
G01 X-68.02497 Y23.27502
G01 Z-1.50000 F60.00000
G01 F100.00000
G01 X-68.02497 Y1.02502
G01 X-68.01535 Y0.92749
G01 X-67.98690 Y0.83368
G01 X-67.94070 Y0.74725
G01 X-67.87852 Y0.67148
G01 X-67.80275 Y0.60930
G01 X-67.71631 Y0.56310
G01 X-67.62251 Y0.53465
G01 X-67.52498 Y0.52502
G01 X-1.02498 Y0.52502
G01 X-0.92742 Y0.53465
G01 X-0.83362 Y0.56310
G01 X-0.74718 Y0.60930
G01 X-0.67141 Y0.67148
G01 X-0.60923 Y0.74725
G01 X-0.56303 Y0.83368
G01 X-0.53458 Y0.92749
G01 X-0.52496 Y1.02502
G01 Z-2.00000 F60.00000 ( plunge. )
G04 P0 ( dwell for no time -- G64 should not smooth over this point )
G01 F100.00000
G01 X-0.52496 Y23.27502
G00 Z-0.60000
G01 X-0.52496 Y24.77502
G01 Z-2.00000 F60.00000
G01 F100.00000
G01 X-0.52496 Y47.02501
G01 X-0.53458 Y47.12257
G01 X-0.56303 Y47.21637
G01 X-0.60923 Y47.30281
G01 X-0.67141 Y47.37858
G01 X-0.74718 Y47.44075
G01 X-0.83362 Y47.48696
G01 X-0.92742 Y47.51541
G01 X-1.02498 Y47.52503
G01 X-67.52498 Y47.52503
G01 X-67.62251 Y47.51541
G01 X-67.71631 Y47.48696
G01 X-67.80275 Y47.44075
G01 X-67.87852 Y47.37858
G01 X-67.94070 Y47.30281
G01 X-67.98690 Y47.21637
G01 X-68.01535 Y47.12257
G01 X-68.02497 Y47.02501
G01 X-68.02497 Y24.77502
G00 Z-0.60000
G01 X-68.02497 Y23.27502
G01 Z-2.00000 F60.00000
G01 F100.00000
G01 X-68.02497 Y1.02502
G01 X-68.01535 Y0.92749
G01 X-67.98690 Y0.83368
G01 X-67.94070 Y0.74725
G01 X-67.87852 Y0.67148
G01 X-67.80275 Y0.60930
G01 X-67.71631 Y0.56310
G01 X-67.62251 Y0.53465
G01 X-67.52498 Y0.52502
G01 X-1.02498 Y0.52502
G01 X-0.92742 Y0.53465
G01 X-0.83362 Y0.56310
G01 X-0.74718 Y0.60930
G01 X-0.67141 Y0.67148
G01 X-0.60923 Y0.74725
G01 X-0.56303 Y0.83368
G01 X-0.53458 Y0.92749
G01 X-0.52496 Y1.02502

G04 P0 ( dwell for no time -- G64 should not smooth over this point )
G00 Z30.000000 ( retract )

M5 ( Spindle off. )
G04 P1.000000
M9 ( Coolant off. )
M2 ( Program end. )

