( pcb2gcode 2.5.0 )
( Software-independent Gcode )

( This file uses 3 drill bit sizes. )
( Bit sizes: [0.8001mm] [1.00076mm] [1.09982mm] )

G94       (Millimeters per minute feed rate.)
G21       (Units == Millimeters.)
G90       (Absolute coordinates.)
G00 S10000     (RPM spindle speed.)

G00 Z30.00000 (Retract)
T1
M5      (Spindle stop.)
G04 P1.00000
(MSG, Change tool bit to drill size 0.8001mm)
;M6      (Tool change.)
M0      (Temporary machine stop.)
M3      (Spindle on clockwise.)
G0 Z5.00000
G04 P1.00000

G1 F200.00000
G0 X-42.38098 Y9.42392
G1 Z-2.50000
G1 Z5.00000
G0 X-40.37946 Y9.42392
G1 Z-2.50000
G1 Z5.00000
G0 X-12.62488 Y37.42488
G1 Z-2.50000
G1 Z5.00000
G0 X-10.62590 Y37.42488
G1 Z-2.50000
G1 Z5.00000

G00 Z30.00000 (Retract)
T2
M5      (Spindle stop.)
G04 P1.00000
(MSG, Change tool bit to drill size 1.00076mm)
;M6      (Tool change.)
M0      (Temporary machine stop.)
M3      (Spindle on clockwise.)
G0 Z5.00000
G04 P1.00000

G1 F200.00000
G0 X-63.42488 Y7.02616
G1 Z-2.50000
G1 Z5.00000
G0 X-61.42590 Y10.82600
G1 Z-2.50000
G1 Z5.00000
G0 X-59.42438 Y7.02616
G1 Z-2.50000
G1 Z5.00000
G0 X-57.42540 Y10.82600
G1 Z-2.50000
G1 Z5.00000
G0 X-55.42388 Y7.02616
G1 Z-2.50000
G1 Z5.00000
G0 X-53.42490 Y10.82600
G1 Z-2.50000
G1 Z5.00000
G0 X-51.42592 Y7.02616
G1 Z-2.50000
G1 Z5.00000
G0 X-49.42440 Y10.82600
G1 Z-2.50000
G1 Z5.00000
G0 X-47.42542 Y7.02616
G1 Z-2.50000
G1 Z5.00000
G0 X-34.62382 Y10.82600
G1 Z-2.50000
G1 Z5.00000
G0 X-32.82550 Y7.02616
G1 Z-2.50000
G1 Z5.00000
G0 X-30.82398 Y10.82600
G1 Z-2.50000
G1 Z5.00000
G0 X-28.82500 Y7.02616
G1 Z-2.50000
G1 Z5.00000
G0 X-26.82602 Y10.82600
G1 Z-2.50000
G1 Z5.00000
G0 X-24.82450 Y7.02616
G1 Z-2.50000
G1 Z5.00000
G0 X-22.82552 Y10.82600
G1 Z-2.50000
G1 Z5.00000
G0 X-20.82400 Y7.02616
G1 Z-2.50000
G1 Z5.00000
G0 X-18.82502 Y10.82600
G1 Z-2.50000
G1 Z5.00000
G0 X-16.82604 Y7.02616
G1 Z-2.50000
G1 Z5.00000
G0 X-14.92612 Y10.82600
G1 Z-2.50000
G1 Z5.00000
G0 X-7.02418 Y10.82600
G1 Z-2.50000
G1 Z5.00000
G0 X-4.48418 Y35.42590
G1 Z-2.50000
G1 Z5.00000
G0 X-7.02418 Y35.42590
G1 Z-2.50000
G1 Z5.00000
G0 X-4.48418 Y39.22574
G1 Z-2.50000
G1 Z5.00000
G0 X-7.02418 Y39.22574
G1 Z-2.50000
G1 Z5.00000
G0 X-10.68432 Y42.40074
G1 Z-2.50000
G1 Z5.00000
G0 X-13.22432 Y42.40074
G1 Z-2.50000
G1 Z5.00000
G0 X-18.92408 Y43.32530
G1 Z-2.50000
G1 Z5.00000
G0 X-20.92560 Y39.52546
G1 Z-2.50000
G1 Z5.00000
G0 X-22.92458 Y43.32530
G1 Z-2.50000
G1 Z5.00000
G0 X-24.92610 Y39.52546
G1 Z-2.50000
G1 Z5.00000
G0 X-26.92508 Y43.32530
G1 Z-2.50000
G1 Z5.00000
G0 X-28.92406 Y39.52546
G1 Z-2.50000
G1 Z5.00000
G0 X-30.92558 Y43.32530
G1 Z-2.50000
G1 Z5.00000
G0 X-32.92456 Y39.52546
G1 Z-2.50000
G1 Z5.00000
G0 X-34.92608 Y43.32530
G1 Z-2.50000
G1 Z5.00000
G0 X-36.92506 Y39.52546
G1 Z-2.50000
G1 Z5.00000
G0 X-38.92404 Y43.32530
G1 Z-2.50000
G1 Z5.00000
G0 X-40.92556 Y39.52546
G1 Z-2.50000
G1 Z5.00000
G0 X-42.92454 Y43.32530
G1 Z-2.50000
G1 Z5.00000
G0 X-44.92606 Y39.52546
G1 Z-2.50000
G1 Z5.00000
G0 X-46.92504 Y43.32530
G1 Z-2.50000
G1 Z5.00000
G0 X-48.92402 Y39.52546
G1 Z-2.50000
G1 Z5.00000
G0 X-50.92554 Y43.32530
G1 Z-2.50000
G1 Z5.00000
G0 X-52.92452 Y39.52546
G1 Z-2.50000
G1 Z5.00000
G0 X-54.92604 Y43.32530
G1 Z-2.50000
G1 Z5.00000
G0 X-56.92502 Y39.52546
G1 Z-2.50000
G1 Z5.00000
G0 X-58.92400 Y43.32530
G1 Z-2.50000
G1 Z5.00000
G0 X-60.92552 Y39.52546
G1 Z-2.50000
G1 Z5.00000

G00 Z30.00000 (Retract)
T3
M5      (Spindle stop.)
G04 P1.00000
(MSG, Change tool bit to drill size 1.09982mm)
;M6      (Tool change.)
M0      (Temporary machine stop.)
M3      (Spindle on clockwise.)
G0 Z5.00000
G04 P1.00000

G1 F200.00000
G0 X-65.43402 Y31.64384
G1 Z-2.50000
G1 Z5.00000
G0 X-62.89402 Y31.64384
G1 Z-2.50000
G1 Z5.00000
G0 X-60.35402 Y31.64384
G1 Z-2.50000
G1 Z5.00000
G0 X-57.81402 Y31.64384
G1 Z-2.50000
G1 Z5.00000
G0 X-55.27402 Y31.64384
G1 Z-2.50000
G1 Z5.00000
G0 X-52.73402 Y31.64384
G1 Z-2.50000
G1 Z5.00000
G0 X-50.19402 Y31.64384
G1 Z-2.50000
G1 Z5.00000
G0 X-47.65402 Y31.64384
G1 Z-2.50000
G1 Z5.00000
G0 X-45.11402 Y31.64384
G1 Z-2.50000
G1 Z5.00000
G0 X-42.57402 Y31.64384
G1 Z-2.50000
G1 Z5.00000
G0 X-40.03402 Y31.64384
G1 Z-2.50000
G1 Z5.00000
G0 X-37.49402 Y31.64384
G1 Z-2.50000
G1 Z5.00000
G0 X-34.95402 Y31.64384
G1 Z-2.50000
G1 Z5.00000
G0 X-32.41402 Y31.64384
G1 Z-2.50000
G1 Z5.00000
G0 X-29.87402 Y31.64384
G1 Z-2.50000
G1 Z5.00000
G0 X-27.33402 Y31.64384
G1 Z-2.50000
G1 Z5.00000
G0 X-24.79402 Y31.64384
G1 Z-2.50000
G1 Z5.00000
G0 X-22.25402 Y31.64384
G1 Z-2.50000
G1 Z5.00000
G0 X-19.71402 Y31.64384
G1 Z-2.50000
G1 Z5.00000
G0 X-17.17402 Y31.64384
G1 Z-2.50000
G1 Z5.00000
G0 X-14.63402 Y31.64384
G1 Z-2.50000
G1 Z5.00000
G0 X-12.09402 Y31.64384
G1 Z-2.50000
G1 Z5.00000
G0 X-9.55402 Y31.64384
G1 Z-2.50000
G1 Z5.00000
G0 X-7.01402 Y31.64384
G1 Z-2.50000
G1 Z5.00000
G0 X-7.01402 Y16.40384
G1 Z-2.50000
G1 Z5.00000
G0 X-9.55402 Y16.40384
G1 Z-2.50000
G1 Z5.00000
G0 X-12.09402 Y16.40384
G1 Z-2.50000
G1 Z5.00000
G0 X-14.63402 Y16.40384
G1 Z-2.50000
G1 Z5.00000
G0 X-17.17402 Y16.40384
G1 Z-2.50000
G1 Z5.00000
G0 X-19.71402 Y16.40384
G1 Z-2.50000
G1 Z5.00000
G0 X-22.25402 Y16.40384
G1 Z-2.50000
G1 Z5.00000
G0 X-24.79402 Y16.40384
G1 Z-2.50000
G1 Z5.00000
G0 X-27.33402 Y16.40384
G1 Z-2.50000
G1 Z5.00000
G0 X-29.87402 Y16.40384
G1 Z-2.50000
G1 Z5.00000
G0 X-32.41402 Y16.40384
G1 Z-2.50000
G1 Z5.00000
G0 X-34.95402 Y16.40384
G1 Z-2.50000
G1 Z5.00000
G0 X-37.49402 Y16.40384
G1 Z-2.50000
G1 Z5.00000
G0 X-40.03402 Y16.40384
G1 Z-2.50000
G1 Z5.00000
G0 X-42.57402 Y16.40384
G1 Z-2.50000
G1 Z5.00000
G0 X-45.11402 Y16.40384
G1 Z-2.50000
G1 Z5.00000
G0 X-47.65402 Y16.40384
G1 Z-2.50000
G1 Z5.00000
G0 X-50.19402 Y16.40384
G1 Z-2.50000
G1 Z5.00000
G0 X-52.73402 Y16.40384
G1 Z-2.50000
G1 Z5.00000
G0 X-55.27402 Y16.40384
G1 Z-2.50000
G1 Z5.00000
G0 X-57.81402 Y16.40384
G1 Z-2.50000
G1 Z5.00000
G0 X-60.35402 Y16.40384
G1 Z-2.50000
G1 Z5.00000
G0 X-62.89402 Y16.40384
G1 Z-2.50000
G1 Z5.00000
G0 X-65.43402 Y16.40384
G1 Z-2.50000
G1 Z5.00000

G00 Z30.000 ( All done -- retract )

M5      (Spindle off.)
G04 P1.000000
M9      (Coolant off.)
M2      (Program end.)

