( pcb2gcode 2.5.0 )
( Software-independent Gcode )

G94 ( Millimeters per minute feed rate. )
G21 ( Units == Millimeters. )

G90 ( Absolute coordinates. )
G00 S10000 ( RPM spindle speed. )
G01 F100.00000 ( Feedrate. )


G00 Z30.00000 (Retract to tool change height)
T1
M5      (Spindle stop.)
G04 P1.00000 (Wait for spindle to stop)
(MSG, Change tool bit to cutter diameter 1.00000mm)
;M6      (Tool change.)
M0      (Temporary machine stop.)
M3 ( Spindle on clockwise. )
G04 P1.00000 (Wait for spindle to get up to speed)
G04 P0 ( dwell for no time -- G64 should not smooth over this point )
G00 Z5.00000 ( retract )

G00 X-0.52495 Y1.02500 ( rapid move to begin. )
G01 Z-0.50000 F60.00000 ( plunge. )
G04 P0 ( dwell for no time -- G64 should not smooth over this point )
G01 F100.00000
G01 X-0.52495 Y23.27501
G01 X-0.52495 Y24.77501
G01 X-0.52495 Y47.02501
G01 X-0.53458 Y47.12257
G01 X-0.56303 Y47.21638
G01 X-0.60923 Y47.30281
G01 X-0.67141 Y47.37858
G01 X-0.74718 Y47.44076
G01 X-0.83362 Y47.48696
G01 X-0.92742 Y47.51541
G01 X-1.02498 Y47.52504
G01 X-67.52500 Y47.52504
G01 X-67.62253 Y47.51541
G01 X-67.71634 Y47.48696
G01 X-67.80277 Y47.44076
G01 X-67.87854 Y47.37858
G01 X-67.94072 Y47.30281
G01 X-67.98692 Y47.21638
G01 X-68.01537 Y47.12257
G01 X-68.02500 Y47.02501
G01 X-68.02500 Y24.77501
G01 X-68.02500 Y23.27501
G01 X-68.02500 Y1.02500
G01 X-68.01537 Y0.92747
G01 X-67.98692 Y0.83367
G01 X-67.94072 Y0.74723
G01 X-67.87854 Y0.67146
G01 X-67.80277 Y0.60928
G01 X-67.71634 Y0.56308
G01 X-67.62253 Y0.53463
G01 X-67.52500 Y0.52500
G01 X-1.02498 Y0.52500
G01 X-0.92742 Y0.53463
G01 X-0.83362 Y0.56308
G01 X-0.74718 Y0.60928
G01 X-0.67141 Y0.67146
G01 X-0.60923 Y0.74723
G01 X-0.56303 Y0.83367
G01 X-0.53458 Y0.92747
G01 X-0.52495 Y1.02500
G01 Z-1.00000 F60.00000 ( plunge. )
G04 P0 ( dwell for no time -- G64 should not smooth over this point )
G01 F100.00000
G01 X-0.52495 Y23.27501
G00 Z-0.60000
G01 X-0.52495 Y24.77501
G01 Z-1.00000 F60.00000
G01 F100.00000
G01 X-0.52495 Y47.02501
G01 X-0.53458 Y47.12257
G01 X-0.56303 Y47.21638
G01 X-0.60923 Y47.30281
G01 X-0.67141 Y47.37858
G01 X-0.74718 Y47.44076
G01 X-0.83362 Y47.48696
G01 X-0.92742 Y47.51541
G01 X-1.02498 Y47.52504
G01 X-67.52500 Y47.52504
G01 X-67.62253 Y47.51541
G01 X-67.71634 Y47.48696
G01 X-67.80277 Y47.44076
G01 X-67.87854 Y47.37858
G01 X-67.94072 Y47.30281
G01 X-67.98692 Y47.21638
G01 X-68.01537 Y47.12257
G01 X-68.02500 Y47.02501
G01 X-68.02500 Y24.77501
G00 Z-0.60000
G01 X-68.02500 Y23.27501
G01 Z-1.00000 F60.00000
G01 F100.00000
G01 X-68.02500 Y1.02500
G01 X-68.01537 Y0.92747
G01 X-67.98692 Y0.83367
G01 X-67.94072 Y0.74723
G01 X-67.87854 Y0.67146
G01 X-67.80277 Y0.60928
G01 X-67.71634 Y0.56308
G01 X-67.62253 Y0.53463
G01 X-67.52500 Y0.52500
G01 X-1.02498 Y0.52500
G01 X-0.92742 Y0.53463
G01 X-0.83362 Y0.56308
G01 X-0.74718 Y0.60928
G01 X-0.67141 Y0.67146
G01 X-0.60923 Y0.74723
G01 X-0.56303 Y0.83367
G01 X-0.53458 Y0.92747
G01 X-0.52495 Y1.02500
G01 Z-1.50000 F60.00000 ( plunge. )
G04 P0 ( dwell for no time -- G64 should not smooth over this point )
G01 F100.00000
G01 X-0.52495 Y23.27501
G00 Z-0.60000
G01 X-0.52495 Y24.77501
G01 Z-1.50000 F60.00000
G01 F100.00000
G01 X-0.52495 Y47.02501
G01 X-0.53458 Y47.12257
G01 X-0.56303 Y47.21638
G01 X-0.60923 Y47.30281
G01 X-0.67141 Y47.37858
G01 X-0.74718 Y47.44076
G01 X-0.83362 Y47.48696
G01 X-0.92742 Y47.51541
G01 X-1.02498 Y47.52504
G01 X-67.52500 Y47.52504
G01 X-67.62253 Y47.51541
G01 X-67.71634 Y47.48696
G01 X-67.80277 Y47.44076
G01 X-67.87854 Y47.37858
G01 X-67.94072 Y47.30281
G01 X-67.98692 Y47.21638
G01 X-68.01537 Y47.12257
G01 X-68.02500 Y47.02501
G01 X-68.02500 Y24.77501
G00 Z-0.60000
G01 X-68.02500 Y23.27501
G01 Z-1.50000 F60.00000
G01 F100.00000
G01 X-68.02500 Y1.02500
G01 X-68.01537 Y0.92747
G01 X-67.98692 Y0.83367
G01 X-67.94072 Y0.74723
G01 X-67.87854 Y0.67146
G01 X-67.80277 Y0.60928
G01 X-67.71634 Y0.56308
G01 X-67.62253 Y0.53463
G01 X-67.52500 Y0.52500
G01 X-1.02498 Y0.52500
G01 X-0.92742 Y0.53463
G01 X-0.83362 Y0.56308
G01 X-0.74718 Y0.60928
G01 X-0.67141 Y0.67146
G01 X-0.60923 Y0.74723
G01 X-0.56303 Y0.83367
G01 X-0.53458 Y0.92747
G01 X-0.52495 Y1.02500
G01 Z-2.00000 F60.00000 ( plunge. )
G04 P0 ( dwell for no time -- G64 should not smooth over this point )
G01 F100.00000
G01 X-0.52495 Y23.27501
G00 Z-0.60000
G01 X-0.52495 Y24.77501
G01 Z-2.00000 F60.00000
G01 F100.00000
G01 X-0.52495 Y47.02501
G01 X-0.53458 Y47.12257
G01 X-0.56303 Y47.21638
G01 X-0.60923 Y47.30281
G01 X-0.67141 Y47.37858
G01 X-0.74718 Y47.44076
G01 X-0.83362 Y47.48696
G01 X-0.92742 Y47.51541
G01 X-1.02498 Y47.52504
G01 X-67.52500 Y47.52504
G01 X-67.62253 Y47.51541
G01 X-67.71634 Y47.48696
G01 X-67.80277 Y47.44076
G01 X-67.87854 Y47.37858
G01 X-67.94072 Y47.30281
G01 X-67.98692 Y47.21638
G01 X-68.01537 Y47.12257
G01 X-68.02500 Y47.02501
G01 X-68.02500 Y24.77501
G00 Z-0.60000
G01 X-68.02500 Y23.27501
G01 Z-2.00000 F60.00000
G01 F100.00000
G01 X-68.02500 Y1.02500
G01 X-68.01537 Y0.92747
G01 X-67.98692 Y0.83367
G01 X-67.94072 Y0.74723
G01 X-67.87854 Y0.67146
G01 X-67.80277 Y0.60928
G01 X-67.71634 Y0.56308
G01 X-67.62253 Y0.53463
G01 X-67.52500 Y0.52500
G01 X-1.02498 Y0.52500
G01 X-0.92742 Y0.53463
G01 X-0.83362 Y0.56308
G01 X-0.74718 Y0.60928
G01 X-0.67141 Y0.67146
G01 X-0.60923 Y0.74723
G01 X-0.56303 Y0.83367
G01 X-0.53458 Y0.92747
G01 X-0.52495 Y1.02500

G04 P0 ( dwell for no time -- G64 should not smooth over this point )
G00 Z30.000000 ( retract )

M5 ( Spindle off. )
G04 P1.000000
M9 ( Coolant off. )
M2 ( Program end. )

