( pcb2gcode 2.5.0 )
( Software-independent Gcode )

( This file uses 2 drill bit sizes. )
( Bit sizes: [0.8001mm] [1.00076mm] )

G94       (Millimeters per minute feed rate.)
G21       (Units == Millimeters.)
G90       (Absolute coordinates.)
G00 S10000     (RPM spindle speed.)

G00 Z30.00000 (Retract)
T1
M5      (Spindle stop.)
G04 P1.00000
(MSG, Change tool bit to drill size 0.8001mm)
M6      (Tool change.)
M0      (Temporary machine stop.)
M3      (Spindle on clockwise.)
G0 Z5.00000
G04 P1.00000

G1 F200.00000
G0 X-18.40624 Y26.96622
G1 Z-2.50000
G1 Z5.00000
G0 X-16.99146 Y28.38100
G1 Z-2.50000
G1 Z5.00000
G0 X-18.40624 Y18.96522
G1 Z-2.50000
G1 Z5.00000
G0 X-16.99146 Y17.55044
G1 Z-2.50000
G1 Z5.00000

G00 Z30.00000 (Retract)
T2
M5      (Spindle stop.)
G04 P1.00000
(MSG, Change tool bit to drill size 1.00076mm)
M6      (Tool change.)
M0      (Temporary machine stop.)
M3      (Spindle on clockwise.)
G0 Z5.00000
G04 P1.00000

G1 F200.00000
G0 X-48.80496 Y29.96596
G1 Z-2.50000
G1 Z5.00000
G0 X-48.80496 Y27.42596
G1 Z-2.50000
G1 Z5.00000
G0 X-48.80496 Y24.88596
G1 Z-2.50000
G1 Z5.00000
G0 X-48.74654 Y21.16486
G1 Z-2.50000
G1 Z5.00000
G0 X-48.74654 Y18.62486
G1 Z-2.50000
G1 Z5.00000
G0 X-48.74654 Y16.08486
G1 Z-2.50000
G1 Z5.00000
G0 X-45.00512 Y21.16486
G1 Z-2.50000
G1 Z5.00000
G0 X-45.00512 Y24.88596
G1 Z-2.50000
G1 Z5.00000
G0 X-41.20528 Y27.42596
G1 Z-2.50000
G1 Z5.00000
G0 X-41.20528 Y24.88596
G1 Z-2.50000
G1 Z5.00000
G0 X-41.20528 Y21.16486
G1 Z-2.50000
G1 Z5.00000
G0 X-41.20528 Y18.62486
G1 Z-2.50000
G1 Z5.00000
G0 X-41.20528 Y16.08486
G1 Z-2.50000
G1 Z5.00000
G0 X-37.40544 Y21.16486
G1 Z-2.50000
G1 Z5.00000
G0 X-37.40544 Y24.88596
G1 Z-2.50000
G1 Z5.00000
G0 X-33.60560 Y27.42596
G1 Z-2.50000
G1 Z5.00000
G0 X-33.60560 Y24.88596
G1 Z-2.50000
G1 Z5.00000
G0 X-33.60560 Y21.16486
G1 Z-2.50000
G1 Z5.00000
G0 X-33.60560 Y18.62486
G1 Z-2.50000
G1 Z5.00000
G0 X-33.60560 Y16.08486
G1 Z-2.50000
G1 Z5.00000
G0 X-29.80576 Y21.16486
G1 Z-2.50000
G1 Z5.00000
G0 X-29.80576 Y24.88596
G1 Z-2.50000
G1 Z5.00000
G0 X-26.00592 Y27.42596
G1 Z-2.50000
G1 Z5.00000
G0 X-26.00592 Y24.88596
G1 Z-2.50000
G1 Z5.00000
G0 X-26.00592 Y21.16486
G1 Z-2.50000
G1 Z5.00000
G0 X-26.00592 Y18.62486
G1 Z-2.50000
G1 Z5.00000
G0 X-26.00592 Y16.08486
G1 Z-2.50000
G1 Z5.00000
G0 X-22.20608 Y21.16486
G1 Z-2.50000
G1 Z5.00000
G0 X-15.91450 Y22.99112
G1 Z-2.50000
G1 Z5.00000
G0 X-18.45450 Y22.99112
G1 Z-2.50000
G1 Z5.00000
G0 X-22.20608 Y24.88596
G1 Z-2.50000
G1 Z5.00000
G0 X-26.00592 Y29.96596
G1 Z-2.50000
G1 Z5.00000
G0 X-29.77528 Y29.92532
G1 Z-2.50000
G1 Z5.00000
G0 X-33.60560 Y29.96596
G1 Z-2.50000
G1 Z5.00000
G0 X-41.20528 Y29.96596
G1 Z-2.50000
G1 Z5.00000

G00 Z30.000 ( All done -- retract )

M5      (Spindle off.)
G04 P1.000000
M9      (Coolant off.)
M2      (Program end.)

