( pcb2gcode 2.5.0 )
( Software-independent Gcode )

G94 ( Millimeters per minute feed rate. )
G21 ( Units == Millimeters. )

G90 ( Absolute coordinates. )
G00 S10000 ( RPM spindle speed. )
G01 F100.00000 ( Feedrate. )


G00 Z30.00000 (Retract to tool change height)
T1
M5      (Spindle stop.)
G04 P1.00000 (Wait for spindle to stop)
(MSG, Change tool bit to cutter diameter 1.00000mm)
M6      (Tool change.)
M0      (Temporary machine stop.)
M3 ( Spindle on clockwise. )
G04 P1.00000 (Wait for spindle to get up to speed)
G04 P0 ( dwell for no time -- G64 should not smooth over this point )
G00 Z5.00000 ( retract )

G00 X-0.52497 Y1.02501 ( rapid move to begin. )
G01 Z-0.50000 F60.00000 ( plunge. )
G04 P0 ( dwell for no time -- G64 should not smooth over this point )
G01 F100.00000
G01 X-0.52497 Y7.27501
G01 X-0.52497 Y8.77501
G01 X-0.52497 Y15.02501
G01 X-0.53460 Y15.12257
G01 X-0.56305 Y15.21637
G01 X-0.60925 Y15.30281
G01 X-0.67143 Y15.37858
G01 X-0.74720 Y15.44076
G01 X-0.83363 Y15.48696
G01 X-0.92743 Y15.51541
G01 X-1.02500 Y15.52503
G01 X-22.02498 Y15.52503
G01 X-22.12251 Y15.51541
G01 X-22.21632 Y15.48696
G01 X-22.30275 Y15.44076
G01 X-22.37852 Y15.37858
G01 X-22.44070 Y15.30281
G01 X-22.48690 Y15.21637
G01 X-22.51535 Y15.12257
G01 X-22.52498 Y15.02501
G01 X-22.52498 Y8.77501
G01 X-22.52498 Y7.27501
G01 X-22.52498 Y1.02501
G01 X-22.51535 Y0.92748
G01 X-22.48690 Y0.83367
G01 X-22.44070 Y0.74724
G01 X-22.37852 Y0.67147
G01 X-22.30275 Y0.60929
G01 X-22.21632 Y0.56309
G01 X-22.12251 Y0.53464
G01 X-22.02498 Y0.52501
G01 X-1.02500 Y0.52501
G01 X-0.92743 Y0.53464
G01 X-0.83363 Y0.56309
G01 X-0.74720 Y0.60929
G01 X-0.67143 Y0.67147
G01 X-0.60925 Y0.74724
G01 X-0.56305 Y0.83367
G01 X-0.53460 Y0.92748
G01 X-0.52497 Y1.02501
G01 Z-1.00000 F60.00000 ( plunge. )
G04 P0 ( dwell for no time -- G64 should not smooth over this point )
G01 F100.00000
G01 X-0.52497 Y7.27501
G00 Z-0.60000
G01 X-0.52497 Y8.77501
G01 Z-1.00000 F60.00000
G01 F100.00000
G01 X-0.52497 Y15.02501
G01 X-0.53460 Y15.12257
G01 X-0.56305 Y15.21637
G01 X-0.60925 Y15.30281
G01 X-0.67143 Y15.37858
G01 X-0.74720 Y15.44076
G01 X-0.83363 Y15.48696
G01 X-0.92743 Y15.51541
G01 X-1.02500 Y15.52503
G01 X-22.02498 Y15.52503
G01 X-22.12251 Y15.51541
G01 X-22.21632 Y15.48696
G01 X-22.30275 Y15.44076
G01 X-22.37852 Y15.37858
G01 X-22.44070 Y15.30281
G01 X-22.48690 Y15.21637
G01 X-22.51535 Y15.12257
G01 X-22.52498 Y15.02501
G01 X-22.52498 Y8.77501
G00 Z-0.60000
G01 X-22.52498 Y7.27501
G01 Z-1.00000 F60.00000
G01 F100.00000
G01 X-22.52498 Y1.02501
G01 X-22.51535 Y0.92748
G01 X-22.48690 Y0.83367
G01 X-22.44070 Y0.74724
G01 X-22.37852 Y0.67147
G01 X-22.30275 Y0.60929
G01 X-22.21632 Y0.56309
G01 X-22.12251 Y0.53464
G01 X-22.02498 Y0.52501
G01 X-1.02500 Y0.52501
G01 X-0.92743 Y0.53464
G01 X-0.83363 Y0.56309
G01 X-0.74720 Y0.60929
G01 X-0.67143 Y0.67147
G01 X-0.60925 Y0.74724
G01 X-0.56305 Y0.83367
G01 X-0.53460 Y0.92748
G01 X-0.52497 Y1.02501
G01 Z-1.50000 F60.00000 ( plunge. )
G04 P0 ( dwell for no time -- G64 should not smooth over this point )
G01 F100.00000
G01 X-0.52497 Y7.27501
G00 Z-0.60000
G01 X-0.52497 Y8.77501
G01 Z-1.50000 F60.00000
G01 F100.00000
G01 X-0.52497 Y15.02501
G01 X-0.53460 Y15.12257
G01 X-0.56305 Y15.21637
G01 X-0.60925 Y15.30281
G01 X-0.67143 Y15.37858
G01 X-0.74720 Y15.44076
G01 X-0.83363 Y15.48696
G01 X-0.92743 Y15.51541
G01 X-1.02500 Y15.52503
G01 X-22.02498 Y15.52503
G01 X-22.12251 Y15.51541
G01 X-22.21632 Y15.48696
G01 X-22.30275 Y15.44076
G01 X-22.37852 Y15.37858
G01 X-22.44070 Y15.30281
G01 X-22.48690 Y15.21637
G01 X-22.51535 Y15.12257
G01 X-22.52498 Y15.02501
G01 X-22.52498 Y8.77501
G00 Z-0.60000
G01 X-22.52498 Y7.27501
G01 Z-1.50000 F60.00000
G01 F100.00000
G01 X-22.52498 Y1.02501
G01 X-22.51535 Y0.92748
G01 X-22.48690 Y0.83367
G01 X-22.44070 Y0.74724
G01 X-22.37852 Y0.67147
G01 X-22.30275 Y0.60929
G01 X-22.21632 Y0.56309
G01 X-22.12251 Y0.53464
G01 X-22.02498 Y0.52501
G01 X-1.02500 Y0.52501
G01 X-0.92743 Y0.53464
G01 X-0.83363 Y0.56309
G01 X-0.74720 Y0.60929
G01 X-0.67143 Y0.67147
G01 X-0.60925 Y0.74724
G01 X-0.56305 Y0.83367
G01 X-0.53460 Y0.92748
G01 X-0.52497 Y1.02501
G01 Z-2.00000 F60.00000 ( plunge. )
G04 P0 ( dwell for no time -- G64 should not smooth over this point )
G01 F100.00000
G01 X-0.52497 Y7.27501
G00 Z-0.60000
G01 X-0.52497 Y8.77501
G01 Z-2.00000 F60.00000
G01 F100.00000
G01 X-0.52497 Y15.02501
G01 X-0.53460 Y15.12257
G01 X-0.56305 Y15.21637
G01 X-0.60925 Y15.30281
G01 X-0.67143 Y15.37858
G01 X-0.74720 Y15.44076
G01 X-0.83363 Y15.48696
G01 X-0.92743 Y15.51541
G01 X-1.02500 Y15.52503
G01 X-22.02498 Y15.52503
G01 X-22.12251 Y15.51541
G01 X-22.21632 Y15.48696
G01 X-22.30275 Y15.44076
G01 X-22.37852 Y15.37858
G01 X-22.44070 Y15.30281
G01 X-22.48690 Y15.21637
G01 X-22.51535 Y15.12257
G01 X-22.52498 Y15.02501
G01 X-22.52498 Y8.77501
G00 Z-0.60000
G01 X-22.52498 Y7.27501
G01 Z-2.00000 F60.00000
G01 F100.00000
G01 X-22.52498 Y1.02501
G01 X-22.51535 Y0.92748
G01 X-22.48690 Y0.83367
G01 X-22.44070 Y0.74724
G01 X-22.37852 Y0.67147
G01 X-22.30275 Y0.60929
G01 X-22.21632 Y0.56309
G01 X-22.12251 Y0.53464
G01 X-22.02498 Y0.52501
G01 X-1.02500 Y0.52501
G01 X-0.92743 Y0.53464
G01 X-0.83363 Y0.56309
G01 X-0.74720 Y0.60929
G01 X-0.67143 Y0.67147
G01 X-0.60925 Y0.74724
G01 X-0.56305 Y0.83367
G01 X-0.53460 Y0.92748
G01 X-0.52497 Y1.02501

G04 P0 ( dwell for no time -- G64 should not smooth over this point )
G00 Z30.000000 ( retract )

M5 ( Spindle off. )
G04 P1.000000
M9 ( Coolant off. )
M2 ( Program end. )

