( pcb2gcode 2.5.0 )
( Software-independent Gcode )

( This file uses 1 drill bit sizes. )
( Bit sizes: [1.00076mm] )

G94       (Millimeters per minute feed rate.)
G21       (Units == Millimeters.)
G90       (Absolute coordinates.)
G00 S10000     (RPM spindle speed.)

G00 Z30.00000 (Retract)
T1
M5      (Spindle stop.)
G04 P1.00000
(MSG, Change tool bit to drill size 1.00076mm)
M6      (Tool change.)
M0      (Temporary machine stop.)
M3      (Spindle on clockwise.)
G0 Z5.00000
G04 P1.00000

G1 F200.00000
G0 X-58.02482 Y43.22572
G1 Z-2.50000
G1 Z5.00000
G0 X-54.42564 Y43.22572
G1 Z-2.50000
G1 Z5.00000
G0 X-50.82392 Y43.22572
G1 Z-2.50000
G1 Z5.00000
G0 X-47.22474 Y43.22572
G1 Z-2.50000
G1 Z5.00000
G0 X-43.62556 Y43.22572
G1 Z-2.50000
G1 Z5.00000
G0 X-40.02384 Y43.22572
G1 Z-2.50000
G1 Z5.00000
G0 X-36.42466 Y43.22572
G1 Z-2.50000
G1 Z5.00000
G0 X-32.82548 Y43.22572
G1 Z-2.50000
G1 Z5.00000
G0 X-29.22376 Y43.22572
G1 Z-2.50000
G1 Z5.00000
G0 X-25.62458 Y43.22572
G1 Z-2.50000
G1 Z5.00000
G0 X-22.02540 Y43.22572
G1 Z-2.50000
G1 Z5.00000
G0 X-18.42622 Y43.22572
G1 Z-2.50000
G1 Z5.00000
G0 X-14.82450 Y43.22572
G1 Z-2.50000
G1 Z5.00000
G0 X-11.22532 Y43.22572
G1 Z-2.50000
G1 Z5.00000
G0 X-18.42622 Y34.12490
G1 Z-2.50000
G1 Z5.00000
G0 X-16.62536 Y26.92400
G1 Z-2.50000
G1 Z5.00000
G0 X-14.82450 Y19.72564
G1 Z-2.50000
G1 Z5.00000
G0 X-13.02618 Y12.52474
G1 Z-2.50000
G1 Z5.00000
G0 X-11.02466 Y5.32384
G1 Z-2.50000
G1 Z5.00000
G0 X-27.42544 Y5.52450
G1 Z-2.50000
G1 Z5.00000
G0 X-29.22376 Y12.72540
G1 Z-2.50000
G1 Z5.00000
G0 X-31.05002 Y19.94916
G1 Z-2.50000
G1 Z5.00000
G0 X-32.82548 Y27.12466
G1 Z-2.50000
G1 Z5.00000
G0 X-34.62380 Y34.32556
G1 Z-2.50000
G1 Z5.00000
G0 X-49.62504 Y27.12466
G1 Z-2.50000
G1 Z5.00000
G0 X-47.82418 Y19.92376
G1 Z-2.50000
G1 Z5.00000
G0 X-57.02406 Y16.22552
G1 Z-2.50000
G1 Z5.00000
G0 X-57.02406 Y12.62380
G1 Z-2.50000
G1 Z5.00000
G0 X-57.02406 Y9.02462
G1 Z-2.50000
G1 Z5.00000
G0 X-57.02406 Y5.42544
G1 Z-2.50000
G1 Z5.00000
G0 X-46.02586 Y12.52474
G1 Z-2.50000
G1 Z5.00000
G0 X-44.22500 Y5.52450
G1 Z-2.50000
G1 Z5.00000

G00 Z30.000 ( All done -- retract )

M5      (Spindle off.)
G04 P1.000000
M9      (Coolant off.)
M2      (Program end.)

