( pcb2gcode 2.5.0 )
( Software-independent Gcode )

( This file uses 1 drill bit sizes. )
( Bit sizes: [1.00076mm] )

G94       (Millimeters per minute feed rate.)
G21       (Units == Millimeters.)
G90       (Absolute coordinates.)
G00 S10000     (RPM spindle speed.)

G00 Z30.00000 (Retract)
T1
M5      (Spindle stop.)
G04 P1.00000
(MSG, Change tool bit to drill size 1.00076mm)
M6      (Tool change.)
M0      (Temporary machine stop.)
M3      (Spindle on clockwise.)
G0 Z5.00000
G04 P1.00000

G1 F200.00000
G0 X-50.02434 Y25.52550
G1 Z-2.50000
G1 Z5.00000
G0 X-50.02434 Y21.72566
G1 Z-2.50000
G1 Z5.00000
G0 X-46.42516 Y21.72566
G1 Z-2.50000
G1 Z5.00000
G0 X-42.82598 Y27.52448
G1 Z-2.50000
G1 Z5.00000
G0 X-35.62508 Y29.52600
G1 Z-2.50000
G1 Z5.00000
G0 X-28.42418 Y31.52498
G1 Z-2.50000
G1 Z5.00000
G0 X-18.62486 Y36.12492
G1 Z-2.50000
G1 Z5.00000
G0 X-18.62486 Y32.52574
G1 Z-2.50000
G1 Z5.00000
G0 X-18.62486 Y28.92402
G1 Z-2.50000
G1 Z5.00000
G0 X-18.62486 Y25.32484
G1 Z-2.50000
G1 Z5.00000
G0 X-18.62486 Y21.72566
G1 Z-2.50000
G1 Z5.00000
G0 X-18.62486 Y18.12394
G1 Z-2.50000
G1 Z5.00000
G0 X-18.62486 Y14.52476
G1 Z-2.50000
G1 Z5.00000
G0 X-18.62486 Y10.92558
G1 Z-2.50000
G1 Z5.00000
G0 X-28.42418 Y16.52374
G1 Z-2.50000
G1 Z5.00000
G0 X-35.62508 Y14.52476
G1 Z-2.50000
G1 Z5.00000
G0 X-42.82598 Y12.52578
G1 Z-2.50000
G1 Z5.00000
G0 X-50.02434 Y10.52426
G1 Z-2.50000
G1 Z5.00000

G00 Z30.000 ( All done -- retract )

M5      (Spindle off.)
G04 P1.000000
M9      (Coolant off.)
M2      (Program end.)

