( pcb2gcode 2.5.0 )
( Software-independent Gcode )

G94 ( Millimeters per minute feed rate. )
G21 ( Units == Millimeters. )

G90 ( Absolute coordinates. )
G00 S10000 ( RPM spindle speed. )
G01 F100.00000 ( Feedrate. )


G00 Z30.00000 (Retract to tool change height)
T1
M5      (Spindle stop.)
G04 P1.00000 (Wait for spindle to stop)
(MSG, Change tool bit to cutter diameter 1.00000mm)
M6      (Tool change.)
M0      (Temporary machine stop.)
M3 ( Spindle on clockwise. )
G04 P1.00000 (Wait for spindle to get up to speed)
G04 P0 ( dwell for no time -- G64 should not smooth over this point )
G00 Z5.00000 ( retract )

G00 X-0.52497 Y1.02502 ( rapid move to begin. )
G01 Z-0.50000 F60.00000 ( plunge. )
G04 P0 ( dwell for no time -- G64 should not smooth over this point )
G01 F100.00000
G01 X-0.52497 Y23.27502
G01 X-0.52497 Y24.77502
G01 X-0.52497 Y47.02503
G01 X-0.53460 Y47.12259
G01 X-0.56305 Y47.21639
G01 X-0.60925 Y47.30282
G01 X-0.67143 Y47.37859
G01 X-0.74720 Y47.44077
G01 X-0.83363 Y47.48697
G01 X-0.92744 Y47.51542
G01 X-1.02500 Y47.52505
G01 X-67.52499 Y47.52505
G01 X-67.62253 Y47.51542
G01 X-67.71633 Y47.48697
G01 X-67.80277 Y47.44077
G01 X-67.87853 Y47.37859
G01 X-67.94071 Y47.30282
G01 X-67.98692 Y47.21639
G01 X-68.01536 Y47.12259
G01 X-68.02499 Y47.02503
G01 X-68.02499 Y24.77502
G01 X-68.02499 Y23.27502
G01 X-68.02499 Y1.02502
G01 X-68.01536 Y0.92748
G01 X-67.98692 Y0.83368
G01 X-67.94071 Y0.74724
G01 X-67.87853 Y0.67147
G01 X-67.80277 Y0.60929
G01 X-67.71633 Y0.56309
G01 X-67.62253 Y0.53464
G01 X-67.52499 Y0.52502
G01 X-1.02500 Y0.52502
G01 X-0.92744 Y0.53464
G01 X-0.83363 Y0.56309
G01 X-0.74720 Y0.60929
G01 X-0.67143 Y0.67147
G01 X-0.60925 Y0.74724
G01 X-0.56305 Y0.83368
G01 X-0.53460 Y0.92748
G01 X-0.52497 Y1.02502
G01 Z-1.00000 F60.00000 ( plunge. )
G04 P0 ( dwell for no time -- G64 should not smooth over this point )
G01 F100.00000
G01 X-0.52497 Y23.27502
G00 Z-0.60000
G01 X-0.52497 Y24.77502
G01 Z-1.00000 F60.00000
G01 F100.00000
G01 X-0.52497 Y47.02503
G01 X-0.53460 Y47.12259
G01 X-0.56305 Y47.21639
G01 X-0.60925 Y47.30282
G01 X-0.67143 Y47.37859
G01 X-0.74720 Y47.44077
G01 X-0.83363 Y47.48697
G01 X-0.92744 Y47.51542
G01 X-1.02500 Y47.52505
G01 X-67.52499 Y47.52505
G01 X-67.62253 Y47.51542
G01 X-67.71633 Y47.48697
G01 X-67.80277 Y47.44077
G01 X-67.87853 Y47.37859
G01 X-67.94071 Y47.30282
G01 X-67.98692 Y47.21639
G01 X-68.01536 Y47.12259
G01 X-68.02499 Y47.02503
G01 X-68.02499 Y24.77502
G00 Z-0.60000
G01 X-68.02499 Y23.27502
G01 Z-1.00000 F60.00000
G01 F100.00000
G01 X-68.02499 Y1.02502
G01 X-68.01536 Y0.92748
G01 X-67.98692 Y0.83368
G01 X-67.94071 Y0.74724
G01 X-67.87853 Y0.67147
G01 X-67.80277 Y0.60929
G01 X-67.71633 Y0.56309
G01 X-67.62253 Y0.53464
G01 X-67.52499 Y0.52502
G01 X-1.02500 Y0.52502
G01 X-0.92744 Y0.53464
G01 X-0.83363 Y0.56309
G01 X-0.74720 Y0.60929
G01 X-0.67143 Y0.67147
G01 X-0.60925 Y0.74724
G01 X-0.56305 Y0.83368
G01 X-0.53460 Y0.92748
G01 X-0.52497 Y1.02502
G01 Z-1.50000 F60.00000 ( plunge. )
G04 P0 ( dwell for no time -- G64 should not smooth over this point )
G01 F100.00000
G01 X-0.52497 Y23.27502
G00 Z-0.60000
G01 X-0.52497 Y24.77502
G01 Z-1.50000 F60.00000
G01 F100.00000
G01 X-0.52497 Y47.02503
G01 X-0.53460 Y47.12259
G01 X-0.56305 Y47.21639
G01 X-0.60925 Y47.30282
G01 X-0.67143 Y47.37859
G01 X-0.74720 Y47.44077
G01 X-0.83363 Y47.48697
G01 X-0.92744 Y47.51542
G01 X-1.02500 Y47.52505
G01 X-67.52499 Y47.52505
G01 X-67.62253 Y47.51542
G01 X-67.71633 Y47.48697
G01 X-67.80277 Y47.44077
G01 X-67.87853 Y47.37859
G01 X-67.94071 Y47.30282
G01 X-67.98692 Y47.21639
G01 X-68.01536 Y47.12259
G01 X-68.02499 Y47.02503
G01 X-68.02499 Y24.77502
G00 Z-0.60000
G01 X-68.02499 Y23.27502
G01 Z-1.50000 F60.00000
G01 F100.00000
G01 X-68.02499 Y1.02502
G01 X-68.01536 Y0.92748
G01 X-67.98692 Y0.83368
G01 X-67.94071 Y0.74724
G01 X-67.87853 Y0.67147
G01 X-67.80277 Y0.60929
G01 X-67.71633 Y0.56309
G01 X-67.62253 Y0.53464
G01 X-67.52499 Y0.52502
G01 X-1.02500 Y0.52502
G01 X-0.92744 Y0.53464
G01 X-0.83363 Y0.56309
G01 X-0.74720 Y0.60929
G01 X-0.67143 Y0.67147
G01 X-0.60925 Y0.74724
G01 X-0.56305 Y0.83368
G01 X-0.53460 Y0.92748
G01 X-0.52497 Y1.02502
G01 Z-2.00000 F60.00000 ( plunge. )
G04 P0 ( dwell for no time -- G64 should not smooth over this point )
G01 F100.00000
G01 X-0.52497 Y23.27502
G00 Z-0.60000
G01 X-0.52497 Y24.77502
G01 Z-2.00000 F60.00000
G01 F100.00000
G01 X-0.52497 Y47.02503
G01 X-0.53460 Y47.12259
G01 X-0.56305 Y47.21639
G01 X-0.60925 Y47.30282
G01 X-0.67143 Y47.37859
G01 X-0.74720 Y47.44077
G01 X-0.83363 Y47.48697
G01 X-0.92744 Y47.51542
G01 X-1.02500 Y47.52505
G01 X-67.52499 Y47.52505
G01 X-67.62253 Y47.51542
G01 X-67.71633 Y47.48697
G01 X-67.80277 Y47.44077
G01 X-67.87853 Y47.37859
G01 X-67.94071 Y47.30282
G01 X-67.98692 Y47.21639
G01 X-68.01536 Y47.12259
G01 X-68.02499 Y47.02503
G01 X-68.02499 Y24.77502
G00 Z-0.60000
G01 X-68.02499 Y23.27502
G01 Z-2.00000 F60.00000
G01 F100.00000
G01 X-68.02499 Y1.02502
G01 X-68.01536 Y0.92748
G01 X-67.98692 Y0.83368
G01 X-67.94071 Y0.74724
G01 X-67.87853 Y0.67147
G01 X-67.80277 Y0.60929
G01 X-67.71633 Y0.56309
G01 X-67.62253 Y0.53464
G01 X-67.52499 Y0.52502
G01 X-1.02500 Y0.52502
G01 X-0.92744 Y0.53464
G01 X-0.83363 Y0.56309
G01 X-0.74720 Y0.60929
G01 X-0.67143 Y0.67147
G01 X-0.60925 Y0.74724
G01 X-0.56305 Y0.83368
G01 X-0.53460 Y0.92748
G01 X-0.52497 Y1.02502

G04 P0 ( dwell for no time -- G64 should not smooth over this point )
G00 Z30.000000 ( retract )

M5 ( Spindle off. )
G04 P1.000000
M9 ( Coolant off. )
M2 ( Program end. )

