( pcb2gcode 2.5.0 )
( Software-independent Gcode )
( This file uses a mill head of 1.00000mm to drill the 4 hole sizes. )
( Hole sizes: [0.8001mm] [1.00076mm] [1.19888mm] [1.30048mm] )

G94       (Millimeters per minute feed rate.)
G21       (Units == Millimeters.)
G90       (Absolute coordinates.)
S10000    (RPM spindle speed.)

G01 F100.00000 (Feedrate)
G00 Z30.00000 (Retract to tool change height)
T1
M5        (Spindle stop.)
G04 P1.00000
(MSG, Change tool bit to drill size 1.00000mm)
M6        (Tool change.)
M0        (Temporary machine stop.)
M3        (Spindle on clockwise.)
G04 P1.00000
G00 Z5.00000

G0 X-30.67532 Y37.13566
G1 Z-2.50000 F60.00000
G1 Z5.00000 F60.00000

G0 X-30.67532 Y35.22558
G1 Z-2.50000 F60.00000
G1 Z5.00000 F60.00000

G0 X-30.67532 Y33.31550
G1 Z-2.50000 F60.00000
G1 Z5.00000 F60.00000

G0 X-34.05098 Y43.52376
G1 Z-2.50000 F60.00000
G1 Z5.00000 F60.00000

G0 X-31.51098 Y43.52376
G1 Z-2.50000 F60.00000
G1 Z5.00000 F60.00000

G0 X-28.97098 Y43.52376
G1 Z-2.50000 F60.00000
G1 Z5.00000 F60.00000

G0 X-15.42478 Y35.02492
G1 Z0.50000 F60.00000
G1 F100.00000
G2 X-15.42478 Y35.02492 Z-0.00000 I-0.09944 J0.00000
G2 X-15.42478 Y35.02492 Z-0.50000 I-0.09944 J0.00000
G2 X-15.42478 Y35.02492 Z-1.00000 I-0.09944 J0.00000
G2 X-15.42478 Y35.02492 Z-1.50000 I-0.09944 J0.00000
G2 X-15.42478 Y35.02492 Z-2.00000 I-0.09944 J0.00000
G2 X-15.42478 Y35.02492 Z-2.50000 I-0.09944 J0.00000
G2 X-15.42478 Y35.02492 I-0.09944 J0.00000
G1 Z5.00000 F60.00000

G0 X-15.42478 Y27.52430
G1 Z0.50000 F60.00000
G1 F100.00000
G2 X-15.42478 Y27.52430 Z-0.00000 I-0.09944 J0.00000
G2 X-15.42478 Y27.52430 Z-0.50000 I-0.09944 J0.00000
G2 X-15.42478 Y27.52430 Z-1.00000 I-0.09944 J0.00000
G2 X-15.42478 Y27.52430 Z-1.50000 I-0.09944 J0.00000
G2 X-15.42478 Y27.52430 Z-2.00000 I-0.09944 J0.00000
G2 X-15.42478 Y27.52430 Z-2.50000 I-0.09944 J0.00000
G2 X-15.42478 Y27.52430 I-0.09944 J0.00000
G1 Z5.00000 F60.00000

G0 X-54.95480 Y10.02624
G1 Z0.50000 F60.00000
G1 F100.00000
G2 X-54.95480 Y10.02624 Z-0.00000 I-0.15024 J0.00000
G2 X-54.95480 Y10.02624 Z-0.50000 I-0.15024 J0.00000
G2 X-54.95480 Y10.02624 Z-1.00000 I-0.15024 J0.00000
G2 X-54.95480 Y10.02624 Z-1.50000 I-0.15024 J0.00000
G2 X-54.95480 Y10.02624 Z-2.00000 I-0.15024 J0.00000
G2 X-54.95480 Y10.02624 Z-2.50000 I-0.15024 J0.00000
G2 X-54.95480 Y10.02624 I-0.15024 J0.00000
G1 Z5.00000 F60.00000

G0 X-49.87480 Y10.02624
G1 Z0.50000 F60.00000
G1 F100.00000
G2 X-49.87480 Y10.02624 Z-0.00000 I-0.15024 J0.00000
G2 X-49.87480 Y10.02624 Z-0.50000 I-0.15024 J0.00000
G2 X-49.87480 Y10.02624 Z-1.00000 I-0.15024 J0.00000
G2 X-49.87480 Y10.02624 Z-1.50000 I-0.15024 J0.00000
G2 X-49.87480 Y10.02624 Z-2.00000 I-0.15024 J0.00000
G2 X-49.87480 Y10.02624 Z-2.50000 I-0.15024 J0.00000
G2 X-49.87480 Y10.02624 I-0.15024 J0.00000
G1 Z5.00000 F60.00000

G0 X-42.95584 Y10.02624
G1 Z0.50000 F60.00000
G1 F100.00000
G2 X-42.95584 Y10.02624 Z-0.00000 I-0.15024 J0.00000
G2 X-42.95584 Y10.02624 Z-0.50000 I-0.15024 J0.00000
G2 X-42.95584 Y10.02624 Z-1.00000 I-0.15024 J0.00000
G2 X-42.95584 Y10.02624 Z-1.50000 I-0.15024 J0.00000
G2 X-42.95584 Y10.02624 Z-2.00000 I-0.15024 J0.00000
G2 X-42.95584 Y10.02624 Z-2.50000 I-0.15024 J0.00000
G2 X-42.95584 Y10.02624 I-0.15024 J0.00000
G1 Z5.00000 F60.00000

G0 X-37.87584 Y10.02624
G1 Z0.50000 F60.00000
G1 F100.00000
G2 X-37.87584 Y10.02624 Z-0.00000 I-0.15024 J0.00000
G2 X-37.87584 Y10.02624 Z-0.50000 I-0.15024 J0.00000
G2 X-37.87584 Y10.02624 Z-1.00000 I-0.15024 J0.00000
G2 X-37.87584 Y10.02624 Z-1.50000 I-0.15024 J0.00000
G2 X-37.87584 Y10.02624 Z-2.00000 I-0.15024 J0.00000
G2 X-37.87584 Y10.02624 Z-2.50000 I-0.15024 J0.00000
G2 X-37.87584 Y10.02624 I-0.15024 J0.00000
G1 Z5.00000 F60.00000

G0 X-29.95358 Y10.02624
G1 Z0.50000 F60.00000
G1 F100.00000
G2 X-29.95358 Y10.02624 Z-0.00000 I-0.15024 J0.00000
G2 X-29.95358 Y10.02624 Z-0.50000 I-0.15024 J0.00000
G2 X-29.95358 Y10.02624 Z-1.00000 I-0.15024 J0.00000
G2 X-29.95358 Y10.02624 Z-1.50000 I-0.15024 J0.00000
G2 X-29.95358 Y10.02624 Z-2.00000 I-0.15024 J0.00000
G2 X-29.95358 Y10.02624 Z-2.50000 I-0.15024 J0.00000
G2 X-29.95358 Y10.02624 I-0.15024 J0.00000
G1 Z5.00000 F60.00000

G0 X-24.87358 Y10.02624
G1 Z0.50000 F60.00000
G1 F100.00000
G2 X-24.87358 Y10.02624 Z-0.00000 I-0.15024 J0.00000
G2 X-24.87358 Y10.02624 Z-0.50000 I-0.15024 J0.00000
G2 X-24.87358 Y10.02624 Z-1.00000 I-0.15024 J0.00000
G2 X-24.87358 Y10.02624 Z-1.50000 I-0.15024 J0.00000
G2 X-24.87358 Y10.02624 Z-2.00000 I-0.15024 J0.00000
G2 X-24.87358 Y10.02624 Z-2.50000 I-0.15024 J0.00000
G2 X-24.87358 Y10.02624 I-0.15024 J0.00000
G1 Z5.00000 F60.00000

G0 X-17.95462 Y10.02624
G1 Z0.50000 F60.00000
G1 F100.00000
G2 X-17.95462 Y10.02624 Z-0.00000 I-0.15024 J0.00000
G2 X-17.95462 Y10.02624 Z-0.50000 I-0.15024 J0.00000
G2 X-17.95462 Y10.02624 Z-1.00000 I-0.15024 J0.00000
G2 X-17.95462 Y10.02624 Z-1.50000 I-0.15024 J0.00000
G2 X-17.95462 Y10.02624 Z-2.00000 I-0.15024 J0.00000
G2 X-17.95462 Y10.02624 Z-2.50000 I-0.15024 J0.00000
G2 X-17.95462 Y10.02624 I-0.15024 J0.00000
G1 Z5.00000 F60.00000

G0 X-12.87462 Y10.02624
G1 Z0.50000 F60.00000
G1 F100.00000
G2 X-12.87462 Y10.02624 Z-0.00000 I-0.15024 J0.00000
G2 X-12.87462 Y10.02624 Z-0.50000 I-0.15024 J0.00000
G2 X-12.87462 Y10.02624 Z-1.00000 I-0.15024 J0.00000
G2 X-12.87462 Y10.02624 Z-1.50000 I-0.15024 J0.00000
G2 X-12.87462 Y10.02624 Z-2.00000 I-0.15024 J0.00000
G2 X-12.87462 Y10.02624 Z-2.50000 I-0.15024 J0.00000
G2 X-12.87462 Y10.02624 I-0.15024 J0.00000
G1 Z5.00000 F60.00000

G00 Z30.000000 ( All done -- retract )

M5      (Spindle off.)
G04 P1.000000
M9      (Coolant off.)
M2      (Program end.)

