( pcb2gcode 2.5.0 )
( Software-independent Gcode )

G94 ( Millimeters per minute feed rate. )
G21 ( Units == Millimeters. )

G90 ( Absolute coordinates. )
G00 S10000 ( RPM spindle speed. )
G01 F100.00000 ( Feedrate. )


G00 Z30.00000 (Retract to tool change height)
T1
M5      (Spindle stop.)
G04 P1.00000 (Wait for spindle to stop)
(MSG, Change tool bit to cutter diameter 1.00000mm)
;M6      (Tool change.)
M0      (Temporary machine stop.)
M3 ( Spindle on clockwise. )
G04 P1.00000 (Wait for spindle to get up to speed)
G04 P0 ( dwell for no time -- G64 should not smooth over this point )
G00 Z5.00000 ( retract )

G00 X-3.77741 Y27.52504 ( rapid move to begin. )
G01 Z-0.50000 F60.00000 ( plunge. )
G04 P0 ( dwell for no time -- G64 should not smooth over this point )
G01 F100.00000
G01 X-3.80138 Y27.28163
G01 X-3.87235 Y27.04759
G01 X-3.98767 Y26.83190
G01 X-4.14278 Y26.64284
G01 X-4.24992 Y26.55494
G01 X-4.33184 Y26.48773
G01 X-4.54756 Y26.37241
G01 X-4.78159 Y26.30142
G01 X-5.02498 Y26.27744
G01 X-5.26836 Y26.30142
G01 X-5.50237 Y26.37241
G01 X-5.71809 Y26.48770
G01 X-5.90714 Y26.64284
G01 X-6.06231 Y26.83192
G01 X-6.17758 Y27.04759
G01 X-6.20835 Y27.14903
G01 X-6.24857 Y27.28163
G01 X-6.27255 Y27.52504
G01 X-6.24857 Y27.76842
G01 X-6.17758 Y28.00246
G01 X-6.06231 Y28.21815
G01 X-5.90712 Y28.40720
G01 X-5.80001 Y28.49511
G01 X-5.71809 Y28.56235
G01 X-5.50240 Y28.67764
G01 X-5.26836 Y28.74863
G01 X-5.02498 Y28.77261
G01 X-4.78157 Y28.74863
G01 X-4.54756 Y28.67764
G01 X-4.33184 Y28.56232
G01 X-4.14278 Y28.40720
G01 X-3.98764 Y28.21815
G01 X-3.87238 Y28.00248
G01 X-3.84160 Y27.90103
G01 X-3.80138 Y27.76842
G01 X-3.77741 Y27.52504
G01 Z-1.00000 F60.00000 ( plunge. )
G04 P0 ( dwell for no time -- G64 should not smooth over this point )
G01 F100.00000
G00 Z-0.60000
G01 X-3.80138 Y27.28163
G01 X-3.87235 Y27.04759
G01 X-3.98767 Y26.83190
G01 X-4.14278 Y26.64284
G01 X-4.24992 Y26.55494
G01 Z-1.00000 F60.00000
G01 F100.00000
G01 X-4.33184 Y26.48773
G01 X-4.54756 Y26.37241
G01 X-4.78159 Y26.30142
G01 X-5.02498 Y26.27744
G01 X-5.26836 Y26.30142
G01 X-5.50237 Y26.37241
G01 X-5.71809 Y26.48770
G01 X-5.90714 Y26.64284
G01 X-6.06231 Y26.83192
G01 X-6.17758 Y27.04759
G01 X-6.20835 Y27.14903
G00 Z-0.60000
G01 X-6.24857 Y27.28163
G01 X-6.27255 Y27.52504
G01 X-6.24857 Y27.76842
G01 X-6.17758 Y28.00246
G01 X-6.06231 Y28.21815
G01 X-5.90712 Y28.40720
G01 X-5.80001 Y28.49511
G01 Z-1.00000 F60.00000
G01 F100.00000
G01 X-5.71809 Y28.56235
G01 X-5.50240 Y28.67764
G01 X-5.26836 Y28.74863
G01 X-5.02498 Y28.77261
G01 X-4.78157 Y28.74863
G01 X-4.54756 Y28.67764
G01 X-4.33184 Y28.56232
G01 X-4.14278 Y28.40720
G01 X-3.98764 Y28.21815
G01 X-3.87238 Y28.00248
G01 X-3.84160 Y27.90103
G00 Z-0.60000
G01 X-3.80138 Y27.76842
G01 X-3.77741 Y27.52504
G01 Z-1.50000 F60.00000 ( plunge. )
G04 P0 ( dwell for no time -- G64 should not smooth over this point )
G01 F100.00000
G00 Z-0.60000
G01 X-3.80138 Y27.28163
G01 X-3.87235 Y27.04759
G01 X-3.98767 Y26.83190
G01 X-4.14278 Y26.64284
G01 X-4.24992 Y26.55494
G01 Z-1.50000 F60.00000
G01 F100.00000
G01 X-4.33184 Y26.48773
G01 X-4.54756 Y26.37241
G01 X-4.78159 Y26.30142
G01 X-5.02498 Y26.27744
G01 X-5.26836 Y26.30142
G01 X-5.50237 Y26.37241
G01 X-5.71809 Y26.48770
G01 X-5.90714 Y26.64284
G01 X-6.06231 Y26.83192
G01 X-6.17758 Y27.04759
G01 X-6.20835 Y27.14903
G00 Z-0.60000
G01 X-6.24857 Y27.28163
G01 X-6.27255 Y27.52504
G01 X-6.24857 Y27.76842
G01 X-6.17758 Y28.00246
G01 X-6.06231 Y28.21815
G01 X-5.90712 Y28.40720
G01 X-5.80001 Y28.49511
G01 Z-1.50000 F60.00000
G01 F100.00000
G01 X-5.71809 Y28.56235
G01 X-5.50240 Y28.67764
G01 X-5.26836 Y28.74863
G01 X-5.02498 Y28.77261
G01 X-4.78157 Y28.74863
G01 X-4.54756 Y28.67764
G01 X-4.33184 Y28.56232
G01 X-4.14278 Y28.40720
G01 X-3.98764 Y28.21815
G01 X-3.87238 Y28.00248
G01 X-3.84160 Y27.90103
G00 Z-0.60000
G01 X-3.80138 Y27.76842
G01 X-3.77741 Y27.52504
G01 Z-2.00000 F60.00000 ( plunge. )
G04 P0 ( dwell for no time -- G64 should not smooth over this point )
G01 F100.00000
G00 Z-0.60000
G01 X-3.80138 Y27.28163
G01 X-3.87235 Y27.04759
G01 X-3.98767 Y26.83190
G01 X-4.14278 Y26.64284
G01 X-4.24992 Y26.55494
G01 Z-2.00000 F60.00000
G01 F100.00000
G01 X-4.33184 Y26.48773
G01 X-4.54756 Y26.37241
G01 X-4.78159 Y26.30142
G01 X-5.02498 Y26.27744
G01 X-5.26836 Y26.30142
G01 X-5.50237 Y26.37241
G01 X-5.71809 Y26.48770
G01 X-5.90714 Y26.64284
G01 X-6.06231 Y26.83192
G01 X-6.17758 Y27.04759
G01 X-6.20835 Y27.14903
G00 Z-0.60000
G01 X-6.24857 Y27.28163
G01 X-6.27255 Y27.52504
G01 X-6.24857 Y27.76842
G01 X-6.17758 Y28.00246
G01 X-6.06231 Y28.21815
G01 X-5.90712 Y28.40720
G01 X-5.80001 Y28.49511
G01 Z-2.00000 F60.00000
G01 F100.00000
G01 X-5.71809 Y28.56235
G01 X-5.50240 Y28.67764
G01 X-5.26836 Y28.74863
G01 X-5.02498 Y28.77261
G01 X-4.78157 Y28.74863
G01 X-4.54756 Y28.67764
G01 X-4.33184 Y28.56232
G01 X-4.14278 Y28.40720
G01 X-3.98764 Y28.21815
G01 X-3.87238 Y28.00248
G01 X-3.84160 Y27.90103
G00 Z-0.60000
G01 X-3.80138 Y27.76842
G01 X-3.77741 Y27.52504
G04 P0 ( dwell for no time -- G64 should not smooth over this point )
G00 Z5.00000 ( retract )

G00 X-61.77739 Y27.52504 ( rapid move to begin. )
G01 Z-0.50000 F60.00000 ( plunge. )
G04 P0 ( dwell for no time -- G64 should not smooth over this point )
G01 F100.00000
G01 X-61.80137 Y27.28163
G01 X-61.87236 Y27.04762
G01 X-61.98765 Y26.83192
G01 X-62.07556 Y26.72478
G01 X-62.14280 Y26.64284
G01 X-62.33185 Y26.48770
G01 X-62.54757 Y26.37241
G01 X-62.78161 Y26.30142
G01 X-63.02499 Y26.27744
G01 X-63.26835 Y26.30142
G01 X-63.50238 Y26.37241
G01 X-63.71810 Y26.48773
G01 X-63.90716 Y26.64284
G01 X-64.06227 Y26.83190
G01 X-64.11225 Y26.92538
G01 X-64.17759 Y27.04762
G01 X-64.24858 Y27.28165
G01 X-64.27256 Y27.52504
G01 X-64.24858 Y27.76839
G01 X-64.17759 Y28.00243
G01 X-64.06230 Y28.21815
G01 X-63.97440 Y28.32527
G01 X-63.90716 Y28.40720
G01 X-63.71810 Y28.56232
G01 X-63.50238 Y28.67764
G01 X-63.26837 Y28.74863
G01 X-63.02499 Y28.77261
G01 X-62.78158 Y28.74863
G01 X-62.54754 Y28.67764
G01 X-62.33185 Y28.56235
G01 X-62.14280 Y28.40720
G01 X-61.98768 Y28.21818
G01 X-61.93769 Y28.12467
G01 X-61.87236 Y28.00246
G01 X-61.80137 Y27.76842
G01 X-61.77739 Y27.52504
G01 Z-1.00000 F60.00000 ( plunge. )
G04 P0 ( dwell for no time -- G64 should not smooth over this point )
G01 F100.00000
G00 Z-0.60000
G01 X-61.80137 Y27.28163
G01 X-61.87236 Y27.04762
G01 X-61.98765 Y26.83192
G01 X-62.07556 Y26.72478
G01 Z-1.00000 F60.00000
G01 F100.00000
G01 X-62.14280 Y26.64284
G01 X-62.33185 Y26.48770
G01 X-62.54757 Y26.37241
G01 X-62.78161 Y26.30142
G01 X-63.02499 Y26.27744
G01 X-63.26835 Y26.30142
G01 X-63.50238 Y26.37241
G01 X-63.71810 Y26.48773
G01 X-63.90716 Y26.64284
G01 X-64.06227 Y26.83190
G01 X-64.11225 Y26.92538
G00 Z-0.60000
G01 X-64.17759 Y27.04762
G01 X-64.24858 Y27.28165
G01 X-64.27256 Y27.52504
G01 X-64.24858 Y27.76839
G01 X-64.17759 Y28.00243
G01 X-64.06230 Y28.21815
G01 X-63.97440 Y28.32527
G01 Z-1.00000 F60.00000
G01 F100.00000
G01 X-63.90716 Y28.40720
G01 X-63.71810 Y28.56232
G01 X-63.50238 Y28.67764
G01 X-63.26837 Y28.74863
G01 X-63.02499 Y28.77261
G01 X-62.78158 Y28.74863
G01 X-62.54754 Y28.67764
G01 X-62.33185 Y28.56235
G01 X-62.14280 Y28.40720
G01 X-61.98768 Y28.21818
G01 X-61.93769 Y28.12467
G00 Z-0.60000
G01 X-61.87236 Y28.00246
G01 X-61.80137 Y27.76842
G01 X-61.77739 Y27.52504
G01 Z-1.50000 F60.00000 ( plunge. )
G04 P0 ( dwell for no time -- G64 should not smooth over this point )
G01 F100.00000
G00 Z-0.60000
G01 X-61.80137 Y27.28163
G01 X-61.87236 Y27.04762
G01 X-61.98765 Y26.83192
G01 X-62.07556 Y26.72478
G01 Z-1.50000 F60.00000
G01 F100.00000
G01 X-62.14280 Y26.64284
G01 X-62.33185 Y26.48770
G01 X-62.54757 Y26.37241
G01 X-62.78161 Y26.30142
G01 X-63.02499 Y26.27744
G01 X-63.26835 Y26.30142
G01 X-63.50238 Y26.37241
G01 X-63.71810 Y26.48773
G01 X-63.90716 Y26.64284
G01 X-64.06227 Y26.83190
G01 X-64.11225 Y26.92538
G00 Z-0.60000
G01 X-64.17759 Y27.04762
G01 X-64.24858 Y27.28165
G01 X-64.27256 Y27.52504
G01 X-64.24858 Y27.76839
G01 X-64.17759 Y28.00243
G01 X-64.06230 Y28.21815
G01 X-63.97440 Y28.32527
G01 Z-1.50000 F60.00000
G01 F100.00000
G01 X-63.90716 Y28.40720
G01 X-63.71810 Y28.56232
G01 X-63.50238 Y28.67764
G01 X-63.26837 Y28.74863
G01 X-63.02499 Y28.77261
G01 X-62.78158 Y28.74863
G01 X-62.54754 Y28.67764
G01 X-62.33185 Y28.56235
G01 X-62.14280 Y28.40720
G01 X-61.98768 Y28.21818
G01 X-61.93769 Y28.12467
G00 Z-0.60000
G01 X-61.87236 Y28.00246
G01 X-61.80137 Y27.76842
G01 X-61.77739 Y27.52504
G01 Z-2.00000 F60.00000 ( plunge. )
G04 P0 ( dwell for no time -- G64 should not smooth over this point )
G01 F100.00000
G00 Z-0.60000
G01 X-61.80137 Y27.28163
G01 X-61.87236 Y27.04762
G01 X-61.98765 Y26.83192
G01 X-62.07556 Y26.72478
G01 Z-2.00000 F60.00000
G01 F100.00000
G01 X-62.14280 Y26.64284
G01 X-62.33185 Y26.48770
G01 X-62.54757 Y26.37241
G01 X-62.78161 Y26.30142
G01 X-63.02499 Y26.27744
G01 X-63.26835 Y26.30142
G01 X-63.50238 Y26.37241
G01 X-63.71810 Y26.48773
G01 X-63.90716 Y26.64284
G01 X-64.06227 Y26.83190
G01 X-64.11225 Y26.92538
G00 Z-0.60000
G01 X-64.17759 Y27.04762
G01 X-64.24858 Y27.28165
G01 X-64.27256 Y27.52504
G01 X-64.24858 Y27.76839
G01 X-64.17759 Y28.00243
G01 X-64.06230 Y28.21815
G01 X-63.97440 Y28.32527
G01 Z-2.00000 F60.00000
G01 F100.00000
G01 X-63.90716 Y28.40720
G01 X-63.71810 Y28.56232
G01 X-63.50238 Y28.67764
G01 X-63.26837 Y28.74863
G01 X-63.02499 Y28.77261
G01 X-62.78158 Y28.74863
G01 X-62.54754 Y28.67764
G01 X-62.33185 Y28.56235
G01 X-62.14280 Y28.40720
G01 X-61.98768 Y28.21818
G01 X-61.93769 Y28.12467
G00 Z-0.60000
G01 X-61.87236 Y28.00246
G01 X-61.80137 Y27.76842
G01 X-61.77739 Y27.52504
G04 P0 ( dwell for no time -- G64 should not smooth over this point )
G00 Z5.00000 ( retract )

G00 X-61.77739 Y5.02503 ( rapid move to begin. )
G01 Z-0.50000 F60.00000 ( plunge. )
G04 P0 ( dwell for no time -- G64 should not smooth over this point )
G01 F100.00000
G01 X-61.80137 Y4.78162
G01 X-61.87236 Y4.54761
G01 X-61.98765 Y4.33192
G01 X-62.07556 Y4.22478
G01 X-62.14280 Y4.14284
G01 X-62.33185 Y3.98769
G01 X-62.54754 Y3.87240
G01 X-62.78158 Y3.80141
G01 X-63.02499 Y3.77746
G01 X-63.26837 Y3.80141
G01 X-63.50238 Y3.87240
G01 X-63.71810 Y3.98772
G01 X-63.90716 Y4.14284
G01 X-64.06227 Y4.33189
G01 X-64.11225 Y4.42539
G01 X-64.17759 Y4.54761
G01 X-64.24858 Y4.78165
G01 X-64.27256 Y5.02503
G01 X-64.24858 Y5.26841
G01 X-64.17759 Y5.50242
G01 X-64.06230 Y5.71815
G01 X-63.97439 Y5.82527
G01 X-63.90716 Y5.90720
G01 X-63.71808 Y6.06237
G01 X-63.50241 Y6.17763
G01 X-63.26837 Y6.24862
G01 X-63.02499 Y6.27260
G01 X-62.78158 Y6.24862
G01 X-62.54754 Y6.17763
G01 X-62.33185 Y6.06237
G01 X-62.14280 Y5.90717
G01 X-61.98768 Y5.71817
G01 X-61.93770 Y5.62466
G01 X-61.87236 Y5.50242
G01 X-61.80137 Y5.26841
G01 X-61.77739 Y5.02503
G01 Z-1.00000 F60.00000 ( plunge. )
G04 P0 ( dwell for no time -- G64 should not smooth over this point )
G01 F100.00000
G00 Z-0.60000
G01 X-61.80137 Y4.78162
G01 X-61.87236 Y4.54761
G01 X-61.98765 Y4.33192
G01 X-62.07556 Y4.22478
G01 Z-1.00000 F60.00000
G01 F100.00000
G01 X-62.14280 Y4.14284
G01 X-62.33185 Y3.98769
G01 X-62.54754 Y3.87240
G01 X-62.78158 Y3.80141
G01 X-63.02499 Y3.77746
G01 X-63.26837 Y3.80141
G01 X-63.50238 Y3.87240
G01 X-63.71810 Y3.98772
G01 X-63.90716 Y4.14284
G01 X-64.06227 Y4.33189
G01 X-64.11225 Y4.42539
G00 Z-0.60000
G01 X-64.17759 Y4.54761
G01 X-64.24858 Y4.78165
G01 X-64.27256 Y5.02503
G01 X-64.24858 Y5.26841
G01 X-64.17759 Y5.50242
G01 X-64.06230 Y5.71815
G01 X-63.97439 Y5.82527
G01 Z-1.00000 F60.00000
G01 F100.00000
G01 X-63.90716 Y5.90720
G01 X-63.71808 Y6.06237
G01 X-63.50241 Y6.17763
G01 X-63.26837 Y6.24862
G01 X-63.02499 Y6.27260
G01 X-62.78158 Y6.24862
G01 X-62.54754 Y6.17763
G01 X-62.33185 Y6.06237
G01 X-62.14280 Y5.90717
G01 X-61.98768 Y5.71817
G01 X-61.93770 Y5.62466
G00 Z-0.60000
G01 X-61.87236 Y5.50242
G01 X-61.80137 Y5.26841
G01 X-61.77739 Y5.02503
G01 Z-1.50000 F60.00000 ( plunge. )
G04 P0 ( dwell for no time -- G64 should not smooth over this point )
G01 F100.00000
G00 Z-0.60000
G01 X-61.80137 Y4.78162
G01 X-61.87236 Y4.54761
G01 X-61.98765 Y4.33192
G01 X-62.07556 Y4.22478
G01 Z-1.50000 F60.00000
G01 F100.00000
G01 X-62.14280 Y4.14284
G01 X-62.33185 Y3.98769
G01 X-62.54754 Y3.87240
G01 X-62.78158 Y3.80141
G01 X-63.02499 Y3.77746
G01 X-63.26837 Y3.80141
G01 X-63.50238 Y3.87240
G01 X-63.71810 Y3.98772
G01 X-63.90716 Y4.14284
G01 X-64.06227 Y4.33189
G01 X-64.11225 Y4.42539
G00 Z-0.60000
G01 X-64.17759 Y4.54761
G01 X-64.24858 Y4.78165
G01 X-64.27256 Y5.02503
G01 X-64.24858 Y5.26841
G01 X-64.17759 Y5.50242
G01 X-64.06230 Y5.71815
G01 X-63.97439 Y5.82527
G01 Z-1.50000 F60.00000
G01 F100.00000
G01 X-63.90716 Y5.90720
G01 X-63.71808 Y6.06237
G01 X-63.50241 Y6.17763
G01 X-63.26837 Y6.24862
G01 X-63.02499 Y6.27260
G01 X-62.78158 Y6.24862
G01 X-62.54754 Y6.17763
G01 X-62.33185 Y6.06237
G01 X-62.14280 Y5.90717
G01 X-61.98768 Y5.71817
G01 X-61.93770 Y5.62466
G00 Z-0.60000
G01 X-61.87236 Y5.50242
G01 X-61.80137 Y5.26841
G01 X-61.77739 Y5.02503
G01 Z-2.00000 F60.00000 ( plunge. )
G04 P0 ( dwell for no time -- G64 should not smooth over this point )
G01 F100.00000
G00 Z-0.60000
G01 X-61.80137 Y4.78162
G01 X-61.87236 Y4.54761
G01 X-61.98765 Y4.33192
G01 X-62.07556 Y4.22478
G01 Z-2.00000 F60.00000
G01 F100.00000
G01 X-62.14280 Y4.14284
G01 X-62.33185 Y3.98769
G01 X-62.54754 Y3.87240
G01 X-62.78158 Y3.80141
G01 X-63.02499 Y3.77746
G01 X-63.26837 Y3.80141
G01 X-63.50238 Y3.87240
G01 X-63.71810 Y3.98772
G01 X-63.90716 Y4.14284
G01 X-64.06227 Y4.33189
G01 X-64.11225 Y4.42539
G00 Z-0.60000
G01 X-64.17759 Y4.54761
G01 X-64.24858 Y4.78165
G01 X-64.27256 Y5.02503
G01 X-64.24858 Y5.26841
G01 X-64.17759 Y5.50242
G01 X-64.06230 Y5.71815
G01 X-63.97439 Y5.82527
G01 Z-2.00000 F60.00000
G01 F100.00000
G01 X-63.90716 Y5.90720
G01 X-63.71808 Y6.06237
G01 X-63.50241 Y6.17763
G01 X-63.26837 Y6.24862
G01 X-63.02499 Y6.27260
G01 X-62.78158 Y6.24862
G01 X-62.54754 Y6.17763
G01 X-62.33185 Y6.06237
G01 X-62.14280 Y5.90717
G01 X-61.98768 Y5.71817
G01 X-61.93770 Y5.62466
G00 Z-0.60000
G01 X-61.87236 Y5.50242
G01 X-61.80137 Y5.26841
G01 X-61.77739 Y5.02503
G04 P0 ( dwell for no time -- G64 should not smooth over this point )
G00 Z5.00000 ( retract )

G00 X-3.77741 Y43.02503 ( rapid move to begin. )
G01 Z-0.50000 F60.00000 ( plunge. )
G04 P0 ( dwell for no time -- G64 should not smooth over this point )
G01 F100.00000
G01 X-3.80138 Y42.78162
G01 X-3.87235 Y42.54759
G01 X-3.98767 Y42.33189
G01 X-4.14278 Y42.14284
G01 X-4.24992 Y42.05493
G01 X-4.33184 Y41.98772
G01 X-4.54756 Y41.87240
G01 X-4.78157 Y41.80141
G01 X-5.02498 Y41.77746
G01 X-5.26839 Y41.80141
G01 X-5.50237 Y41.87240
G01 X-5.71809 Y41.98770
G01 X-5.90714 Y42.14284
G01 X-6.06231 Y42.33192
G01 X-6.17758 Y42.54759
G01 X-6.20835 Y42.64902
G01 X-6.24857 Y42.78162
G01 X-6.27255 Y43.02503
G01 X-6.24857 Y43.26841
G01 X-6.17758 Y43.50245
G01 X-6.06231 Y43.71815
G01 X-5.90712 Y43.90720
G01 X-5.80002 Y43.99511
G01 X-5.71809 Y44.06237
G01 X-5.50240 Y44.17763
G01 X-5.26836 Y44.24863
G01 X-5.02498 Y44.27260
G01 X-4.78157 Y44.24863
G01 X-4.54753 Y44.17763
G01 X-4.33186 Y44.06237
G01 X-4.14278 Y43.90720
G01 X-3.98764 Y43.71815
G01 X-3.87235 Y43.50245
G01 X-3.84160 Y43.40102
G01 X-3.80138 Y43.26841
G01 X-3.77741 Y43.02503
G01 Z-1.00000 F60.00000 ( plunge. )
G04 P0 ( dwell for no time -- G64 should not smooth over this point )
G01 F100.00000
G00 Z-0.60000
G01 X-3.80138 Y42.78162
G01 X-3.87235 Y42.54759
G01 X-3.98767 Y42.33189
G01 X-4.14278 Y42.14284
G01 X-4.24992 Y42.05493
G01 Z-1.00000 F60.00000
G01 F100.00000
G01 X-4.33184 Y41.98772
G01 X-4.54756 Y41.87240
G01 X-4.78157 Y41.80141
G01 X-5.02498 Y41.77746
G01 X-5.26839 Y41.80141
G01 X-5.50237 Y41.87240
G01 X-5.71809 Y41.98770
G01 X-5.90714 Y42.14284
G01 X-6.06231 Y42.33192
G01 X-6.17758 Y42.54759
G01 X-6.20835 Y42.64902
G00 Z-0.60000
G01 X-6.24857 Y42.78162
G01 X-6.27255 Y43.02503
G01 X-6.24857 Y43.26841
G01 X-6.17758 Y43.50245
G01 X-6.06231 Y43.71815
G01 X-5.90712 Y43.90720
G01 X-5.80002 Y43.99511
G01 Z-1.00000 F60.00000
G01 F100.00000
G01 X-5.71809 Y44.06237
G01 X-5.50240 Y44.17763
G01 X-5.26836 Y44.24863
G01 X-5.02498 Y44.27260
G01 X-4.78157 Y44.24863
G01 X-4.54753 Y44.17763
G01 X-4.33186 Y44.06237
G01 X-4.14278 Y43.90720
G01 X-3.98764 Y43.71815
G01 X-3.87235 Y43.50245
G01 X-3.84160 Y43.40102
G00 Z-0.60000
G01 X-3.80138 Y43.26841
G01 X-3.77741 Y43.02503
G01 Z-1.50000 F60.00000 ( plunge. )
G04 P0 ( dwell for no time -- G64 should not smooth over this point )
G01 F100.00000
G00 Z-0.60000
G01 X-3.80138 Y42.78162
G01 X-3.87235 Y42.54759
G01 X-3.98767 Y42.33189
G01 X-4.14278 Y42.14284
G01 X-4.24992 Y42.05493
G01 Z-1.50000 F60.00000
G01 F100.00000
G01 X-4.33184 Y41.98772
G01 X-4.54756 Y41.87240
G01 X-4.78157 Y41.80141
G01 X-5.02498 Y41.77746
G01 X-5.26839 Y41.80141
G01 X-5.50237 Y41.87240
G01 X-5.71809 Y41.98770
G01 X-5.90714 Y42.14284
G01 X-6.06231 Y42.33192
G01 X-6.17758 Y42.54759
G01 X-6.20835 Y42.64902
G00 Z-0.60000
G01 X-6.24857 Y42.78162
G01 X-6.27255 Y43.02503
G01 X-6.24857 Y43.26841
G01 X-6.17758 Y43.50245
G01 X-6.06231 Y43.71815
G01 X-5.90712 Y43.90720
G01 X-5.80002 Y43.99511
G01 Z-1.50000 F60.00000
G01 F100.00000
G01 X-5.71809 Y44.06237
G01 X-5.50240 Y44.17763
G01 X-5.26836 Y44.24863
G01 X-5.02498 Y44.27260
G01 X-4.78157 Y44.24863
G01 X-4.54753 Y44.17763
G01 X-4.33186 Y44.06237
G01 X-4.14278 Y43.90720
G01 X-3.98764 Y43.71815
G01 X-3.87235 Y43.50245
G01 X-3.84160 Y43.40102
G00 Z-0.60000
G01 X-3.80138 Y43.26841
G01 X-3.77741 Y43.02503
G01 Z-2.00000 F60.00000 ( plunge. )
G04 P0 ( dwell for no time -- G64 should not smooth over this point )
G01 F100.00000
G00 Z-0.60000
G01 X-3.80138 Y42.78162
G01 X-3.87235 Y42.54759
G01 X-3.98767 Y42.33189
G01 X-4.14278 Y42.14284
G01 X-4.24992 Y42.05493
G01 Z-2.00000 F60.00000
G01 F100.00000
G01 X-4.33184 Y41.98772
G01 X-4.54756 Y41.87240
G01 X-4.78157 Y41.80141
G01 X-5.02498 Y41.77746
G01 X-5.26839 Y41.80141
G01 X-5.50237 Y41.87240
G01 X-5.71809 Y41.98770
G01 X-5.90714 Y42.14284
G01 X-6.06231 Y42.33192
G01 X-6.17758 Y42.54759
G01 X-6.20835 Y42.64902
G00 Z-0.60000
G01 X-6.24857 Y42.78162
G01 X-6.27255 Y43.02503
G01 X-6.24857 Y43.26841
G01 X-6.17758 Y43.50245
G01 X-6.06231 Y43.71815
G01 X-5.90712 Y43.90720
G01 X-5.80002 Y43.99511
G01 Z-2.00000 F60.00000
G01 F100.00000
G01 X-5.71809 Y44.06237
G01 X-5.50240 Y44.17763
G01 X-5.26836 Y44.24863
G01 X-5.02498 Y44.27260
G01 X-4.78157 Y44.24863
G01 X-4.54753 Y44.17763
G01 X-4.33186 Y44.06237
G01 X-4.14278 Y43.90720
G01 X-3.98764 Y43.71815
G01 X-3.87235 Y43.50245
G01 X-3.84160 Y43.40102
G00 Z-0.60000
G01 X-3.80138 Y43.26841
G01 X-3.77741 Y43.02503
G04 P0 ( dwell for no time -- G64 should not smooth over this point )
G00 Z5.00000 ( retract )

G00 X-61.77739 Y43.02503 ( rapid move to begin. )
G01 Z-0.50000 F60.00000 ( plunge. )
G04 P0 ( dwell for no time -- G64 should not smooth over this point )
G01 F100.00000
G01 X-61.80137 Y42.78162
G01 X-61.87236 Y42.54761
G01 X-61.98765 Y42.33192
G01 X-62.07556 Y42.22478
G01 X-62.14280 Y42.14284
G01 X-62.33185 Y41.98770
G01 X-62.54757 Y41.87240
G01 X-62.78158 Y41.80141
G01 X-63.02499 Y41.77746
G01 X-63.26837 Y41.80141
G01 X-63.50238 Y41.87240
G01 X-63.71810 Y41.98772
G01 X-63.90716 Y42.14284
G01 X-64.06227 Y42.33189
G01 X-64.11225 Y42.42539
G01 X-64.17759 Y42.54761
G01 X-64.24858 Y42.78165
G01 X-64.27256 Y43.02503
G01 X-64.24858 Y43.26841
G01 X-64.17759 Y43.50242
G01 X-64.06230 Y43.71815
G01 X-63.97439 Y43.82527
G01 X-63.90716 Y43.90720
G01 X-63.71808 Y44.06237
G01 X-63.50241 Y44.17763
G01 X-63.26837 Y44.24863
G01 X-63.02499 Y44.27260
G01 X-62.78158 Y44.24863
G01 X-62.54752 Y44.17763
G01 X-62.33185 Y44.06237
G01 X-62.14280 Y43.90720
G01 X-61.98768 Y43.71817
G01 X-61.93770 Y43.62466
G01 X-61.87236 Y43.50242
G01 X-61.80137 Y43.26841
G01 X-61.77739 Y43.02503
G01 Z-1.00000 F60.00000 ( plunge. )
G04 P0 ( dwell for no time -- G64 should not smooth over this point )
G01 F100.00000
G00 Z-0.60000
G01 X-61.80137 Y42.78162
G01 X-61.87236 Y42.54761
G01 X-61.98765 Y42.33192
G01 X-62.07556 Y42.22478
G01 Z-1.00000 F60.00000
G01 F100.00000
G01 X-62.14280 Y42.14284
G01 X-62.33185 Y41.98770
G01 X-62.54757 Y41.87240
G01 X-62.78158 Y41.80141
G01 X-63.02499 Y41.77746
G01 X-63.26837 Y41.80141
G01 X-63.50238 Y41.87240
G01 X-63.71810 Y41.98772
G01 X-63.90716 Y42.14284
G01 X-64.06227 Y42.33189
G01 X-64.11225 Y42.42539
G00 Z-0.60000
G01 X-64.17759 Y42.54761
G01 X-64.24858 Y42.78165
G01 X-64.27256 Y43.02503
G01 X-64.24858 Y43.26841
G01 X-64.17759 Y43.50242
G01 X-64.06230 Y43.71815
G01 X-63.97439 Y43.82527
G01 Z-1.00000 F60.00000
G01 F100.00000
G01 X-63.90716 Y43.90720
G01 X-63.71808 Y44.06237
G01 X-63.50241 Y44.17763
G01 X-63.26837 Y44.24863
G01 X-63.02499 Y44.27260
G01 X-62.78158 Y44.24863
G01 X-62.54752 Y44.17763
G01 X-62.33185 Y44.06237
G01 X-62.14280 Y43.90720
G01 X-61.98768 Y43.71817
G01 X-61.93770 Y43.62466
G00 Z-0.60000
G01 X-61.87236 Y43.50242
G01 X-61.80137 Y43.26841
G01 X-61.77739 Y43.02503
G01 Z-1.50000 F60.00000 ( plunge. )
G04 P0 ( dwell for no time -- G64 should not smooth over this point )
G01 F100.00000
G00 Z-0.60000
G01 X-61.80137 Y42.78162
G01 X-61.87236 Y42.54761
G01 X-61.98765 Y42.33192
G01 X-62.07556 Y42.22478
G01 Z-1.50000 F60.00000
G01 F100.00000
G01 X-62.14280 Y42.14284
G01 X-62.33185 Y41.98770
G01 X-62.54757 Y41.87240
G01 X-62.78158 Y41.80141
G01 X-63.02499 Y41.77746
G01 X-63.26837 Y41.80141
G01 X-63.50238 Y41.87240
G01 X-63.71810 Y41.98772
G01 X-63.90716 Y42.14284
G01 X-64.06227 Y42.33189
G01 X-64.11225 Y42.42539
G00 Z-0.60000
G01 X-64.17759 Y42.54761
G01 X-64.24858 Y42.78165
G01 X-64.27256 Y43.02503
G01 X-64.24858 Y43.26841
G01 X-64.17759 Y43.50242
G01 X-64.06230 Y43.71815
G01 X-63.97439 Y43.82527
G01 Z-1.50000 F60.00000
G01 F100.00000
G01 X-63.90716 Y43.90720
G01 X-63.71808 Y44.06237
G01 X-63.50241 Y44.17763
G01 X-63.26837 Y44.24863
G01 X-63.02499 Y44.27260
G01 X-62.78158 Y44.24863
G01 X-62.54752 Y44.17763
G01 X-62.33185 Y44.06237
G01 X-62.14280 Y43.90720
G01 X-61.98768 Y43.71817
G01 X-61.93770 Y43.62466
G00 Z-0.60000
G01 X-61.87236 Y43.50242
G01 X-61.80137 Y43.26841
G01 X-61.77739 Y43.02503
G01 Z-2.00000 F60.00000 ( plunge. )
G04 P0 ( dwell for no time -- G64 should not smooth over this point )
G01 F100.00000
G00 Z-0.60000
G01 X-61.80137 Y42.78162
G01 X-61.87236 Y42.54761
G01 X-61.98765 Y42.33192
G01 X-62.07556 Y42.22478
G01 Z-2.00000 F60.00000
G01 F100.00000
G01 X-62.14280 Y42.14284
G01 X-62.33185 Y41.98770
G01 X-62.54757 Y41.87240
G01 X-62.78158 Y41.80141
G01 X-63.02499 Y41.77746
G01 X-63.26837 Y41.80141
G01 X-63.50238 Y41.87240
G01 X-63.71810 Y41.98772
G01 X-63.90716 Y42.14284
G01 X-64.06227 Y42.33189
G01 X-64.11225 Y42.42539
G00 Z-0.60000
G01 X-64.17759 Y42.54761
G01 X-64.24858 Y42.78165
G01 X-64.27256 Y43.02503
G01 X-64.24858 Y43.26841
G01 X-64.17759 Y43.50242
G01 X-64.06230 Y43.71815
G01 X-63.97439 Y43.82527
G01 Z-2.00000 F60.00000
G01 F100.00000
G01 X-63.90716 Y43.90720
G01 X-63.71808 Y44.06237
G01 X-63.50241 Y44.17763
G01 X-63.26837 Y44.24863
G01 X-63.02499 Y44.27260
G01 X-62.78158 Y44.24863
G01 X-62.54752 Y44.17763
G01 X-62.33185 Y44.06237
G01 X-62.14280 Y43.90720
G01 X-61.98768 Y43.71817
G01 X-61.93770 Y43.62466
G00 Z-0.60000
G01 X-61.87236 Y43.50242
G01 X-61.80137 Y43.26841
G01 X-61.77739 Y43.02503
G04 P0 ( dwell for no time -- G64 should not smooth over this point )
G00 Z5.00000 ( retract )

G00 X-3.77741 Y5.02503 ( rapid move to begin. )
G01 Z-0.50000 F60.00000 ( plunge. )
G04 P0 ( dwell for no time -- G64 should not smooth over this point )
G01 F100.00000
G01 X-3.80138 Y4.78162
G01 X-3.87235 Y4.54759
G01 X-3.98767 Y4.33189
G01 X-4.14278 Y4.14284
G01 X-4.24992 Y4.05493
G01 X-4.33184 Y3.98772
G01 X-4.54756 Y3.87240
G01 X-4.78157 Y3.80141
G01 X-5.02498 Y3.77746
G01 X-5.26839 Y3.80141
G01 X-5.50240 Y3.87240
G01 X-5.71809 Y3.98769
G01 X-5.90714 Y4.14284
G01 X-6.06231 Y4.33192
G01 X-6.17758 Y4.54759
G01 X-6.20835 Y4.64902
G01 X-6.24857 Y4.78162
G01 X-6.27255 Y5.02503
G01 X-6.24857 Y5.26841
G01 X-6.17758 Y5.50245
G01 X-6.06231 Y5.71815
G01 X-5.90714 Y5.90720
G01 X-5.80003 Y5.99512
G01 X-5.71809 Y6.06237
G01 X-5.50240 Y6.17763
G01 X-5.26836 Y6.24862
G01 X-5.02498 Y6.27260
G01 X-4.78157 Y6.24862
G01 X-4.54753 Y6.17763
G01 X-4.33186 Y6.06237
G01 X-4.14278 Y5.90720
G01 X-3.98764 Y5.71815
G01 X-3.87235 Y5.50245
G01 X-3.84160 Y5.40102
G01 X-3.80138 Y5.26841
G01 X-3.77741 Y5.02503
G01 Z-1.00000 F60.00000 ( plunge. )
G04 P0 ( dwell for no time -- G64 should not smooth over this point )
G01 F100.00000
G00 Z-0.60000
G01 X-3.80138 Y4.78162
G01 X-3.87235 Y4.54759
G01 X-3.98767 Y4.33189
G01 X-4.14278 Y4.14284
G01 X-4.24992 Y4.05493
G01 Z-1.00000 F60.00000
G01 F100.00000
G01 X-4.33184 Y3.98772
G01 X-4.54756 Y3.87240
G01 X-4.78157 Y3.80141
G01 X-5.02498 Y3.77746
G01 X-5.26839 Y3.80141
G01 X-5.50240 Y3.87240
G01 X-5.71809 Y3.98769
G01 X-5.90714 Y4.14284
G01 X-6.06231 Y4.33192
G01 X-6.17758 Y4.54759
G01 X-6.20835 Y4.64902
G00 Z-0.60000
G01 X-6.24857 Y4.78162
G01 X-6.27255 Y5.02503
G01 X-6.24857 Y5.26841
G01 X-6.17758 Y5.50245
G01 X-6.06231 Y5.71815
G01 X-5.90714 Y5.90720
G01 X-5.80003 Y5.99512
G01 Z-1.00000 F60.00000
G01 F100.00000
G01 X-5.71809 Y6.06237
G01 X-5.50240 Y6.17763
G01 X-5.26836 Y6.24862
G01 X-5.02498 Y6.27260
G01 X-4.78157 Y6.24862
G01 X-4.54753 Y6.17763
G01 X-4.33186 Y6.06237
G01 X-4.14278 Y5.90720
G01 X-3.98764 Y5.71815
G01 X-3.87235 Y5.50245
G01 X-3.84160 Y5.40102
G00 Z-0.60000
G01 X-3.80138 Y5.26841
G01 X-3.77741 Y5.02503
G01 Z-1.50000 F60.00000 ( plunge. )
G04 P0 ( dwell for no time -- G64 should not smooth over this point )
G01 F100.00000
G00 Z-0.60000
G01 X-3.80138 Y4.78162
G01 X-3.87235 Y4.54759
G01 X-3.98767 Y4.33189
G01 X-4.14278 Y4.14284
G01 X-4.24992 Y4.05493
G01 Z-1.50000 F60.00000
G01 F100.00000
G01 X-4.33184 Y3.98772
G01 X-4.54756 Y3.87240
G01 X-4.78157 Y3.80141
G01 X-5.02498 Y3.77746
G01 X-5.26839 Y3.80141
G01 X-5.50240 Y3.87240
G01 X-5.71809 Y3.98769
G01 X-5.90714 Y4.14284
G01 X-6.06231 Y4.33192
G01 X-6.17758 Y4.54759
G01 X-6.20835 Y4.64902
G00 Z-0.60000
G01 X-6.24857 Y4.78162
G01 X-6.27255 Y5.02503
G01 X-6.24857 Y5.26841
G01 X-6.17758 Y5.50245
G01 X-6.06231 Y5.71815
G01 X-5.90714 Y5.90720
G01 X-5.80003 Y5.99512
G01 Z-1.50000 F60.00000
G01 F100.00000
G01 X-5.71809 Y6.06237
G01 X-5.50240 Y6.17763
G01 X-5.26836 Y6.24862
G01 X-5.02498 Y6.27260
G01 X-4.78157 Y6.24862
G01 X-4.54753 Y6.17763
G01 X-4.33186 Y6.06237
G01 X-4.14278 Y5.90720
G01 X-3.98764 Y5.71815
G01 X-3.87235 Y5.50245
G01 X-3.84160 Y5.40102
G00 Z-0.60000
G01 X-3.80138 Y5.26841
G01 X-3.77741 Y5.02503
G01 Z-2.00000 F60.00000 ( plunge. )
G04 P0 ( dwell for no time -- G64 should not smooth over this point )
G01 F100.00000
G00 Z-0.60000
G01 X-3.80138 Y4.78162
G01 X-3.87235 Y4.54759
G01 X-3.98767 Y4.33189
G01 X-4.14278 Y4.14284
G01 X-4.24992 Y4.05493
G01 Z-2.00000 F60.00000
G01 F100.00000
G01 X-4.33184 Y3.98772
G01 X-4.54756 Y3.87240
G01 X-4.78157 Y3.80141
G01 X-5.02498 Y3.77746
G01 X-5.26839 Y3.80141
G01 X-5.50240 Y3.87240
G01 X-5.71809 Y3.98769
G01 X-5.90714 Y4.14284
G01 X-6.06231 Y4.33192
G01 X-6.17758 Y4.54759
G01 X-6.20835 Y4.64902
G00 Z-0.60000
G01 X-6.24857 Y4.78162
G01 X-6.27255 Y5.02503
G01 X-6.24857 Y5.26841
G01 X-6.17758 Y5.50245
G01 X-6.06231 Y5.71815
G01 X-5.90714 Y5.90720
G01 X-5.80003 Y5.99512
G01 Z-2.00000 F60.00000
G01 F100.00000
G01 X-5.71809 Y6.06237
G01 X-5.50240 Y6.17763
G01 X-5.26836 Y6.24862
G01 X-5.02498 Y6.27260
G01 X-4.78157 Y6.24862
G01 X-4.54753 Y6.17763
G01 X-4.33186 Y6.06237
G01 X-4.14278 Y5.90720
G01 X-3.98764 Y5.71815
G01 X-3.87235 Y5.50245
G01 X-3.84160 Y5.40102
G00 Z-0.60000
G01 X-3.80138 Y5.26841
G01 X-3.77741 Y5.02503
G04 P0 ( dwell for no time -- G64 should not smooth over this point )
G00 Z5.00000 ( retract )

G00 X-51.57500 Y28.15958 ( rapid move to begin. )
G01 Z-0.50000 F60.00000 ( plunge. )
G04 P0 ( dwell for no time -- G64 should not smooth over this point )
G01 F100.00000
G01 X-51.57500 Y29.48503
G01 X-51.57500 Y30.98503
G01 X-51.57500 Y32.31047
G01 X-51.58696 Y32.43214
G01 X-51.61526 Y32.52543
G01 X-51.66126 Y32.61146
G01 X-51.72313 Y32.68688
G01 X-51.79852 Y32.74875
G01 X-51.88455 Y32.79472
G01 X-51.97789 Y32.82304
G01 X-52.07497 Y32.83260
G01 X-52.17205 Y32.82304
G01 X-52.26537 Y32.79472
G01 X-52.35143 Y32.74875
G01 X-52.42684 Y32.68685
G01 X-52.48871 Y32.61146
G01 X-52.53469 Y32.52543
G01 X-52.56298 Y32.43209
G01 X-52.57497 Y32.31045
G01 X-52.57497 Y30.98503
G01 X-52.57497 Y29.48503
G01 X-52.57497 Y28.15960
G01 X-52.56298 Y28.03796
G01 X-52.53469 Y27.94462
G01 X-52.48869 Y27.85856
G01 X-52.42684 Y27.78323
G01 X-52.35140 Y27.72130
G01 X-52.26537 Y27.67533
G01 X-52.17205 Y27.64701
G01 X-52.07497 Y27.63746
G01 X-51.97789 Y27.64701
G01 X-51.88455 Y27.67533
G01 X-51.79854 Y27.72130
G01 X-51.72313 Y27.78320
G01 X-51.66126 Y27.85859
G01 X-51.61526 Y27.94462
G01 X-51.58696 Y28.03794
G01 X-51.57500 Y28.15958
G01 Z-1.00000 F60.00000 ( plunge. )
G04 P0 ( dwell for no time -- G64 should not smooth over this point )
G01 F100.00000
G01 X-51.57500 Y29.48503
G00 Z-0.60000
G01 X-51.57500 Y30.98503
G01 Z-1.00000 F60.00000
G01 F100.00000
G01 X-51.57500 Y32.31047
G01 X-51.58696 Y32.43214
G01 X-51.61526 Y32.52543
G01 X-51.66126 Y32.61146
G01 X-51.72313 Y32.68688
G01 X-51.79852 Y32.74875
G01 X-51.88455 Y32.79472
G01 X-51.97789 Y32.82304
G01 X-52.07497 Y32.83260
G01 X-52.17205 Y32.82304
G01 X-52.26537 Y32.79472
G01 X-52.35143 Y32.74875
G01 X-52.42684 Y32.68685
G01 X-52.48871 Y32.61146
G01 X-52.53469 Y32.52543
G01 X-52.56298 Y32.43209
G01 X-52.57497 Y32.31045
G01 X-52.57497 Y30.98503
G00 Z-0.60000
G01 X-52.57497 Y29.48503
G01 Z-1.00000 F60.00000
G01 F100.00000
G01 X-52.57497 Y28.15960
G01 X-52.56298 Y28.03796
G01 X-52.53469 Y27.94462
G01 X-52.48869 Y27.85856
G01 X-52.42684 Y27.78323
G01 X-52.35140 Y27.72130
G01 X-52.26537 Y27.67533
G01 X-52.17205 Y27.64701
G01 X-52.07497 Y27.63746
G01 X-51.97789 Y27.64701
G01 X-51.88455 Y27.67533
G01 X-51.79854 Y27.72130
G01 X-51.72313 Y27.78320
G01 X-51.66126 Y27.85859
G01 X-51.61526 Y27.94462
G01 X-51.58696 Y28.03794
G01 X-51.57500 Y28.15958
G01 Z-1.50000 F60.00000 ( plunge. )
G04 P0 ( dwell for no time -- G64 should not smooth over this point )
G01 F100.00000
G01 X-51.57500 Y29.48503
G00 Z-0.60000
G01 X-51.57500 Y30.98503
G01 Z-1.50000 F60.00000
G01 F100.00000
G01 X-51.57500 Y32.31047
G01 X-51.58696 Y32.43214
G01 X-51.61526 Y32.52543
G01 X-51.66126 Y32.61146
G01 X-51.72313 Y32.68688
G01 X-51.79852 Y32.74875
G01 X-51.88455 Y32.79472
G01 X-51.97789 Y32.82304
G01 X-52.07497 Y32.83260
G01 X-52.17205 Y32.82304
G01 X-52.26537 Y32.79472
G01 X-52.35143 Y32.74875
G01 X-52.42684 Y32.68685
G01 X-52.48871 Y32.61146
G01 X-52.53469 Y32.52543
G01 X-52.56298 Y32.43209
G01 X-52.57497 Y32.31045
G01 X-52.57497 Y30.98503
G00 Z-0.60000
G01 X-52.57497 Y29.48503
G01 Z-1.50000 F60.00000
G01 F100.00000
G01 X-52.57497 Y28.15960
G01 X-52.56298 Y28.03796
G01 X-52.53469 Y27.94462
G01 X-52.48869 Y27.85856
G01 X-52.42684 Y27.78323
G01 X-52.35140 Y27.72130
G01 X-52.26537 Y27.67533
G01 X-52.17205 Y27.64701
G01 X-52.07497 Y27.63746
G01 X-51.97789 Y27.64701
G01 X-51.88455 Y27.67533
G01 X-51.79854 Y27.72130
G01 X-51.72313 Y27.78320
G01 X-51.66126 Y27.85859
G01 X-51.61526 Y27.94462
G01 X-51.58696 Y28.03794
G01 X-51.57500 Y28.15958
G01 Z-2.00000 F60.00000 ( plunge. )
G04 P0 ( dwell for no time -- G64 should not smooth over this point )
G01 F100.00000
G01 X-51.57500 Y29.48503
G00 Z-0.60000
G01 X-51.57500 Y30.98503
G01 Z-2.00000 F60.00000
G01 F100.00000
G01 X-51.57500 Y32.31047
G01 X-51.58696 Y32.43214
G01 X-51.61526 Y32.52543
G01 X-51.66126 Y32.61146
G01 X-51.72313 Y32.68688
G01 X-51.79852 Y32.74875
G01 X-51.88455 Y32.79472
G01 X-51.97789 Y32.82304
G01 X-52.07497 Y32.83260
G01 X-52.17205 Y32.82304
G01 X-52.26537 Y32.79472
G01 X-52.35143 Y32.74875
G01 X-52.42684 Y32.68685
G01 X-52.48871 Y32.61146
G01 X-52.53469 Y32.52543
G01 X-52.56298 Y32.43209
G01 X-52.57497 Y32.31045
G01 X-52.57497 Y30.98503
G00 Z-0.60000
G01 X-52.57497 Y29.48503
G01 Z-2.00000 F60.00000
G01 F100.00000
G01 X-52.57497 Y28.15960
G01 X-52.56298 Y28.03796
G01 X-52.53469 Y27.94462
G01 X-52.48869 Y27.85856
G01 X-52.42684 Y27.78323
G01 X-52.35140 Y27.72130
G01 X-52.26537 Y27.67533
G01 X-52.17205 Y27.64701
G01 X-52.07497 Y27.63746
G01 X-51.97789 Y27.64701
G01 X-51.88455 Y27.67533
G01 X-51.79854 Y27.72130
G01 X-51.72313 Y27.78320
G01 X-51.66126 Y27.85859
G01 X-51.61526 Y27.94462
G01 X-51.58696 Y28.03794
G01 X-51.57500 Y28.15958
G04 P0 ( dwell for no time -- G64 should not smooth over this point )
G00 Z5.00000 ( retract )

G00 X-51.57500 Y38.15956 ( rapid move to begin. )
G01 Z-0.50000 F60.00000 ( plunge. )
G04 P0 ( dwell for no time -- G64 should not smooth over this point )
G01 F100.00000
G01 X-51.57500 Y39.48502
G01 X-51.57500 Y40.98502
G01 X-51.57500 Y42.31048
G01 X-51.58696 Y42.43214
G01 X-51.61526 Y42.52544
G01 X-51.66126 Y42.61147
G01 X-51.72313 Y42.68688
G01 X-51.79852 Y42.74876
G01 X-51.88457 Y42.79473
G01 X-51.97789 Y42.82305
G01 X-52.07502 Y42.83260
G01 X-52.17203 Y42.82305
G01 X-52.26537 Y42.79475
G01 X-52.35143 Y42.74876
G01 X-52.42684 Y42.68686
G01 X-52.48871 Y42.61147
G01 X-52.53469 Y42.52544
G01 X-52.56298 Y42.43209
G01 X-52.57497 Y42.31045
G01 X-52.57497 Y40.98503
G01 X-52.57497 Y39.48503
G01 X-52.57497 Y38.15961
G01 X-52.56301 Y38.03797
G01 X-52.53469 Y37.94460
G01 X-52.48871 Y37.85859
G01 X-52.42684 Y37.78321
G01 X-52.35138 Y37.72128
G01 X-52.26537 Y37.67531
G01 X-52.17208 Y37.64701
G01 X-52.07497 Y37.63746
G01 X-51.97787 Y37.64701
G01 X-51.88457 Y37.67531
G01 X-51.79857 Y37.72131
G01 X-51.72313 Y37.78318
G01 X-51.66126 Y37.85862
G01 X-51.61526 Y37.94460
G01 X-51.58696 Y38.03792
G01 X-51.57500 Y38.15956
G01 Z-1.00000 F60.00000 ( plunge. )
G04 P0 ( dwell for no time -- G64 should not smooth over this point )
G01 F100.00000
G01 X-51.57500 Y39.48502
G00 Z-0.60000
G01 X-51.57500 Y40.98502
G01 Z-1.00000 F60.00000
G01 F100.00000
G01 X-51.57500 Y42.31048
G01 X-51.58696 Y42.43214
G01 X-51.61526 Y42.52544
G01 X-51.66126 Y42.61147
G01 X-51.72313 Y42.68688
G01 X-51.79852 Y42.74876
G01 X-51.88457 Y42.79473
G01 X-51.97789 Y42.82305
G01 X-52.07502 Y42.83260
G01 X-52.17203 Y42.82305
G01 X-52.26537 Y42.79475
G01 X-52.35143 Y42.74876
G01 X-52.42684 Y42.68686
G01 X-52.48871 Y42.61147
G01 X-52.53469 Y42.52544
G01 X-52.56298 Y42.43209
G01 X-52.57497 Y42.31045
G01 X-52.57497 Y40.98503
G00 Z-0.60000
G01 X-52.57497 Y39.48503
G01 Z-1.00000 F60.00000
G01 F100.00000
G01 X-52.57497 Y38.15961
G01 X-52.56301 Y38.03797
G01 X-52.53469 Y37.94460
G01 X-52.48871 Y37.85859
G01 X-52.42684 Y37.78321
G01 X-52.35138 Y37.72128
G01 X-52.26537 Y37.67531
G01 X-52.17208 Y37.64701
G01 X-52.07497 Y37.63746
G01 X-51.97787 Y37.64701
G01 X-51.88457 Y37.67531
G01 X-51.79857 Y37.72131
G01 X-51.72313 Y37.78318
G01 X-51.66126 Y37.85862
G01 X-51.61526 Y37.94460
G01 X-51.58696 Y38.03792
G01 X-51.57500 Y38.15956
G01 Z-1.50000 F60.00000 ( plunge. )
G04 P0 ( dwell for no time -- G64 should not smooth over this point )
G01 F100.00000
G01 X-51.57500 Y39.48502
G00 Z-0.60000
G01 X-51.57500 Y40.98502
G01 Z-1.50000 F60.00000
G01 F100.00000
G01 X-51.57500 Y42.31048
G01 X-51.58696 Y42.43214
G01 X-51.61526 Y42.52544
G01 X-51.66126 Y42.61147
G01 X-51.72313 Y42.68688
G01 X-51.79852 Y42.74876
G01 X-51.88457 Y42.79473
G01 X-51.97789 Y42.82305
G01 X-52.07502 Y42.83260
G01 X-52.17203 Y42.82305
G01 X-52.26537 Y42.79475
G01 X-52.35143 Y42.74876
G01 X-52.42684 Y42.68686
G01 X-52.48871 Y42.61147
G01 X-52.53469 Y42.52544
G01 X-52.56298 Y42.43209
G01 X-52.57497 Y42.31045
G01 X-52.57497 Y40.98503
G00 Z-0.60000
G01 X-52.57497 Y39.48503
G01 Z-1.50000 F60.00000
G01 F100.00000
G01 X-52.57497 Y38.15961
G01 X-52.56301 Y38.03797
G01 X-52.53469 Y37.94460
G01 X-52.48871 Y37.85859
G01 X-52.42684 Y37.78321
G01 X-52.35138 Y37.72128
G01 X-52.26537 Y37.67531
G01 X-52.17208 Y37.64701
G01 X-52.07497 Y37.63746
G01 X-51.97787 Y37.64701
G01 X-51.88457 Y37.67531
G01 X-51.79857 Y37.72131
G01 X-51.72313 Y37.78318
G01 X-51.66126 Y37.85862
G01 X-51.61526 Y37.94460
G01 X-51.58696 Y38.03792
G01 X-51.57500 Y38.15956
G01 Z-2.00000 F60.00000 ( plunge. )
G04 P0 ( dwell for no time -- G64 should not smooth over this point )
G01 F100.00000
G01 X-51.57500 Y39.48502
G00 Z-0.60000
G01 X-51.57500 Y40.98502
G01 Z-2.00000 F60.00000
G01 F100.00000
G01 X-51.57500 Y42.31048
G01 X-51.58696 Y42.43214
G01 X-51.61526 Y42.52544
G01 X-51.66126 Y42.61147
G01 X-51.72313 Y42.68688
G01 X-51.79852 Y42.74876
G01 X-51.88457 Y42.79473
G01 X-51.97789 Y42.82305
G01 X-52.07502 Y42.83260
G01 X-52.17203 Y42.82305
G01 X-52.26537 Y42.79475
G01 X-52.35143 Y42.74876
G01 X-52.42684 Y42.68686
G01 X-52.48871 Y42.61147
G01 X-52.53469 Y42.52544
G01 X-52.56298 Y42.43209
G01 X-52.57497 Y42.31045
G01 X-52.57497 Y40.98503
G00 Z-0.60000
G01 X-52.57497 Y39.48503
G01 Z-2.00000 F60.00000
G01 F100.00000
G01 X-52.57497 Y38.15961
G01 X-52.56301 Y38.03797
G01 X-52.53469 Y37.94460
G01 X-52.48871 Y37.85859
G01 X-52.42684 Y37.78321
G01 X-52.35138 Y37.72128
G01 X-52.26537 Y37.67531
G01 X-52.17208 Y37.64701
G01 X-52.07497 Y37.63746
G01 X-51.97787 Y37.64701
G01 X-51.88457 Y37.67531
G01 X-51.79857 Y37.72131
G01 X-51.72313 Y37.78318
G01 X-51.66126 Y37.85862
G01 X-51.61526 Y37.94460
G01 X-51.58696 Y38.03792
G01 X-51.57500 Y38.15956
G04 P0 ( dwell for no time -- G64 should not smooth over this point )
G00 Z5.00000 ( retract )

G00 X-0.52496 Y1.02501 ( rapid move to begin. )
G01 Z-0.50000 F60.00000 ( plunge. )
G04 P0 ( dwell for no time -- G64 should not smooth over this point )
G01 F100.00000
G01 X-0.52496 Y23.27502
G01 X-0.52496 Y24.77502
G01 X-0.52496 Y47.02502
G01 X-0.53459 Y47.12258
G01 X-0.56304 Y47.21639
G01 X-0.60924 Y47.30282
G01 X-0.67142 Y47.37859
G01 X-0.74719 Y47.44077
G01 X-0.83362 Y47.48697
G01 X-0.92742 Y47.51542
G01 X-1.02499 Y47.52505
G01 X-67.02498 Y47.52505
G01 X-67.12252 Y47.51542
G01 X-67.21632 Y47.48697
G01 X-67.30275 Y47.44077
G01 X-67.37852 Y47.37859
G01 X-67.44070 Y47.30282
G01 X-67.48690 Y47.21639
G01 X-67.51535 Y47.12258
G01 X-67.52498 Y47.02502
G01 X-67.52498 Y24.77502
G01 X-67.52498 Y23.27502
G01 X-67.52498 Y1.02501
G01 X-67.51535 Y0.92748
G01 X-67.48690 Y0.83368
G01 X-67.44070 Y0.74724
G01 X-67.37852 Y0.67147
G01 X-67.30275 Y0.60929
G01 X-67.21632 Y0.56309
G01 X-67.12252 Y0.53464
G01 X-67.02498 Y0.52501
G01 X-1.02499 Y0.52501
G01 X-0.92742 Y0.53464
G01 X-0.83362 Y0.56309
G01 X-0.74719 Y0.60929
G01 X-0.67142 Y0.67147
G01 X-0.60924 Y0.74724
G01 X-0.56304 Y0.83368
G01 X-0.53459 Y0.92748
G01 X-0.52496 Y1.02501
G01 Z-1.00000 F60.00000 ( plunge. )
G04 P0 ( dwell for no time -- G64 should not smooth over this point )
G01 F100.00000
G01 X-0.52496 Y23.27502
G00 Z-0.60000
G01 X-0.52496 Y24.77502
G01 Z-1.00000 F60.00000
G01 F100.00000
G01 X-0.52496 Y47.02502
G01 X-0.53459 Y47.12258
G01 X-0.56304 Y47.21639
G01 X-0.60924 Y47.30282
G01 X-0.67142 Y47.37859
G01 X-0.74719 Y47.44077
G01 X-0.83362 Y47.48697
G01 X-0.92742 Y47.51542
G01 X-1.02499 Y47.52505
G01 X-67.02498 Y47.52505
G01 X-67.12252 Y47.51542
G01 X-67.21632 Y47.48697
G01 X-67.30275 Y47.44077
G01 X-67.37852 Y47.37859
G01 X-67.44070 Y47.30282
G01 X-67.48690 Y47.21639
G01 X-67.51535 Y47.12258
G01 X-67.52498 Y47.02502
G01 X-67.52498 Y24.77502
G00 Z-0.60000
G01 X-67.52498 Y23.27502
G01 Z-1.00000 F60.00000
G01 F100.00000
G01 X-67.52498 Y1.02501
G01 X-67.51535 Y0.92748
G01 X-67.48690 Y0.83368
G01 X-67.44070 Y0.74724
G01 X-67.37852 Y0.67147
G01 X-67.30275 Y0.60929
G01 X-67.21632 Y0.56309
G01 X-67.12252 Y0.53464
G01 X-67.02498 Y0.52501
G01 X-1.02499 Y0.52501
G01 X-0.92742 Y0.53464
G01 X-0.83362 Y0.56309
G01 X-0.74719 Y0.60929
G01 X-0.67142 Y0.67147
G01 X-0.60924 Y0.74724
G01 X-0.56304 Y0.83368
G01 X-0.53459 Y0.92748
G01 X-0.52496 Y1.02501
G01 Z-1.50000 F60.00000 ( plunge. )
G04 P0 ( dwell for no time -- G64 should not smooth over this point )
G01 F100.00000
G01 X-0.52496 Y23.27502
G00 Z-0.60000
G01 X-0.52496 Y24.77502
G01 Z-1.50000 F60.00000
G01 F100.00000
G01 X-0.52496 Y47.02502
G01 X-0.53459 Y47.12258
G01 X-0.56304 Y47.21639
G01 X-0.60924 Y47.30282
G01 X-0.67142 Y47.37859
G01 X-0.74719 Y47.44077
G01 X-0.83362 Y47.48697
G01 X-0.92742 Y47.51542
G01 X-1.02499 Y47.52505
G01 X-67.02498 Y47.52505
G01 X-67.12252 Y47.51542
G01 X-67.21632 Y47.48697
G01 X-67.30275 Y47.44077
G01 X-67.37852 Y47.37859
G01 X-67.44070 Y47.30282
G01 X-67.48690 Y47.21639
G01 X-67.51535 Y47.12258
G01 X-67.52498 Y47.02502
G01 X-67.52498 Y24.77502
G00 Z-0.60000
G01 X-67.52498 Y23.27502
G01 Z-1.50000 F60.00000
G01 F100.00000
G01 X-67.52498 Y1.02501
G01 X-67.51535 Y0.92748
G01 X-67.48690 Y0.83368
G01 X-67.44070 Y0.74724
G01 X-67.37852 Y0.67147
G01 X-67.30275 Y0.60929
G01 X-67.21632 Y0.56309
G01 X-67.12252 Y0.53464
G01 X-67.02498 Y0.52501
G01 X-1.02499 Y0.52501
G01 X-0.92742 Y0.53464
G01 X-0.83362 Y0.56309
G01 X-0.74719 Y0.60929
G01 X-0.67142 Y0.67147
G01 X-0.60924 Y0.74724
G01 X-0.56304 Y0.83368
G01 X-0.53459 Y0.92748
G01 X-0.52496 Y1.02501
G01 Z-2.00000 F60.00000 ( plunge. )
G04 P0 ( dwell for no time -- G64 should not smooth over this point )
G01 F100.00000
G01 X-0.52496 Y23.27502
G00 Z-0.60000
G01 X-0.52496 Y24.77502
G01 Z-2.00000 F60.00000
G01 F100.00000
G01 X-0.52496 Y47.02502
G01 X-0.53459 Y47.12258
G01 X-0.56304 Y47.21639
G01 X-0.60924 Y47.30282
G01 X-0.67142 Y47.37859
G01 X-0.74719 Y47.44077
G01 X-0.83362 Y47.48697
G01 X-0.92742 Y47.51542
G01 X-1.02499 Y47.52505
G01 X-67.02498 Y47.52505
G01 X-67.12252 Y47.51542
G01 X-67.21632 Y47.48697
G01 X-67.30275 Y47.44077
G01 X-67.37852 Y47.37859
G01 X-67.44070 Y47.30282
G01 X-67.48690 Y47.21639
G01 X-67.51535 Y47.12258
G01 X-67.52498 Y47.02502
G01 X-67.52498 Y24.77502
G00 Z-0.60000
G01 X-67.52498 Y23.27502
G01 Z-2.00000 F60.00000
G01 F100.00000
G01 X-67.52498 Y1.02501
G01 X-67.51535 Y0.92748
G01 X-67.48690 Y0.83368
G01 X-67.44070 Y0.74724
G01 X-67.37852 Y0.67147
G01 X-67.30275 Y0.60929
G01 X-67.21632 Y0.56309
G01 X-67.12252 Y0.53464
G01 X-67.02498 Y0.52501
G01 X-1.02499 Y0.52501
G01 X-0.92742 Y0.53464
G01 X-0.83362 Y0.56309
G01 X-0.74719 Y0.60929
G01 X-0.67142 Y0.67147
G01 X-0.60924 Y0.74724
G01 X-0.56304 Y0.83368
G01 X-0.53459 Y0.92748
G01 X-0.52496 Y1.02501

G04 P0 ( dwell for no time -- G64 should not smooth over this point )
G00 Z30.000000 ( retract )

M5 ( Spindle off. )
G04 P1.000000
M9 ( Coolant off. )
M2 ( Program end. )

